,school_name,address,latitude,longitude
0,가락고등학교,서울특별시 송파구 송이로 42,37.4929505,127.1250749
1,가재울고등학교,서울특별시 서대문구 수색로 100-35,37.5772579,126.9027849
2,강동고등학교,서울특별시 강동구 구천면로 572,37.55013,127.14665
3,강서고등학교,서울특별시 양천구 목동중앙남로 27,37.53682595,126.86656198078518
4,강서공업고등학교,서울특별시 강서구 방화대로47길 9,37.5761628,126.8149871
5,강일고등학교,서울특별시 강동구 아리수로98길 40,37.5647685,127.1781818
6,개포고등학교,서울특별시 강남구 개포로 402,37.4851416,127.0586768
7,건국대학교사범대학부속고등학교,서울특별시 광진구 능동로 120,37.54178965,127.07703425484976
8,경기고등학교,서울특별시 강남구 영동대로 643,37.518055200000006,127.05685242265903
9,경기기계공업고등학교,서울특별시 노원구 공릉로 264,37.6405461,127.0688312
10,경기상업고등학교,서울특별시 종로구 자하문로 136,37.58855965,126.96976764754099
11,경기여자고등학교,서울특별시 강남구 삼성로 29,37.487175,127.065613
12,경동고등학교,서울특별시 성북구 보문로29길 49,37.5875664,127.0157458
13,경문고등학교,서울특별시 동작구 동작대로 171,37.5017989,126.9813269
14,경복고등학교,서울특별시 종로구 자하문로28가길 9,37.586870399999995,126.97152254488992
15,경복비즈니스고등학교,서울특별시 강서구 화곡로 379,37.5616292,126.8553625
16,경복여자고등학교,서울특별시 강서구 화곡로63길 40,37.5582207,126.8493097
17,경성고등학교,서울특별시 마포구 성미산로 111,37.5593395,126.9144681
18,경신고등학교,서울특별시 종로구 혜화로 74,37.5875025,126.9998726
19,경인고등학교,서울특별시 구로구 경인로46길 31,37.4969695,126.8649785
20,경일고등학교,서울특별시 성동구 성수일로 27,37.5475349,127.0508181
21,경희고등학교,서울특별시 동대문구 경희대로 26,37.5971213,127.05198672345011
22,경희여자고등학교,서울특별시 동대문구 경희대로 26,37.5971213,127.05198672345011
23,계성고등학교,서울특별시 성북구 길음로 63,37.6035793,127.0227322
24,고려대학교사범대학부속고등학교,서울특별시 성북구 정릉로 161,37.6104175,127.0011439
25,고명외식고등학교,서울특별시 성북구 북악산로 870,37.5995,127.01739
26,고척고등학교,서울특별시 구로구 중앙로15길 162,37.5070401,126.859874
27,공항고등학교,서울특별시 강서구 방화대로34길 43,37.5701427,126.8193294
28,관악고등학교,서울특별시 영등포구 영등포로6길 26,37.5224531,126.8842074
29,광남고등학교,서울특별시 광진구 아차산로70길 17-16,37.5392062,127.0983054
30,광문고등학교,서울특별시 강동구 동남로 968,37.5388723,127.1526324
31,광성고등학교,서울특별시 마포구 신수로8길 20,37.5489751,126.9363256
32,광신고등학교,서울특별시 관악구 광신길 141,37.464200149999996,126.92472333363497
33,광신방송예술고등학교,서울특별시 관악구 광신길 141,37.464200149999996,126.92472333363497
34,광양고등학교,서울특별시 광진구 자양로3가길 31,37.5296488,127.0842557
35,광영고등학교,서울특별시 양천구 남부순환로30길 17,37.5387459,126.8254855
36,광영여자고등학교,서울특별시 양천구 남부순환로30길 17,37.5387459,126.8254855
37,광운전자공업고등학교,서울특별시 노원구 광운로1길 24,37.6201745,127.0545527
38,구로고등학교,서울특별시 구로구 가마산로27길 45,37.4968088,126.8903124
39,구암고등학교,서울특별시 관악구 성현로 57,37.4922089,126.9451788
40,구일고등학교,서울특별시 구로구 구일로 90-51,37.49231,126.8725058
41,구현고등학교,서울특별시 구로구 경인로53가길 17,37.5026693,126.8746664
42,국립국악고등학교,서울특별시 강남구 개포로22길 65,37.4760475,127.0504367
43,국립전통예술고등학교,서울특별시 금천구 시흥대로38길 62,37.4457391,126.90694407890126
44,금옥여자고등학교,서울특별시 양천구 신정로 213,37.5082119,126.8402991
45,금천고등학교,서울특별시 금천구 시흥대로38길 26,37.4447079,126.90557537948447
46,금호고등학교,서울특별시 성동구 금호로 118,37.5502402,127.0260283
47,남강고등학교,서울특별시 관악구 난곡로34길 80,37.4724219,126.92460397069857
48,노원고등학교,서울특별시 노원구 노원로 586,37.63779,127.07807
49,누원고등학교,서울특별시 도봉구 마들로 849,37.6622982,127.0466501
50,단국대학교부속소프트웨어고등학교,서울특별시 강남구 도곡로64길 21,37.4956806,127.0552866
51,단국대학교사범대학부속고등학교,서울특별시 강남구 도곡로64길 21,37.4956806,127.0552866
52,당곡고등학교,서울특별시 관악구 봉천로21길 108,37.4896784,126.9342441
53,대경상업고등학교,서울특별시 중구 매봉18길 111,37.5513001,127.0171096
54,대광고등학교,서울특별시 동대문구 안암로 6,37.5895166,127.0360488
55,대동세무고등학교,서울특별시 종로구 계동길 84-10,37.581444250000004,126.9878754436709
56,대성고등학교,서울특별시 은평구 갈현로29길 51-24,37.6227411,126.9112585
57,대신고등학교,서울특별시 종로구 사직로 9,37.575405,126.9770851
58,대영고등학교,서울특별시 영등포구 도림로86길 16,37.503775,126.9054776
59,대원고등학교,서울특별시 광진구 용마산로22길 26,37.5638447,127.0894276
60,대원여자고등학교,서울특별시 광진구 용마산로22길 26,37.5638447,127.0894276
61,대원외국어고등학교,서울특별시 광진구 용마산로22길 26,37.5638447,127.0894276
62,대일고등학교,서울특별시 강서구 등촌로 105,37.5511833,126.8643895
63,대일관광고등학교,서울특별시 양천구 신정이펜1로 11,37.5115131,126.8341834
64,대일외국어고등학교,서울특별시 성북구 서경로 116,37.6069889,127.0155058
65,대진고등학교,서울특별시 노원구 공릉로62가길 47,37.6364067,127.0723732
66,대진디자인고등학교,서울특별시 강남구 광평로39길 93,37.4882911,127.0982846
67,대진여자고등학교,서울특별시 노원구 공릉로 438,37.6405461,127.0688312
68,덕성여자고등학교,서울특별시 종로구 율곡로3길 50,37.577991049999994,126.98297156862725
69,덕수고등학교,서울특별시 성동구 왕십리로 199,37.55867,127.03781
70,덕원여자고등학교,서울특별시 강서구 강서로45길 91-44,37.5485539,126.82875514999998
71,덕원예술고등학교,서울특별시 강서구 강서로45길 91-44,37.5485539,126.82875514999998
72,덕일전자공업고등학교,서울특별시 구로구 서해안로21길 5-12,37.4916801,126.839831
73,도봉고등학교,서울특별시 도봉구 도봉산길 27,37.6873334,127.0422947
74,도선고등학교,서울특별시 성동구 마장로 156,37.5660174,127.0364758
75,독산고등학교,서울특별시 금천구 문성로 64,37.476248600000005,126.91084052970379
76,동구마케팅고등학교,서울특별시 성북구 성북로8길 71,37.5915303,127.0054742
77,동국대학교사범대학부속고등학교,서울특별시 동대문구 장안벚꽃로 201,37.57785,127.07639
78,동국대학교사범대학부속여자고등학교,서울특별시 광진구 광나루로36길 47,37.5435491,127.0864008
79,동덕여자고등학교,서울특별시 서초구 효령로2길 123-5,37.4750679,126.9912963
80,동명생활경영고등학교,서울특별시 은평구 통일로 793,37.6251416,126.9200157
81,동명여자고등학교,서울특별시 은평구 통일로 793,37.6251416,126.9200157
82,동북고등학교,서울특별시 강동구 강동대로 305,37.517128,127.1435729
83,동산정보산업고등학교,서울특별시 노원구 공릉로 257,37.6405461,127.0688312
84,동성고등학교,서울특별시 종로구 대학로 156,37.58504665,127.00248009191591
85,동양고등학교,서울특별시 강서구 허준로 50,37.569209,126.84720100000001
86,동일여자고등학교,서울특별시 금천구 탑골로10길 45,37.45141475,126.91638825348102
87,동일여자상업고등학교,서울특별시 금천구 탑골로10길 45,37.45141475,126.91638825348102
88,동작고등학교,서울특별시 동작구 솔밭로 51,37.4854348,126.9681859
89,둔촌고등학교,서울특별시 강동구 명일로 140,37.55213,127.14981
90,등촌고등학교,서울특별시 강서구 공항대로39길 115,37.5613245,126.8445763
91,리라아트고등학교,서울특별시 중구 소파로2길,37.5574448,126.9878648
92,마포고등학교,서울특별시 강서구 화곡로 403,37.5616292,126.8553625
93,면목고등학교,서울특별시 중랑구 용마산로72길 36-14,37.5836426,127.094409
94,명덕고등학교,서울특별시 강서구 강서로47길 34-10,37.55414655,126.83342778438833
95,명덕여자고등학교,서울특별시 강서구 강서로47길 34-10,37.55414655,126.83342778438833
96,명덕외국어고등학교,서울특별시 강서구 강서로47길 34-10,37.55414655,126.83342778438833
97,명일여자고등학교,서울특별시 강동구 명일로 350,37.54986805,127.1510109875062
98,명지고등학교,서울특별시 서대문구 명지2길 56,37.5841049,126.9281067
99,목동고등학교,서울특별시 양천구 목동동로2길 68,37.5127815,126.8590166
100,무학여자고등학교,서울특별시 성동구 고산자로 197,37.552626,127.0347663
101,문일고등학교,서울특별시 금천구 시흥대로47길 45,37.450313449999996,126.89876786285322
102,문정고등학교,서울특별시 송파구 송이로34길 62,37.4854378,127.1302869
103,문현고등학교,서울특별시 송파구 충민로 115,37.4796972,127.1268915
104,미래산업과학고등학교,서울특별시 노원구 덕릉로82길 54,37.6604011,127.0774617
105,미림여자고등학교,서울특별시 관악구 호암로 546,37.466611400000005,126.93248507466515
106,미림여자정보과학고등학교,서울특별시 관악구 호암로 546,37.466611400000005,126.93248507466515
107,미양고등학교,서울특별시 강북구 인수봉로 39,37.6331021,127.0135479
108,반포고등학교,서울특별시 서초구 고무래로 71,37.5024113,127.0141639
109,방산고등학교,서울특별시 송파구 오금로27길 18,37.5095359,127.122315
110,배명고등학교,서울특별시 송파구 삼학사로 11,37.4999932,127.0968057
111,배문고등학교,서울특별시 용산구 효창원로 258,37.5425527,126.9621542
112,배재고등학교,서울특별시 강동구 고덕로 227,37.5561611,127.1510738
113,배화여자고등학교,서울특별시 종로구 필운대로1길 34,37.578524900000005,126.96686826482605
114,백암고등학교,서울특별시 양천구 신정로13길 16,,
115,보성고등학교,서울특별시 송파구 양재대로 1278,37.4952065,127.1071734
116,보성여자고등학교,서울특별시 용산구 신흥로3가길 66,37.5416451,126.9847916
117,보인고등학교,서울특별시 송파구 오금로49길 18,37.4993013,127.1386717
118,불암고등학교,서울특별시 노원구 중계로 155,37.6462176,127.0816372
119,삼각산고등학교,서울특별시 강북구 삼양로19길 40,37.6166184,127.0176922
120,삼성고등학교,서울특별시 관악구 신림로 41,37.4706765,126.939695
121,상계고등학교,서울특별시 노원구 노해로 432,37.6539346,127.0589604
122,상명고등학교,서울특별시 노원구 덕릉로 553,37.6455461,127.0566429
123,상명대학교사범대학부속여자고등학교,서울특별시 종로구 홍지문2길 20,37.6029659,126.95500919084654
124,상문고등학교,서울특별시 서초구 명달로 45,37.4775297,127.007041
125,상암고등학교,서울특별시 마포구 월드컵북로 445,37.5589588,126.9174887
126,상일미디어고등학교,서울특별시 강동구 천호대로219길 61,37.5482902,127.1697702
127,상일여자고등학교,서울특별시 강동구 천호대로219길 61,37.5482902,127.1697702
128,서라벌고등학교,서울특별시 노원구 한글비석로5길 18,37.6451476,127.07592822528167
129,서문여자고등학교,서울특별시 서초구 동광로12길 84,37.4877672,126.9852569
130,서서울생활과학고등학교,서울특별시 구로구 오리로 1355-10,37.5024965,126.8290531
131,서울고등학교,서울특별시 서초구 효령로 197,37.484077,127.0114198
132,서울공업고등학교,서울특별시 동작구 대방동1길 46,37.500237,126.9279196
133,서울공연예술고등학교,서울특별시 구로구 오리로22나길 16-26,37.500543,126.8318338
134,서울과학고등학교,서울특별시 종로구 혜화로 63,37.5875025,126.9998726
135,서울관광고등학교,서울특별시 관악구 은천로15길 25,37.4871313,126.9440621
136,서울국악예술고등학교,,46.3144754,11.0480288
137,서울국제고등학교,서울특별시 종로구 성균관로13길 40,37.5908817,126.9949146
138,서울금융고등학교,서울특별시 양천구 가로공원로61길 19,37.5375208,126.8262794
139,서울대학교사범대학부설고등학교,서울특별시 성북구 월곡로 6,37.5964405,127.0381623
140,서울도시과학기술고등학교,서울특별시 성북구 종암로 196,37.6031541,127.0322776
141,서울디자인고등학교,서울특별시 마포구 백범로 139,37.5446219,126.9493814
142,서울디지텍고등학교,서울특별시 용산구 회나무로12길 27,37.5388245,126.9900744
143,서울로봇고등학교,서울특별시 강남구 광평로20길 63,37.4812714,127.0835768
144,서울문영여자고등학교,서울특별시 관악구 관악로 85,37.4742309,126.9529237
145,서울문화고등학교,서울특별시 도봉구 마들로 598,37.6622982,127.0466501
146,서울미술고등학교,서울특별시 관악구 남부순환로247길 26,37.4784602,126.9656647
147,서울방송고등학교,서울특별시 성동구 동호로5길 131,,
148,서울세종고등학교,서울특별시 강남구 광평로51길 36,37.4901459,127.1014286
149,서울신정고등학교,서울특별시 강서구 등촌로13아길 20,37.5382607,126.856148
150,서울아이티고등학교,서울특별시 노원구 섬밭로 299,37.6429107,127.0624329
151,서울여자고등학교,서울특별시 마포구 백범로25길 34,37.5495042,126.9479177
152,서울여자상업고등학교,서울특별시 관악구 관악로 85,37.4742309,126.9529237
153,서울영상고등학교,서울특별시 양천구 목동로11길 46,37.5231607,126.862026
154,서울예술고등학교,서울특별시 종로구 평창문화로 70,37.607765,126.9723584
155,서울외국어고등학교,서울특별시 도봉구 덕릉로66길 22,37.6445985,127.0522219
156,서울의료보건고등학교,서울특별시 중구 만리재로37길 30,37.5568392,126.965634
157,서울전자고등학교,서울특별시 서초구 과천대로 852-23,37.4626813,126.9880724
158,서울체육고등학교,서울특별시 송파구 강동대로 232,37.5212734,127.1338081
159,서울컨벤션고등학교,서울특별시 강동구 동남로 964,37.5388723,127.1526324
160,서울항공비즈니스고등학교,서울특별시 강서구 방화대로34길 13,37.5701427,126.8193294
161,서일문화예술고등학교,서울특별시 종로구 지봉로17길 49,37.5797999,127.0127642
162,서초고등학교,서울특별시 서초구 반포대로27길 29,,
163,석관고등학교,서울특별시 성북구 한천로70길 30,37.6092446,127.0656818
164,선덕고등학교,서울특별시 도봉구 시루봉로 53,37.6686889,127.0353376
165,선린인터넷고등학교,서울특별시 용산구 원효로97길 33-4,37.5419011,126.9692579
166,선사고등학교,서울특별시 강동구 고덕로25길 17,37.5555553,127.1351204
167,선유고등학교,서울특별시 영등포구 선유로 227,37.5384375,126.8999459
168,선일여자고등학교,서울특별시 은평구 갈현로29길 27,37.6227411,126.9112585
169,선일이비즈니스고등학교,서울특별시 은평구 갈현로29길 27,37.6227411,126.9112585
170,선정고등학교,서울특별시 은평구 서오릉로20길 19,37.6170002,126.9103593
171,선정국제관광고등학교,서울특별시 은평구 서오릉로20길 19,37.6170002,126.9103593
172,선화예술고등학교,서울특별시 광진구 천호대로 664,37.5581348,127.0770109
173,성남고등학교,서울특별시 동작구 대방동길 74,37.5027855,126.9264858
174,성덕고등학교,서울특별시 강동구 구천면로 396,37.55013,127.14665
175,성동고등학교,서울특별시 중구 퇴계로90길 17,37.5640199,127.02271277767076
176,성동공업고등학교,서울특별시 중구 다산로 290,37.5574729,127.012139
177,성동글로벌경영고등학교,서울특별시 중구 퇴계로 375,37.5652647,127.01334910598285
178,성보고등학교,서울특별시 관악구 남부순환로156길 39,37.48060045,126.92190666865375
179,성수고등학교,서울특별시 성동구 서울숲길 18,37.54797,127.0413
180,성수공업고등학교,서울특별시 성동구 뚝섬로 365,37.5442906,127.0353502
181,성신여자고등학교,서울특별시 성북구 동소문로26가길 80,37.5948277,127.0217765
182,성심여자고등학교,서울특별시 용산구 원효로19길 49,37.5332447,126.9543115
183,성암국제무역고등학교,서울특별시 강북구 도봉로29길 52,37.6204441,127.0260262
184,세그루패션디자인고등학교,서울특별시 도봉구 시루봉로 53,37.6686889,127.0353376
185,세명컴퓨터고등학교,서울특별시 은평구 통일로92가길 33,37.6262911,126.9224076
186,세종과학고등학교,서울특별시 구로구 오리로21길 79,37.4981967,126.8271072
187,세현고등학교,서울특별시 강서구 허준로 227,37.5652368,126.8535763
188,세화고등학교,서울특별시 서초구 신반포로 56-7,37.5048617,127.0009917
189,세화여자고등학교,서울특별시 서초구 신반포로 56-7,37.5048617,127.0009917
190,송곡고등학교,서울특별시 중랑구 양원역로 50,37.60590705,127.1078286131237
191,송곡관광고등학교,서울특별시 중랑구 양원역로 67,37.6091288,127.1064611
192,송곡여자고등학교,서울특별시 중랑구 양원역로 67,37.6091288,127.1064611
193,송파공업고등학교,서울특별시 송파구 양산로 21,37.4891067,127.1428235
194,수도여자고등학교,서울특별시 동작구 여의대방로10길 73,,
195,수도전기공업고등학교,서울특별시 강남구 개포로 410,37.4890796,127.0659768
196,수락고등학교,서울특별시 노원구 동일로245길 143,37.681352,127.0523756
197,수명고등학교,서울특별시 강서구 수명로2길 15,37.5497615,126.825342
198,숙명여자고등학교,서울특별시 강남구 남부순환로 2807,37.4936951,127.0963102
199,숭문고등학교,서울특별시 마포구 숭문길 99,37.5491066,126.9456382
200,숭실고등학교,서울특별시 은평구 은평터널로7길 6,37.5923006,126.9062237
201,숭의여자고등학교,서울특별시 동작구 여의대방로36길 79,37.5058366,126.9249678
202,신광여자고등학교,서울특별시 용산구 청파로 263,37.5483895,126.9700983
203,신도고등학교,서울특별시 은평구 통일로 961,37.629081400000004,126.91848221499637
204,신도림고등학교,서울특별시 구로구 경인로67길 159,37.5120194,126.8880317
205,신림고등학교,서울특별시 관악구 문성로 119,37.478591949999995,126.91710401267807
206,신목고등학교,서울특별시 양천구 안양천로 739,37.5117857,126.874196
207,신서고등학교,서울특별시 양천구 은행정로 42,37.5228758,126.8595244
208,신일고등학교,서울특별시 강북구 솔매로49길 20,37.6283087,127.0261751
209,신진과학기술고등학교,서울특별시 은평구 은평로6길 16,37.5990158,126.9190898
210,신현고등학교,서울특별시 중랑구 봉화산로 174,37.6015515,127.0768792
211,압구정고등학교,서울특별시 강남구 압구정로39길 20,37.5309826,127.0317721
212,양재고등학교,서울특별시 서초구 남부순환로346길 9,37.4837028,127.0314133
213,양정고등학교,서울특별시 양천구 안양천로 1039,37.5338001,126.8861003
214,양천고등학교,서울특별시 양천구 신정로14길 13,37.5086039,126.8447718
215,언남고등학교,서울 서초구 동산로13길 35,37.472583,127.04243099054224
216,여의도고등학교,서울특별시 영등포구 국제금융로7길 37,37.5248101,126.9352732
217,여의도여자고등학교,서울특별시 영등포구 국제금융로7가길 13,37.5235748,126.9332478
218,염광고등학교,서울특별시 노원구 월계로45가길 9,37.6298221,127.050926
219,염광여자메디텍고등학교,서울특별시 노원구 월계로45가길 9,37.6298221,127.050926
220,영동고등학교,서울특별시 강남구 선릉로 742,37.4835455,127.0595081
221,영동일고등학교,서울특별시 송파구 석촌호수로 93,37.5080571,127.1029546
222,영등포고등학교,서울특별시 동작구 등용로8길 5,37.5070143,126.933918
223,영등포공업고등학교,서울특별시 강서구 허준로5길 15,,
224,영등포여자고등학교,서울특별시 영등포구 영등포로62길 13,,
225,영락고등학교,서울특별시 관악구 청룡16길 25,37.4761896,126.9439846
226,영락의료과학고등학교,서울특별시 관악구 청룡16길 25,37.4761896,126.9439846
227,영신간호비즈니스고등학교,서울특별시 노원구 중계로16나길 13,37.6514782,127.082039
228,영신고등학교,서울 영등포구 대방천로14길 18,37.4969586,126.9103845
229,영신여자고등학교,서울특별시 노원구 중계로16나길 13,37.6514782,127.082039
230,영일고등학교,서울특별시 강서구 등촌로51가길 26,37.5478089,126.8623635
231,영파여자고등학교,서울특별시 송파구 올림픽로 565,37.5115118,127.0887809
232,영훈고등학교,서울특별시 강북구 도봉로13가길 19,37.6147277,127.0290014
233,예림디자인고등학교,서울특별시 구로구 오리로21길 2,37.4981967,126.8271072
234,예일디자인고등학교,서울특별시 은평구 연서로 117,37.6181121,126.9199353
235,예일여자고등학교,서울특별시 은평구 연서로 117,37.6181121,126.9199353
236,오금고등학교,서울특별시 송파구 중대로 247,37.4938313,127.1212657
237,오류고등학교,서울특별시 구로구 오리로21길 2,37.4981967,126.8271072
238,오산고등학교,서울특별시 용산구 보광로7길 17,37.5257452,126.9997279
239,용문고등학교,서울특별시 성북구 고려대로17가길 46,37.5870062,127.0251152
240,용산고등학교,서울특별시 용산구 두텁바위로 60,37.5454799,126.9751077
241,용산공업고등학교,서울특별시 용산구 서빙고로 24,37.527894,127.0057697
242,용화여자고등학교,서울특별시 노원구 동일로 1461,37.6755171,127.0553201
243,우신고등학교,서울특별시 구로구 부일로 917,37.4929402,126.8247592
244,원묵고등학교,서울특별시 중랑구 숙선옹주로 82,37.6144175,127.0806791
245,월계고등학교,서울특별시 노원구 초안산로5길 66,37.6322965,127.049459
246,유한공업고등학교,서울특별시 구로구 경인로 8,37.487907,126.82301712701619
247,은광여자고등학교,서울특별시 강남구 남부순환로359길 36,37.4864478,127.0360761
248,은평고등학교,서울특별시 은평구 갈현로15길 51,37.6089913,126.9058937
249,은평메디텍고등학교,서울특별시 은평구 진관2로 57-57,37.6355375,126.92919519237586
250,이화여자고등학교,서울특별시 중구 정동길,37.5672063,126.9713103
251,이화여자대학교병설미디어고등학교,서울특별시 중랑구 망우로73길 56,37.6025231,127.1033397
252,이화여자대학교사범대학부속이화금란고등학교,서울특별시 서대문구 성산로 560,37.568222,126.947955
253,이화여자외국어고등학교,서울특별시 중구 통일로4길 30,37.5648581,126.9685335
254,인덕과학기술고등학교,서울특별시 노원구 초안산로 12,37.6308138,127.0550367
255,인창고등학교,서울특별시 서대문구 경기대로 65,37.5658032,126.9645347
256,인헌고등학교,서울특별시 관악구 인헌9길 74,37.4723589,126.9680576
257,일신여자상업고등학교,서울특별시 송파구 송파대로38길 8,37.5005642,127.1119355
258,자양고등학교,서울특별시 광진구 뚝섬로37길 28,37.5351178,127.0720196
259,자운고등학교,서울특별시 도봉구 노해로69길 150,37.65594,127.0498
260,잠신고등학교,서울특별시 송파구 잠실로 24,37.5116254,127.1027472
261,잠실고등학교,서울특별시 송파구 올림픽로33길 71,37.5210763,127.1076337
262,잠실여자고등학교,서울특별시 송파구 송파대로38길 8,37.5005642,127.1119355
263,잠일고등학교,서울특별시 송파구 백제고분로 21,37.51439285,127.08250392125694
264,장충고등학교,서울특별시 중구 동호로15길 93,37.5553403,127.0094423
265,장훈고등학교,서울특별시 영등포구 영등포로64길 26,37.513058,126.9159772
266,재현고등학교,서울특별시 노원구 덕릉로82길 64,37.6604011,127.0774617
267,정신여자고등학교,서울특별시 송파구 올림픽로4길 16,37.50883585,127.0723847957489
268,정의여자고등학교,서울특별시 도봉구 노해로49길 69,37.6518966,127.0298023
269,정화여자상업고등학교,서울특별시 동대문구 홍릉로15길 50,37.5852717,127.0416142
270,중경고등학교,서울특별시 용산구 이촌로84길 34,37.5178676,126.9765702
271,중동고등학교,서울특별시 강남구 일원로 7,37.48979,127.08132
272,중산고등학교,서울특별시 강남구 일원로14길 22,37.4851495,127.0810889
273,중앙고등학교,서울특별시 종로구 창덕궁길 164,37.5848696,126.98679618629659
274,중앙대학교사범대학부속고등학교,서울특별시 강남구 선릉로 207,37.4835455,127.0595081
275,중앙여자고등학교,서울특별시 서대문구 북아현로11가길 7,37.5631121,126.9542292
276,중화고등학교,서울특별시 중랑구 봉화산로27길 62,37.6041242,127.0823263
277,진관고등학교,서울특별시 은평구 진관4로 26,37.6432684,126.92442195693478
278,진명여자고등학교,서울특별시 양천구 목동로 170,37.5111173,126.8711813
279,진선여자고등학교,서울특별시 강남구 선릉로85길 27,37.5025771,127.0489053
280,창덕여자고등학교,서울특별시 송파구 양재대로 1240,37.4952065,127.1071734
281,창동고등학교,서울특별시 도봉구 노해로62길 7,37.64893,127.03798
282,창문여자고등학교,서울특별시 강북구 월계로 61,37.62419,127.04958
283,청담고등학교,서울특별시 강남구 압구정로 419,37.5237263,127.0217276
284,청량고등학교,서울특별시 동대문구 왕산로 303,37.5762161,127.0254329
285,청원고등학교,서울특별시 노원구 한글비석로 506,37.6661065,127.06948626989912
286,청원여자고등학교,서울특별시 노원구 한글비석로 506,37.6661065,127.06948626989912
287,충암고등학교,서울특별시 은평구 가좌로5길 5,37.5862196,126.9213403
288,태릉고등학교,서울특별시 중랑구 신내로23길 36,37.6182736,127.0852454
289,풍문고등학교,서울특별시 강남구 자곡로 152,37.4767169,127.109981
290,하나고등학교,서울특별시 은평구 연서로 535,37.6413738,126.9369372927222
291,한가람고등학교,서울특별시 양천구 목동서로 15,37.537400700000006,126.88405047840865
292,한강미디어고등학교,서울특별시 영등포구 선유로55길 22,37.5384567,126.8968893
293,한광고등학교,서울특별시 강서구 등촌로13길 110,37.5379589,126.8584522
294,한국삼육고등학교,서울특별시 노원구 화랑로 815,37.6397212,127.1102445
295,한서고등학교,서울특별시 강서구 양천로11길 47,37.5740824,126.8099455
296,한성고등학교,서울특별시 서대문구 북아현로1길 24,37.5586955,126.9541525
297,한성과학고등학교,서울특별시 서대문구 통일로 279-79,37.5718039,126.9607046
298,한성여자고등학교,서울특별시 성북구 삼선교로16길 117,37.5881728,127.0114302
299,한세사이버보안고등학교,서울특별시 마포구 마포대로11길 44-80,37.5492302,126.9512323
300,한양공업고등학교,서울특별시 중구 을지로 299,37.5660099,126.9789782
301,한양대학교사범대학부속고등학교,서울특별시 성동구 마조로 42,37.561828,127.0416161
302,한영고등학교,서울특별시 강동구 동남로 832,37.5388723,127.1526324
303,한영외국어고등학교,서울특별시 강동구 동남로 832,37.5388723,127.1526324
304,해성국제컨벤션고등학교,서울특별시 동대문구 전농로20길 31,37.5796508,127.0571269
305,해성여자고등학교,서울특별시 동대문구 전농로20길 31,37.5796508,127.0571269
306,현대고등학교,서울특별시 강남구 압구정로 127,37.5237263,127.0217276
307,혜성여자고등학교,서울특별시 노원구 노원로16길 2,37.6422144,127.0744692
308,혜원여자고등학교,서울특별시 중랑구 봉우재로58길 39,37.5936433,127.0949385
309,혜화여자고등학교,서울특별시 강북구 인수봉로 127,37.6331021,127.0135479
310,홍익대학교사범대학부속고등학교,서울특별시 성북구 성북로14가길 23,37.5946127,127.0020079
311,홍익대학교사범대학부속여자고등학교,서울특별시 마포구 성미산로 51,37.5593395,126.9144681
312,홍익디자인고등학교,서울특별시 마포구 성미산로 111,37.5593395,126.9144681
313,화곡고등학교,서울특별시 강서구 강서로45길 69,37.54763825,126.83260481043592
314,화곡보건경영고등학교,서울특별시 강서구 강서로45길 70,37.54822505,126.83323123053316
315,환일고등학교,서울특별시 중구 환일길 47,37.5549496,126.9608454
316,효문고등학교,서울특별시 도봉구 우이천로 432,37.6306427,127.0432347
317,휘경공업고등학교,서울특별시 동대문구 겸재로 21,37.5858184,127.0762771
318,휘경여자고등학교,서울특별시 동대문구 한천로 247,37.6046141,127.0672219
319,휘문고등학교,서울특별시 강남구 역삼로 541,37.50523845,127.06199826430958
320,휘봉고등학교,서울특별시 동대문구 한천로 290,37.6046141,127.0672219
321,가야고등학교,부산광역시 부산진구 엄광로 152,35.1552771,129.0425282
322,개금고등학교,부산광역시 부산진구 백양대로208번길 71,35.1613884,129.0307368
323,개성고등학교,부산광역시 부산진구 당감서로 137,35.1624538,129.0363471
324,건국고등학교,부산광역시 사하구 승학로17번길,35.108162,128.9688009
325,경남고등학교,부산광역시 서구 망양로111번길 65,35.1185731,129.0198978
326,경남공업고등학교,부산광역시 부산진구 전포대로175번길 22,35.1522314,129.0652369
327,경남여자고등학교,부산광역시 동구 수정중로 29,35.1307254,129.0446233
328,경성전자고등학교,부산광역시 서구 꽃마을로 25,35.116165800000005,129.01324715946464
329,경원고등학교,부산광역시 부산진구 백양관문로 40,35.1684136,129.0273938
330,경일고등학교,부산광역시 강서구 영강길 153-42,35.1092432,128.9252571
331,경혜여자고등학교,부산광역시 북구 시랑로21번길 138,35.2039657,129.0070751
332,계성여자고등학교,부산광역시 연제구 해맞이로109번길 47,35.1839057,129.0692505
333,광명고등학교,부산광역시 영도구 와치로 131,35.0778,129.06452
334,구덕고등학교,부산광역시 사상구 학감대로 81,35.1534531,128.9904085
335,금곡고등학교,부산광역시 북구 화명신도시로 236,35.2441398,129.0110824
336,금명여자고등학교,부산광역시 북구 양달로 101,35.2442522,129.0245667
337,금성고등학교,부산광역시 동구 증산로 83,35.1347769,129.0473065
338,금정고등학교,부산광역시 동래구 명장로63번길 60-14,35.2058212,129.1078218
339,금정여자고등학교,부산광역시 금정구 서부로76번길 21,35.2198825,129.0997347
340,금정전자공업고등학교,부산광역시 금정구 서금로 75,35.2216,129.11021
341,기장고등학교,부산광역시 기장군 기장읍 차성서로 77,35.23951475,129.20928411246052
342,낙동고등학교,부산광역시 북구 의성로47번길 23,35.2165558,129.010289
343,남산고등학교,부산광역시 금정구 남산로 66,35.267651799999996,129.08558787125514
344,남성여자고등학교,부산광역시 중구 샘길 14,35.1066094,129.0327881
345,내성고등학교,부산광역시 금정구 서동로31번길 11,35.2203409,129.0928826
346,다대고등학교,부산광역시 사하구 다대낙조2길 199,35.0512,128.9657
347,대광고등학교,부산광역시 사하구 동매로 135,35.1036798,128.9595021
348,대덕여자고등학교,부산광역시 사상구 백양대로804번길 42-55,35.1792335,128.9908453
349,대동고등학교,부산광역시 사하구 을숙도대로709번길 27,35.0860301,128.9836067
350,대명여자고등학교,부산광역시 동래구 시실로 135,35.2176973,129.0856496
351,대양전자통신고등학교,부산광역시 남구 지게골로 128-27,35.1334023,129.0761467
352,대연고등학교,부산광역시 남구 조각공원로 20,35.1295595,129.1013324
353,대진전자통신고등학교,부산광역시 금정구 수림로 92,35.239603,129.0903371
354,덕문고등학교,부산광역시 강서구 동선길 172,35.0538522,128.8321655
355,덕문여자고등학교,부산광역시 수영구 연수로310번길 114,35.1725006,129.104481
356,데레사여자고등학교,부산광역시 동구 정공단로47번길 14,35.1370443,129.0544401
357,동래고등학교,부산광역시 동래구 충렬대로285번길 22,35.2011416,129.0906374
358,동래여자고등학교,부산광역시 금정구 체육공원로 20,35.2444924,129.093727
359,동래원예고등학교,부산광역시 동래구 금강로 43,35.2233512,129.0815062
360,동명공업고등학교,부산광역시 남구 신선로 410,35.1219258,129.0988547
361,동아고등학교,부산광역시 사하구 괴정로244번길 63,35.0955464,128.9879207
362,동아공업고등학교,부산광역시 사하구 괴정로260번길 79,35.0957346,128.9893372
363,동의공업고등학교,부산광역시 부산진구 양지로 50,35.1681858,129.0693466
364,동인고등학교,부산광역시 동래구 쇠미로31번길 34,35.1972293,129.0524428
365,동주여자고등학교,부산광역시 중구 광복중앙로 18,35.1006059,129.0313464
366,동천고등학교,부산광역시 남구 못골번영로 105,35.1359231,129.0891106
367,만덕고등학교,부산광역시 북구 함박봉로140번길 98-12,35.2048897,129.0328898
368,명호고등학교,부산광역시 강서구 명지오션시티2로 97,35.0831302,128.8994566
369,문현여자고등학교,부산광역시 남구 고동골로 86-41,35.1455624,129.0737745
370,반여고등학교,부산광역시 해운대구 반여로 136,35.1958806,129.1213119
371,배정고등학교,부산광역시 남구 장고개로85번길 14-16,35.1324941,129.0685039
372,배정미래고등학교,부산광역시 남구 장고개로85번길 14-40,35.1324941,129.0685039
373,부경고등학교,부산광역시 서구 망양로33번길 12,35.1137506,129.013153
374,부산강서고등학교,부산광역시 강서구 공항로1309번길 96-7,35.2164784,128.9845983
375,부산고등학교,부산광역시 동구 초량로40번길 23,35.1212315,129.0372266
376,부산공업고등학교,부산광역시 남구 수영로196번길 80,35.1319839,129.0883367
377,부산과학고등학교,부산광역시 금정구 금샘로 455-1,35.26340465,129.08312605567224
378,부산관광고등학교,부산광역시 서구 천마로 52,35.0944445,129.0216741
379,부산국제고등학교,부산광역시 부산진구 백양관문로 105-70,35.1684136,129.0273938
380,부산국제외국어고등학교,부산광역시 해운대구 해운대로469번길 50-1,35.1706518,129.1408558
381,부산기계공업고등학교,부산광역시 해운대구 해운대로 569,35.184651,129.2014434
382,부산남고등학교,부산광역시 영도구 중리북로 5,35.07147,129.06813
383,부산남일고등학교,부산광역시 수영구 망미배산로48번길 85-23,35.1782178,129.103438
384,부산대저고등학교,부산광역시 강서구 공항로811번가길 46,35.1785442,128.9569965
385,부산대학교사범대학부설고등학교,부산광역시 금정구 기찰로22번길 30,35.2328102,129.0944945
386,부산동고등학교,부산광역시 부산진구 동성로30번길 36,35.1531,129.0702741
387,부산동성고등학교,부산광역시 부산진구 동성로 16,35.1590097,129.0679923
388,부산동여자고등학교,부산광역시 수영구 남천서로32번길 39,35.1439557,129.1054044
389,부산디지털고등학교,부산광역시 중구 망양로 356,35.108191,129.0303503
390,부산마케팅고등학교,부산광역시 부산진구 봉수로 13,35.1512998,129.0710999
391,부산문화여자고등학교,부산광역시 해운대구 해운대로469번길 50,35.1706518,129.1408558
392,부산백양고등학교,부산광역시 북구 백양대로1016번길 64,35.1970454,128.997499
393,부산보건고등학교,부산광역시 영도구 절영로 163,35.0906746,129.0388576
394,부산산업과학고등학교,부산광역시 강서구 가락대로 1393,35.1634302,128.8926529
395,부산서여자고등학교,부산광역시 서구 보수대로 202-6,35.1028104,129.0211953
396,부산세무고등학교,부산광역시 남구 진남로 82-19,35.14995,129.07349
397,부산여자고등학교,부산광역시 사하구 낙동대로520번길 36,35.1122441,128.9665596
398,부산여자상업고등학교,부산광역시 수영구 금련로 43,35.1721113,129.0961205
399,부산영상예술고등학교,부산광역시 영도구 영상길 100,35.0850981,129.0440389
400,부산예술고등학교,부산광역시 금정구 체육공원로 20,35.2444924,129.093727
401,부산외국어고등학교,부산광역시 연제구 고분로 144,35.1860649,129.0817351
402,부산일과학고등학교,부산광역시 사하구 제석로 242,35.1166691,128.9889314
403,부산자동차고등학교,부산광역시 사하구 하신중앙로3번나길 16,35.0771674,128.9625479
404,부산장안고등학교,부산광역시 기장군 장안읍 장안고길 8-16,,
405,부산전자공업고등학교,부산광역시 동래구 금강로59번길 51,35.2153515,129.074571
406,부산정보고등학교,부산광역시 부산진구 화지로 24,35.1815155,129.0648763
407,부산정보관광고등학교,부산광역시 금정구 동현로 37,35.2228352,129.0927319
408,부산중앙고등학교,부산광역시 남구 진남로127번길 50,35.1384429,129.0794662
409,부산중앙여자고등학교,부산광역시 동래구 온천천로 131,35.1966964,129.0836208
410,부산진고등학교,부산광역시 부산진구 성지로94번길 54,35.1810809,129.0596036
411,부산진여자고등학교,부산광역시 부산진구 양정로 48,35.1705403,129.0770376
412,부산진여자상업고등학교,부산광역시 부산진구 진남로 524,35.14995,129.07349
413,부산체육고등학교,부산광역시 영도구 중리북로21번길 5,35.07224,129.06621
414,부산컴퓨터과학고등학교,부산광역시 동구 초량로80번길 5,35.1220213,129.0347912
415,부산해사고등학교,부산광역시 영도구 해양로 425,35.0730585,129.0765164
416,부일외국어고등학교,부산광역시 사하구 감천로73번길 36,35.0912293,129.0001718
417,부일전자디자인고등학교,부산광역시 사하구 감천로73번길 36,35.0912293,129.0001718
418,부흥고등학교,부산광역시 해운대구 좌동순환로 248,35.16249,129.17633
419,분포고등학교,부산광역시 남구 분포로 57,35.125309,129.1127608
420,브니엘고등학교,부산광역시 금정구 체육공원로 154,35.2444924,129.093727
421,브니엘여자고등학교,부산광역시 금정구 체육공원로 154,35.2444924,129.093727
422,브니엘예술고등학교,부산광역시 금정구 체육공원로 154,35.2444924,129.093727
423,사상고등학교,부산광역시 사상구 강선로 24,35.1689463,128.9847303
424,사직고등학교,부산광역시 동래구 쇠미로119번길 51,35.2030637,129.0579574
425,사직여자고등학교,부산광역시 동래구 쇠미로27번길 21,35.1966265,129.0532636
426,삼성여자고등학교,부산광역시 사하구 감천로43번길 45,35.0919134,128.9982877
427,삼정고등학교,부산광역시 북구 시랑로118번길 53,35.1938049,129.01000468867943
428,서부산공업고등학교,부산광역시 사상구 백양대로768번길 115,35.1751429,128.9912731
429,성도고등학교,부산광역시 북구 시랑로132번길 87,35.1948621,129.0091574
430,성모여자고등학교,부산광역시 부산진구 양지로 29-1,35.1681858,129.0693466
431,성일여자고등학교,부산광역시 사하구 다대로 161,35.1017688,128.9767015
432,성지고등학교,부산광역시 남구 유엔로 39,35.125477,129.0794739
433,세정고등학교,부산광역시 부산진구 양정로 88-12,35.1705403,129.0770376
434,센텀고등학교,부산광역시 해운대구 해운대로 246,35.184651,129.2014434
435,신도고등학교,부산광역시 해운대구 좌동순환로 64,35.16249,129.17633
436,신정고등학교,부산광역시 기장군 정관읍 정관3로 14,35.3294027,129.1680405
437,양운고등학교,부산광역시 해운대구 양운로 176,35.1653684,129.1789843
438,양정고등학교,부산광역시 부산진구 양정로 46,35.1705403,129.0770376
439,연제고등학교,부산광역시 연제구 쌍미천로30번길 31,35.1767185,129.0915909
440,영도여자고등학교,부산광역시 영도구 중리북로21번길 42,35.07224,129.06621
441,영산고등학교,부산광역시 해운대구 반송순환로 142-1,35.2210465,129.1491436
442,예문여자고등학교,부산광역시 남구 동명로92번길 76,35.1169546,129.1072425
443,용인고등학교,부산광역시 동래구 시실로107번길 37,35.2127962,129.0964657
444,이사벨고등학교,부산광역시 연제구 중앙대로 1197,35.1860649,129.0817351
445,장안제일고등학교,부산광역시 기장군 장안읍 좌천2길 43,35.3131977,129.2414626
446,정관고등학교,부산광역시 기장군 정관읍 정관로 534,35.357524,129.1433116
447,주례여자고등학교,부산광역시 사상구 가야대로366번길 146,35.1467996,129.0130086
448,지구촌고등학교,부산광역시 연제구 중앙대로 1197,35.1860649,129.0817351
449,지산고등학교,부산광역시 금정구 오륜대로 50,35.2414126,129.0944727
450,충렬고등학교,부산광역시 동래구 명장로106번길 26,35.2019063,129.1064247
451,학산여자고등학교,부산광역시 동래구 충렬사로51번길 62,35.2043875,129.0985419
452,한국과학영재학교,부산광역시 부산진구 백양관문로 105-47,35.1684136,129.0273938
453,한국조형예술고등학교,부산광역시 남구 동명로169번길 38,35.1198593,129.1157039
454,한얼고등학교,부산광역시 남구 고동골로69번가길 54,35.1445228,129.0709152
455,해강고등학교,부산광역시 해운대구 해운대해변로 33,35.1591135,129.1583707
456,해동고등학교,부산광역시 사하구 사하로141번나길 11-15,35.0934598,128.9912459
457,해운대고등학교,부산광역시 해운대구 우동3로11번길 43,35.16944,129.1625762
458,해운대공업고등학교,부산광역시 해운대구 해운대로469번길 96,35.1706518,129.1408558
459,해운대관광고등학교,부산광역시 해운대구 우동2로60번길 38,35.1693025,129.1574899
460,해운대여자고등학교,부산광역시 해운대구 우동1로85번길 71,35.1681961,129.1554953
461,혜광고등학교,부산광역시 중구 망양로259번길 5,35.1089803,129.0258933
462,혜화여자고등학교,부산광역시 동래구 명장로 99,35.2047351,129.10629
463,화명고등학교,부산광역시 북구 화명신도시로 169,35.239552450000005,129.0109128533138
464,강동고등학교,대구광역시 동구 금강로 65,35.86481,128.72888
465,강북고등학교,대구광역시 북구 태전로 100,35.929325500000004,128.54127279837093
466,경덕여자고등학교,대구광역시 서구 국채보상로34길 50,35.8658723,128.5498544
467,경명여자고등학교,대구광역시 북구 칠성로17길 18,35.8806147,128.5976819
468,경북고등학교,대구광역시 수성구 청호로 300,35.84418155,128.64056508040355
469,경북공업고등학교,대구광역시 중구 남산로 20,35.8605112,128.5829687
470,경북기계공업고등학교,대구광역시 달서구 월배로 275,35.8118946,128.5176406
471,경북대학교사범대학부설고등학교,대구광역시 중구 달구벌대로 2178,35.8653805,128.5843817
472,경북여자고등학교,대구광역시 중구 중앙대로 288,35.8648672,128.5934156
473,경북여자상업고등학교,대구광역시 남구 명덕로38길 36,35.8562746,128.5889226
474,경북예술고등학교,대구광역시 남구 중앙대로47길 30,35.8543744,128.584516
475,경상고등학교,대구광역시 북구 공항로15길 24,35.9012438,128.6228501
476,경상공업고등학교,대구광역시 남구 대경길 151,35.8473567,128.5727247
477,경상여자고등학교,대구광역시 북구 침산남로9길 164,,
478,경신고등학교,대구광역시 수성구 달구벌대로504길 34,35.8560784,128.6383887
479,경원고등학교,대구광역시 달서구 새방로 77,35.8647874,128.5262227
480,경일여자고등학교,대구광역시 남구 효성로 37,35.8371373,128.5990219
481,경화여자고등학교,대구광역시 달서구 당산로30길 20,35.8496027,128.5469454
482,계성고등학교,대구광역시 서구 새방로 171,35.870347,128.5305004
483,구암고등학교,대구광역시 북구 태암남로11길 7,35.9274828,128.5536793
484,능인고등학교,대구광역시 수성구 무학로 207,35.8298107,128.6206544
485,다사고등학교,대구광역시 달성군 다사읍 달구벌대로 839,35.8527186,128.439655
486,달구벌고등학교,대구광역시 동구 팔공산로2길 16,,
487,달서고등학교,대구광역시 달성군 하빈면 하빈로 118,35.9134699,128.4492675
488,달성고등학교,대구광역시 서구 달구벌대로 1725,35.8587207,128.5597749
489,대건고등학교,대구광역시 달서구 월곡로94길 46,35.8368548,128.5285351
490,대곡고등학교,대구광역시 달서구 도원남로 80,35.8036329,128.53710501105041
491,대구고등학교,대구광역시 남구 중앙대로 171,35.855367,128.5907667
492,대구공업고등학교,대구광역시 동구 대현로 135,35.882641,128.6090868
493,대구과학고등학교,대구광역시 수성구 동대구로 154,35.8636523,128.6267173
494,대구관광고등학교,대구광역시 동구 동북로71길 37,35.8894151,128.6321081
495,대구남산고등학교,대구광역시 수성구 신천동로 364,35.82971,128.60816
496,대구농업마이스터고등학교,대구광역시 수성구 달구벌대로 3170,35.859085,128.6247411
497,대구달서공업고등학교,대구광역시 달서구 학산남로 50,35.8247202,128.5378648
498,대구동부고등학교,대구광역시 동구 반야월북로 199,35.8742304,128.7083749
499,대구보건고등학교,대구광역시 달서구 두류남길 10,35.8571102,128.5700394
500,대구상원고등학교,대구광역시 달서구 월배로 241,35.8118946,128.5176406
501,대구서부고등학교,대구광역시 서구 국채보상로53길 32,35.8734114,128.5593778
502,대구서부공업고등학교,대구광역시 서구 당산로 228,35.8744276,128.5468699
503,대구소프트웨어고등학교,대구광역시 달성군 구지면 창리로11길 93,35.6594005,128.4136431
504,대구여자고등학교,대구광역시 수성구 달구벌대로488길 17,35.8549192,128.6293744
505,대구여자상업고등학교,대구광역시 남구 현충로40길 50,35.8496156,128.5839148
506,대구외국어고등학교,대구광역시 달서구 선원로11길 21,35.8602918,128.4986956
507,대구일과학고등학교,대구광역시 동구 경안로 987,35.88628475,128.72226440289253
508,대구일마이스터고등학교,대구광역시 동구 효동로 48,35.8823614,128.6450122
509,대구전자공업고등학교,대구광역시 달서구 용산로 113,35.8450868,128.5315894
510,대구제일고등학교,대구광역시 서구 국채보상로 384,35.8672041,128.5352753
511,대구제일여자상업고등학교,대구광역시 달서구 대명천로 120,35.8394646,128.5467854
512,대구중앙고등학교,대구광역시 수성구 신천동로 496,35.82971,128.60816
513,대구체육고등학교,대구광역시 북구 칠곡중앙대로136길 29,35.9565519,128.5613643
514,대구혜화여자고등학교,대구광역시 수성구 교학로12길 62,35.8504874,128.6519646
515,대륜고등학교,대구광역시 수성구 달구벌대로 2700,35.859085,128.6247411
516,대원고등학교,대구광역시 달성군 화원읍 비슬로 2658,35.8065271,128.5071581
517,대중금속공업고등학교,대구광역시 북구 관음로 303-12,35.9535719,128.5532688
518,대진고등학교,대구광역시 달서구 화암로73길 15,35.8069137,128.518981
519,덕원고등학교,대구광역시 수성구 욱수길 37,35.8092038,128.7061068
520,도원고등학교,대구광역시 달서구 미리샘길 52,35.8064608,128.5440352
521,동문고등학교,대구광역시 수성구 효행로 17,35.8783233,128.6495162
522,매천고등학교,대구광역시 북구 매전로 70,35.9086895,128.5439062
523,비슬고등학교,대구광역시 달성군 현풍읍 테크노북로 100,35.6952723,128.4517158
524,상서고등학교,대구광역시 달서구 야외음악당로 107,35.8442806,128.5525435
525,상인고등학교,대구광역시 달서구 상인로 24,35.8103884,128.5503246
526,성광고등학교,대구광역시 북구 검단로 150,35.9080019,128.6215765
527,성산고등학교,대구광역시 달서구 새방로7길 33,35.8617633,128.5214835
528,성서고등학교,대구광역시 달서구 선원로 221,35.8594036,128.51601764263586
529,성화여자고등학교,대구광역시 북구 복현로 140,35.90397,128.61843
530,송현여자고등학교,대구광역시 달서구 송현로 156,35.8301917,128.5446176
531,수성고등학교,대구광역시 수성구 용학로28길 36,35.8202683,128.6280781
532,시지고등학교,대구광역시 수성구 신매로 6,35.83433,128.70795
533,신명고등학교,대구광역시 중구 국채보상로102길 48,35.8691264,128.5859813
534,심인고등학교,대구광역시 남구 현충로39길 29,35.8508432,128.5804689
535,영남고등학교,대구광역시 달서구 월곡로 300,35.826147,128.529804
536,영남공업고등학교,대구광역시 수성구 교학로 96,35.84846,128.64909
537,영송여자고등학교,대구광역시 북구 태전로 92,35.9283234,128.54230190294408
538,영신고등학교,대구광역시 동구 팔공로50길 32,35.9208862,128.6469282
539,영진고등학교,대구광역시 북구 동북로57길 9,35.8934616,128.6222576
540,오성고등학교,대구 수성구 달구벌대로522길 78,35.85440085,128.64519082610343
541,와룡고등학교,대구광역시 달서구 선원로23북길 20,35.8606278,128.504999
542,운암고등학교,대구광역시 북구 학정로 378,35.92476,128.5552
543,원화여자고등학교,대구광역시 달서구 당산로30길 30,35.8496027,128.5469454
544,정동고등학교,대구광역시 동구 용계로1길 49,,
545,정화여자고등학교,대구광역시 수성구 청호로84길 123,35.8541248,128.640833
546,조일고등학교,대구광역시 동구 신덕로 136-11,35.8829968,128.693651
547,청구고등학교,대구광역시 동구 국채보상로 827,35.8679984,128.6158283
548,칠성고등학교,대구광역시 북구 칠성로 13,35.8794226,128.5956777
549,포산고등학교,대구광역시 달성군 현풍면 비슬로 556-13,,
550,학남고등학교,대구광역시 북구 학남로 78,35.9494765,128.5697046
551,함지고등학교,대구광역시 북구 학정로48길 46,,
552,현풍고등학교,대구광역시 달성군 현풍읍 비슬로 675,35.6891364,128.447044
553,협성고등학교,대구광역시 남구 효성로 33,35.8371373,128.5990219
554,호산고등학교,대구광역시 달서구 달서대로109길 86,35.8483461,128.4830016
555,화원고등학교,대구광역시 달성군 화원읍 비슬로 2458,35.8002494,128.4918625
556,효성여자고등학교,대구광역시 달서구 월곡로94길 48,35.8368548,128.5285351
557,가림고등학교,인천광역시 서구 원적로 58,37.5006158,126.6879968
558,가정고등학교,인천광역시 서구 서달로 162,37.5066742,126.6785702
559,가좌고등학교,인천광역시 서구 장고개로287번길 24,37.4890593,126.6820681
560,강남영상미디어고등학교,인천광역시 강화군 길상면 강화남로 57,37.6414838,126.47917663155394
561,강화고등학교,인천광역시 강화군 강화읍 고비고개로 20,37.7374059,126.4508293
562,강화여자고등학교,인천광역시 강화군 강화읍 송악길 58,,
563,검단고등학교,인천광역시 서구 검단로540번길 7,37.60368765,126.6648202810228
564,계산고등학교,인천광역시 계양구 주부토로 588,37.5227361,126.7294629
565,계산공업고등학교,인천광역시 계양구 도두리로 47,37.5340056,126.7363334
566,계산여자고등학교,인천광역시 계양구 계산새로 131,37.5379918,126.7367702
567,계양고등학교,인천 계양구 계양문화로 177,37.530771,126.7360839
568,광성고등학교,인천광역시 중구 참외전로244번길 47,37.468821,126.6393693
569,교동고등학교,인천광역시 강화군 교동면 교동남로 77,,
570,대인고등학교,인천광역시 서구 서곶로 446,37.5656889,126.6774134
571,대청고등학교,인천광역시 옹진군 대청면 대청로244번길 116-45,,
572,덕신고등학교,인천광역시 강화군 강화읍 고비고개로 45,37.745086900000004,126.4733711180375
573,덕적고등학교,인천광역시 옹진군 덕적면 덕적남로 15,37.2258504,126.148288
574,도림고등학교,인천광역시 남동구 비류대로762번길 10,37.4161044,126.7242086
575,도화기계공업고등학교,인천광역시 미추홀구 석정로 165,37.4662415,126.6867879
576,동산고등학교,인천광역시 동구 동산로 58,37.4733303,126.6468904
577,동인천고등학교,인천광역시 남동구 만수로75번길 71-15,37.4662575,126.73534596562885
578,명신여자고등학교,인천광역시 부평구 원적로 260,37.5033691,126.7188968
579,문일여자고등학교,인천광역시 남동구 구월로372번길 56,37.4542331,126.7319636
580,문학정보고등학교,인천광역시 미추홀구 소성로350번길 29,37.4351522,126.6858202
581,미추홀외국어고등학교,인천광역시 남동구 에코중앙로 130,37.3864055,126.7143598
582,박문여자고등학교,인천광역시 연수구 송도과학로51번길 16,37.382737899999995,126.66601715667778
583,백령고등학교,인천광역시 옹진군 백령면 백령로 708,37.9741472,124.697356
584,백석고등학교,인천광역시 서구 서곶로 701,37.5656889,126.6774134
585,부개고등학교,인천광역시 부평구 수변로57번길 36,37.4917831,126.7391535
586,부개여자고등학교,인천광역시 부평구 부흥로 433,37.4988233,126.7190451
587,부광고등학교,인천광역시 부평구 화랑로 28,37.4904087,126.7033553
588,부광여자고등학교,인천광역시 부평구 충선로 143,37.4977497,126.7357907
589,부평고등학교,인천광역시 부평구 부흥북로 43,37.5009123,126.7327845
590,부평공업고등학교,인천광역시 부평구 주부토로 194,37.5013883,126.7253847
591,부평여자고등학교,인천광역시 부평구 부흥로243번길 44,37.5000492,126.7189365
592,산마을고등학교,인천광역시 강화군 양도면 강화남로1002번길 73-29,37.6792122,126.4344067
593,삼량고등학교,인천광역시 강화군 내가면 강화서로 184,37.7438955,126.3875011
594,삼산고등학교,인천광역시 부평구 영성중로 54,37.5172418,126.7431479
595,서도고등학교,인천광역시 강화군 서도면 주문도길 173,,
596,서운고등학교,인천광역시 계양구 아나지로 481,37.5253007,126.7398717
597,서인천고등학교,인천광역시 서구 서곶로 475,37.5656889,126.6774134
598,석정여자고등학교,인천광역시 남동구 방축로469번길 27,37.4682802,126.694537
599,선인고등학교,인천광역시 미추홀구 석정로 165,37.4662415,126.6867879
600,세일고등학교,인천광역시 부평구 원적로 245,37.5033691,126.7188968
601,송도고등학교,인천광역시 연수구 독배로 91,37.4305631,126.6461673
602,숭덕여자고등학교,인천광역시 남동구 만수로73번길 20-23,37.4626675,126.7353047
603,신명여자고등학교,인천광역시 남동구 용천로205번길 42,37.4690345,126.7119897
604,신송고등학교,인천광역시 연수구 신송로6번길 56,37.39180675,126.65964575404088
605,안남고등학교,인천광역시 계양구 아나지로308번길 9,37.525488,126.7260581
606,연수고등학교,인천광역시 연수구 원인재로 145,37.41149275,126.67998807637335
607,연수여자고등학교,인천광역시 연수구 먼우금로141번길 9,37.4122351,126.6711338
608,연평고등학교,인천광역시 옹진군 연평면 연평중앙로24번길 25,37.6640619,125.7039237
609,영종국제물류고등학교,인천광역시 중구 운남서로10번길 1,37.4892001,126.5318749
610,영화국제관광고등학교,인천광역시 동구 우각로 39,37.4702892,126.642248
611,옥련여자고등학교,인천광역시 연수구 옥골로 77,37.4329928,126.6483895
612,인명여자고등학교,인천광역시 미추홀구 문화로 11,37.4389511,126.6981649
613,인성여자고등학교,인천광역시 중구 홍예문로 39,37.4746012,126.626187
614,인일여자고등학교,인천광역시 중구 참외전로72번길 10,37.4778253,126.6286514
615,인제고등학교,인천광역시 남동구 석산로197번길 19,37.4616766,126.7140081
616,인천고등학교,인천광역시 미추홀구 경원대로 804,37.4659143,126.6900448
617,인천고잔고등학교,인천광역시 남동구 에코중앙로 117,37.3864055,126.7143598
618,인천공항고등학교,인천광역시 중구 신도시북로 20,37.4974408,126.48588844959957
619,인천과학고등학교,인천광역시 중구 영종대로277번길 74-37,37.4888501,126.5061104
620,인천과학예술영재학교,인천광역시 연수구 아카데미로 192,37.4117067,126.6149825
621,인천국제고등학교,인천광역시 중구 영종대로277번길 74-40,37.4888501,126.5061104
622,인천금융고등학교,인천광역시 남동구 함박뫼로 438-10,37.4148172,126.6993636
623,인천기계공업고등학교,인천광역시 미추홀구 한나루로 545,37.4437357,126.6648082
624,인천남고등학교,인천광역시 남동구 석정로551번길 41,37.4665867,126.6968697
625,인천남동고등학교,인천광역시 남동구 은봉로 283,37.4058449,126.72154447159285
626,인천논현고등학교,인천광역시 남동구 청능대로611번길 54,37.403251,126.726942
627,인천대건고등학교,인천광역시 연수구 능허대로 437,37.3971969,126.6721132
628,인천디자인고등학교,인천광역시 서구 대평로56번길 10,37.5485979,126.6705095
629,인천마전고등학교,인천광역시 서구 마전로 74,37.6125946,126.6613353
630,인천만수고등학교,인천광역시 남동구 장승로 91,37.4468868,126.7475117
631,인천미래생활고등학교,인천광역시 부평구 수변로 165,37.48908,126.74008
632,인천보건고등학교,인천광역시 서구 서달로 58-16,37.5066742,126.6785702
633,인천부흥고등학교,인천광역시 부평구 수변로57번길 61,37.4917831,126.7391535
634,인천뷰티예술고등학교,인천광역시 연수구 원인재로 21,37.4043586,126.674965
635,인천비즈니스고등학교,인천광역시 미추홀구 장고개로 31,37.4717582,126.6675227
636,인천산곡고등학교,인천광역시 부평구 원적로416번길 25,37.5023905,126.7125175
637,인천상정고등학교,인천광역시 부평구 경원대로 1109,37.4912298,126.7204651
638,인천생활과학고등학교,인천광역시 연수구 함박뫼로 103,37.418947349999996,126.69368185395797
639,인천세무고등학교,인천광역시 서구 청마로 52,37.5931904,126.6702399
640,인천세원고등학교,인천광역시 계양구 장제로 966,37.558705,126.7456528
641,인천송천고등학교,인천광역시 남동구 앵고개로815번길 59,37.3958524,126.7231406
642,인천신현고등학교,인천광역시 서구 염곡로 399,37.5177297,126.6688606
643,인천여자고등학교,인천광역시 연수구 비류대로506번길 14,37.4213829,126.6901115
644,인천여자상업고등학교,인천광역시 중구 인중로 146,37.4793007,126.6168054
645,인천연송고등학교,인천광역시 연수구 컨벤시아대로42번길 72,37.4029754,126.64663793091827
646,인천영선고등학교,인천광역시 부평구 체육관로 179,37.5155601,126.7454195
647,인천영종고등학교,인천광역시 중구 영종대로278번길 34,37.4848107,126.5019257
648,인천영흥고등학교,인천광역시 옹진군 영흥면 내동로 107,37.265779,126.4812061
649,인천예술고등학교,인천광역시 남동구 구월로115번길 36,37.4597831,126.7030302
650,인천예일고등학교,인천광역시 계양구 박촌로 23,37.5580868,126.744692
651,인천외국어고등학교,인천광역시 부평구 원적로 262,37.5033691,126.7188968
652,인천원당고등학교,인천광역시 서구 고산로40번길 30,37.5971131,126.7032587
653,인천재능고등학교,인천광역시 동구 재능로 178,37.4759565,126.6492158
654,인천전자마이스터고등학교,인천광역시 미추홀구 석정로 165,37.4662415,126.6867879
655,인천정보산업고등학교,인천광역시 중구 참외전로 192,37.4747397,126.631751
656,인천중앙여자상업고등학교,인천광역시 중구 샛골로 31,37.4666993,126.6418393
657,인천진산과학고등학교,인천광역시 부평구 굴포로 194-9,37.5113502,126.7356207
658,인천청라고등학교,인천광역시 서구 담지로86번길 16-14,,
659,인천체육고등학교,인천광역시 서구 로봇랜드로 473,37.5264492,126.6113347
660,인천초은고등학교,인천광역시 서구 청라에메랄드로 42,37.5288074,126.6564767
661,인천포스코고등학교,인천광역시 연수구 컨벤시아대로42번길 50,37.40153,126.64863605544693
662,인천하늘고등학교,인천광역시 중구 영종대로277번길 117,37.4888501,126.5061104
663,인천하이텍고등학교,인천광역시 미추홀구 석정로 165,37.4662415,126.6867879
664,인천해사고등학교,인천광역시 중구 월미로 338,37.4734911,126.5995312
665,인천해송고등학교,인천광역시 연수구 해송로 20,37.382552000000004,126.64595901684518
666,인천해양과학고등학교,인천광역시 연수구 능허대로 71,37.3971969,126.6721132
667,인천해원고등학교,인천광역시 서구 청라사파이어로140번길 25,37.5280272,126.6276029
668,인천효성고등학교,인천광역시 계양구 새벌로171번길 21,37.5323542,126.7154792
669,인평자동차고등학교,인천광역시 부평구 화랑로 111,37.4904087,126.7033553
670,인하대학교사범대학부속고등학교,인천광역시 미추홀구 재넘이길123번길 29,37.4470845,126.6602988
671,인항고등학교,인천광역시 미추홀구 매소홀로 135,37.4451871,126.6516253
672,인화여자고등학교,인천광역시 미추홀구 석정로 165,37.4662415,126.6867879
673,작전고등학교,인천광역시 계양구 봉오대로729번길 27,37.5319603,126.7307253
674,작전여자고등학교,인천광역시 계양구 주부토로426번길 15,37.531928,126.7286984
675,정석항공과학고등학교,인천광역시 미추홀구 인하로 100,37.447516,126.6786117
676,제물포고등학교,인천광역시 중구 자유공원로 58-9,37.4790726,126.6217688
677,제일고등학교,인천광역시 부평구 경인로759번길 28,37.4774069,126.7101032
678,청학공업고등학교,인천광역시 연수구 용담로 12,37.4167779,126.6749527
679,학익고등학교,인천광역시 미추홀구 한나루로 358,37.4437357,126.6648082
680,학익여자고등학교,인천광역시 미추홀구 주승로52번길 8,37.4427852,126.6763659
681,한국주얼리고등학교,인천광역시 서구 서곶로 693-1,37.5457673,126.6769349
682,고려고등학교,광주광역시 북구 설죽로 369,35.1926391,126.897416
683,광덕고등학교,광주광역시 서구 화정로 202,35.1451321,126.8787745
684,광일고등학교,광주광역시 광산구 고봉로 812,35.185816,126.7838946
685,광주경신여자고등학교,광주광역시 북구 금호로40번길 40,35.1732978,126.8902384
686,광주고등학교,광주광역시 동구 중앙로 302,35.1472089,126.911882
687,광주공업고등학교,광주광역시 북구 설죽로315번길 14,35.1879279,126.8958991
688,광주과학고등학교,광주광역시 북구 첨단과기로 215,35.2243407,126.8401137
689,광주대동고등학교,광주광역시 서구 전평길 50,35.11971595,126.84939301602154
690,광주동성고등학교,광주광역시 남구 서문대로627번길 20,35.1160688,126.89545810033174
691,광주동신고등학교,광주광역시 북구 동문대로 50,35.1689247,126.92373191605763
692,광주동신여자고등학교,광주광역시 북구 동문대로 50,35.1689247,126.92373191605763
693,광주서석고등학교,광주광역시 서구 화정로253번길 27,35.1495101,126.8826618
694,광주석산고등학교,광주광역시 남구 백운로26번길 20,35.137318,126.9087668
695,광주소프트웨어마이스터고등학교,광주광역시 광산구 상무대로 312,35.1428597,126.80035136193823
696,광주수피아여자고등학교,광주광역시 남구 백서로 13,35.1407564,126.9164445
697,광주숭일고등학교,광주광역시 북구 모룡대길 40,35.21637575,126.89627878881788
698,광주여자고등학교,광주광역시 서구 상무대로1014번길 43,35.1510064,126.872817
699,광주여자상업고등학교,광주광역시 남구 서문대로627번길 20,35.1160688,126.89545810033174
700,광주예술고등학교,광주광역시 북구 서강로 133,35.183596949999995,126.87469248829046
701,광주인성고등학교,광주광역시 남구 서문대로 390,35.1005471,126.877994
702,광주자동화설비공업고등학교,광주광역시 광산구 금봉로 138-1,35.1517909,126.806578
703,광주자연과학고등학교,광주광역시 북구 능안로 30,35.1873398,126.9171338
704,광주전자공업고등학교,광주광역시 광산구 첨단중앙로 7,35.2150394,126.8428321
705,광주제일고등학교,광주광역시 북구 독립로237번길 33,35.1533278,126.90700890955647
706,광주진흥고등학교,광주광역시 광산구 왕버들로 307,35.2004046,126.829145
707,광주체육고등학교,광주광역시 북구 하서로 55,35.1846889,126.8809489
708,광주푸른꿈창작학교,광주광역시 남구 서문대로749번길 12,35.1245233,126.89324054383427
709,국제고등학교,광주광역시 북구 설죽로 433,35.1776596,126.8973621
710,금파공업고등학교,광주광역시 북구 금호로 80,35.1710107,126.8901534
711,금호고등학교,광주광역시 북구 금호로 100,35.176302750000005,126.88561872841639
712,금호중앙여자고등학교,광주광역시 북구 금호로 100,35.176302750000005,126.88561872841639
713,대광여자고등학교,광주광역시 남구 서문대로 742번길 13,,
714,대성여자고등학교,광주광역시 남구 서문대로663번길 37,35.1194381,126.8968704
715,동명고등학교,광주광역시 광산구 사이동길 16,,
716,동아여자고등학교,광주광역시 남구 오방로 16-10,35.1307588,126.9192223
717,동일미래과학고등학교,광주광역시 남구 천변좌로 604,35.127804,126.9284075
718,명진고등학교,광주광역시 광산구 수완로12번길 21,35.1873222,126.83025569859801
719,문성고등학교,광주광역시 남구 제석로 73,35.1198596,126.9069357
720,문정여자고등학교,광주광역시 북구 능안로30번길 33,35.1879402,126.918578
721,보문고등학교,광주광역시 광산구 어등대로529번길 37,35.154212099999995,126.77725754068025
722,비아고등학교,광주광역시 광산구 첨단중앙로181번길 42-26,35.22027490000001,126.82824552012353
723,빛고을고등학교,광주광역시 북구 첨단연신로133번길 19,35.2099909,126.8615674
724,살레시오고등학교,광주광역시 북구 모룡대길 67,35.216091,126.8974771
725,살레시오여자고등학교,광주광역시 동구 필문대로273번길 21,35.1462289,126.9293052
726,상무고등학교,광주광역시 서구 상무민주로32번길 28,35.1549577,126.86018140114552
727,상일여자고등학교,광주광역시 서구 내방로 217,35.15861425,126.86443832402354
728,서강고등학교,광주광역시 북구 서강로 1,35.1749782,126.86810992485945
729,서진여자고등학교,광주광역시 남구 서문대로742번길 20,35.1249941,126.8987362
730,설월여자고등학교,광주광역시 남구 천변좌로604번길 12,35.1284543,126.927417
731,성덕고등학교,광주광역시 광산구 장덕로 75,35.19574595,126.81753489056314
732,송원고등학교,광주광역시 남구 송암로 73,35.1128845,126.8743455
733,송원여자고등학교,광주광역시 남구 송암로 73,35.1128845,126.8743455
734,송원여자상업고등학교,광주광역시 남구 송암로 73,35.1128845,126.8743455
735,수완고등학교,광주광역시 광산구 장덕로 155,35.19820985,126.82549493604569
736,숭덕고등학교,광주광역시 광산구 월계로 117-8,35.2134478,126.8440276
737,숭의과학기술고등학교,광주광역시 남구 오방로 34-13,35.1307588,126.9192223
738,운남고등학교,광주광역시 광산구 임방울대로165번길 17,35.1760833,126.8146869
739,장덕고등학교,광주광역시 광산구 수등로 45,35.1848716,126.8163346
740,전남고등학교,광주광역시 서구 상무공원로 32,35.14748525,126.84368690153329
741,전남공업고등학교,광주광역시 광산구 왕버들로322번길 26,35.1938438,126.8439245
742,전남대학교사범대학부설고등학교,광주광역시 북구 용봉로 45,35.1723755,126.9048431
743,전남여자고등학교,광주광역시 동구 제봉로158번길 8,35.1522344,126.9203321
744,전남여자상업고등학교,광주광역시 북구 설죽로 433,35.1776596,126.8973621
745,정광고등학교,광주광역시 광산구 소촌로 90-36,35.15811,126.7919424
746,조선대학교부속고등학교,광주광역시 동구 의재로33번길 33,35.1339611,126.9314714
747,조선대학교여자고등학교,광주광역시 동구 지산로 36,35.151413,126.9331207
748,첨단고등학교,광주광역시 광산구 산월로 12-17,35.2088274,126.8442393
749,풍암고등학교,광주광역시 서구 풍암신흥로39번길 20,35.12164,126.86719
750,호남삼육고등학교,광주광역시 남구 회서로 30,35.13037355,126.89383297799395
751,계룡디지텍고등학교,대전광역시 동구 소랑길 64,36.3384076,127.4348399
752,남대전고등학교,대전광역시 중구 보문로111번길 63,36.312316,127.428924
753,대덕고등학교,대전광역시 유성구 대덕대로556번길 158,36.3837733,127.3806587
754,대덕소프트웨어마이스터고등학교,대전광역시 유성구 가정북로 76,36.3915727,127.36323767744918
755,대덕여자고등학교,대전광역시 대덕구 대덕대로1593번길 49,36.4517169,127.4256075
756,대전가오고등학교,대전광역시 동구 신기로 71,36.3113568,127.4576722
757,대전고등학교,대전광역시 중구 대흥로 110,36.3218878,127.4162808
758,대전공업고등학교,대전광역시 유성구 진잠로42번길 35,36.2977933,127.3202457
759,대전과학고등학교,대전광역시 유성구 과학로 46,36.3758724,127.3664789
760,대전관저고등학교,대전광역시 서구 관저북로 94,36.3063791,127.3370675
761,대전괴정고등학교,대전광역시 서구 가장로 15,36.3369616,127.3819814
762,대전구봉고등학교,대전광역시 서구 관저서로 36,36.295508749999996,127.33114918094728
763,대전국제통상고등학교,대전광역시 중구 서문로 47,36.3092393,127.408062
764,대전노은고등학교,대전광역시 유성구 노은동로 99,36.3733951,127.3228562
765,대전대성고등학교,대전광역시 중구 목동로 23,36.3343982,127.4073269
766,대전대성여자고등학교,대전광역시 동구 대성2길 20,36.3386861,127.441059
767,대전대신고등학교,대전광역시 서구 오량1길 98,36.3107894,127.3772965
768,대전도안고등학교,대전광역시 유성구 원신흥남로 51,36.3348907,127.3381829
769,대전동산고등학교,대전광역시 중구 문화로 183,36.3150426,127.4064296
770,대전동신과학고등학교,대전광역시 동구 옥천로 423,36.3471137,127.4938015
771,대전둔산여자고등학교,대전광역시 서구 갈마역로 33,36.3583967,127.3743797
772,대전둔원고등학교,대전광역시 서구 대덕대로 101,36.3487621,127.3768332
773,대전만년고등학교,대전광역시 서구 만년로 6,36.367304149999995,127.37285329043688
774,대전반석고등학교,대전광역시 유성구 지족로 332,36.38675955,127.31356606661896
775,대전복수고등학교,대전광역시 서구 혜천로 66,36.3008084,127.3786741
776,대전생활과학고등학교,대전광역시 대덕구 동산초교로63번길 12,36.3490765,127.4221184
777,대전성모여자고등학교,대전광역시 중구 대흥로 62,36.3218878,127.4162808
778,대전송촌고등학교,대전광역시 대덕구 선비마을로23번길 11,36.3642835,127.4457859
779,대전신일여자고등학교,대전광역시 중구 부사로 48,36.3087856,127.4366006
780,대전여자고등학교,대전광역시 동구 용운로1번길 28-37,36.3296756,127.4447108
781,대전여자상업고등학교,대전광역시 중구 대종로 555,36.3069725,127.447348
782,대전예술고등학교,대전광역시 유성구 월드컵대로308번길 33,36.3480497,127.3351837
783,대전외국어고등학교,대전광역시 서구 신갈마로 19,36.3576277,127.3709353
784,대전용산고등학교,대전광역시 유성구 용산2로 2-16,36.4209867,127.3972354
785,대전이문고등학교,대전광역시 대덕구 석봉로 15,36.447432,127.4249378
786,대전전민고등학교,대전광역시 유성구 전민로 63,36.3974328,127.4003107
787,대전전자디자인고등학교,대전광역시 유성구 대덕대로 939,36.4181282,127.3786016
788,대전제일고등학교,대전광역시 서구 배재로46번길 77,36.3129729,127.3717808
789,대전중앙고등학교,대전광역시 중구 대종로 634,36.3069725,127.447348
790,대전지족고등학교,대전광역시 유성구 노은서로 202,36.379175,127.3157284
791,대전체육고등학교,대전광역시 유성구 원신흥로40번길 6,36.3382102,127.3401533
792,대전한빛고등학교,대전광역시 중구 대둔산로 119-37,36.2737559,127.3769282
793,동대전고등학교,대전광역시 대덕구 청림길 33,,
794,동방고등학교,대전광역시 서구 계백로 1106,36.2858532,127.3142979
795,동아마이스터고등학교,대전광역시 동구 충정로 97,36.3436358,127.45376840616169
796,명석고등학교,대전광역시 동구 우암로 380,36.3405145,127.4354826
797,보문고등학교,대전광역시 동구 우암로 57,36.3405145,127.4354826
798,서대전고등학교,대전광역시 서구 월평동로 60,36.3598705,127.368463
799,서대전여자고등학교,대전광역시 서구 배재로197번길 20,36.3258981,127.368512
800,서일고등학교,대전광역시 서구 계백로828번길 30,36.293397999999996,127.32351423839191
801,서일여자고등학교,대전광역시 서구 구봉산북로 22,36.294306899999995,127.32349808627305
802,신탄진고등학교,대전광역시 대덕구 신탄진북로 14,36.450896,127.4351347
803,우송고등학교,대전광역시 동구 동대전로131번길 53,36.33524915,127.44317689376581
804,유성고등학교,대전광역시 유성구 유성대로654번길 130,36.3502942,127.3389286
805,유성생명과학고등학교,대전광역시 유성구 월드컵대로 270,36.364396,127.3269576
806,유성여자고등학교,대전광역시 유성구 은구비로138번길 70,36.3817585,127.3275334
807,중일고등학교,대전 유성구 배울2로 68,36.42041345,127.38942153261866
808,청란여자고등학교,대전광역시 중구 보문로95번길 40,36.3127138,127.4302508
809,충남고등학교,대전광역시 서구 문정로 171,36.3467467,127.3917082
810,충남기계공업고등학교,대전광역시 중구 산성로 154,36.3080989,127.395576
811,충남여자고등학교,대전광역시 중구 선화로43번길 77,36.3281438,127.4138615
812,한밭고등학교,대전광역시 서구 신갈마로141번길 58,36.3461515,127.3662231
813,호수돈여자고등학교,대전광역시 중구 선화로 50,36.3250489,127.4109714
814,강동고등학교,울산광역시 북구 화암4길 8,35.634088,129.4345093
815,남목고등학교,울산광역시 동구 방어진순환도로 1200,35.487565,129.4209916
816,남창고등학교,울산광역시 울주군 온양읍 태화7길 43-16,,
817,다운고등학교,울산광역시 중구 다운로 180,35.5586566,129.2720218
818,달천고등학교,울산광역시 북구 달천철장길 23,35.6323268,129.329569
819,대송고등학교,울산광역시 동구 봉수로 210,35.5056974,129.41930078334497
820,대현고등학교,울산광역시 남구 수암로 164,35.5268503,129.3240069
821,매곡고등학교,울산광역시 북구 매산로 45,35.6401791,129.3595218
822,무거고등학교,울산광역시 남구 대학로1번길 17-28,35.536504,129.2515925
823,무룡고등학교,울산광역시 북구 사청1길 30,35.5867642,129.3615407
824,문수고등학교,울산광역시 남구 울밀로 2905,35.5570261,129.2609114
825,문현고등학교,울산광역시 동구 화잠7길 25,35.4836953,129.4104498
826,방어진고등학교,울산광역시 동구 학문로 50,35.504242899999994,129.42300985141637
827,범서고등학교,울산광역시 울주군 범서읍 대리로 69,,
828,삼산고등학교,울산광역시 남구 돋질로339번길 13,35.5460789,129.3423186
829,삼일여자고등학교,울산광역시 남구 두왕로190번길 59,35.5172545,129.3159713
830,성광여자고등학교,울산광역시 남구 남부순환도로 97,35.5359053,129.2674069
831,성신고등학교,울산광역시 중구 성신고교길 26,,
832,세인고등학교,울산광역시 울주군 웅촌면 은현작동로 58,,
833,신선여자고등학교,울산광역시 남구 수암로178번길 14,35.5261173,129.3264777
834,신정고등학교,울산광역시 남구 문수로 458,35.5384435,129.2662319
835,약사고등학교,울산광역시 중구 종가로 560,35.5631213,129.2841299
836,언양고등학교,울산광역시 울주군 언양읍 언양로 53,,
837,온산고등학교,울산광역시 울주군 온산읍 명봉거남로 76,,
838,우신고등학교,울산광역시 남구 대학로1번길 29,35.536504,129.2515925
839,울산강남고등학교,울산광역시 남구 팔등로 115,35.5457741,129.3143307
840,울산경의고등학교,울산광역시 울주군 상북면 상북로 248,,
841,울산고등학교,울산광역시 중구 도화골15길 15,35.5629295,129.3318619
842,울산공업고등학교,울산광역시 남구 중앙로204번길 49,35.5398339,129.3153885
843,울산과학고등학교,울산광역시 울주군 상북면 도동신리로,,
844,울산기술공업고등학교,울산광역시 울주군 온산읍 덕망로 54,,
845,울산동천고등학교,울산광역시 북구 고래로 54,35.6311658,129.3397475
846,울산마이스터고등학교,울산광역시 북구 율동6길 7,,
847,울산미용예술고등학교,울산광역시 울주군 웅촌면 학교길 26,,
848,울산산업고등학교,울산광역시 울주군 삼남면 반구대로 675,35.5372323,129.1116463
849,울산상업고등학교,울산광역시 울주군 범서읍 장검길 11,,
850,울산생활과학고등학교,울산광역시 동구 학문로 70,35.50449425,129.42155575740256
851,울산스포츠과학고등학교,울산광역시 북구 산음3길 16,35.6229816,129.4326298
852,울산애니원고등학교,울산광역시 중구 성안11길 21,35.57776,129.32137
853,울산에너지고등학교,울산광역시 북구 화동2길 28,35.5894947,129.3684167
854,울산여자고등학교,울산광역시 남구 삼산로9번길 16,35.5334673,129.309793
855,울산여자상업고등학교,울산광역시 남구 두왕로 304,35.51785,129.31028
856,울산예술고등학교,울산광역시 울주군 웅촌면 웅촌로 621-6,35.46998,129.21597
857,울산외국어고등학교,울산광역시 북구 중산동로 32-46,35.6552683,129.3516509
858,울산제일고등학교,울산광역시 남구 남부순환도로 107,35.5359053,129.2674069
859,울산중앙고등학교,울산광역시 중구 난곡로 33,35.5549466,129.285964
860,울산중앙여자고등학교,울산광역시 중구 내황2길 33,35.5531227,129.3447909
861,천상고등학교,울산광역시 울주군 범서읍 당앞로 96,35.5675947,129.2302301
862,학성고등학교,울산광역시 남구 문수로 436,35.5384435,129.2662319
863,학성여자고등학교,울산광역시 중구 화합로 466,35.566608849999994,129.3348297285193
864,함월고등학교,울산광역시 중구 종가3길 25,35.5613507,129.2957219
865,현대고등학교,울산광역시 동구 봉수로 455,35.53202,129.43181
866,현대공업고등학교,울산광역시 동구 미포로 122,35.5381,129.43074
867,현대청운고등학교,울산광역시 동구 방어진순환도로 1077,35.487565,129.4209916
868,호계고등학교,울산광역시 북구 동대11길 31,35.6302324,129.3558094
869,화봉고등학교,울산광역시 북구 화동로 47,35.5931606,129.3696444
870,화암고등학교,울산광역시 동구 화암7길 55,35.4772278,129.4096703
871,효정고등학교,울산광역시 북구 율동2길 41,,
872,고운고등학교,세종특별자치시  마음안로 93,36.5124518,127.2335229
873,다정고등학교,세종특별자치시  다정남로 15,36.4924579,127.2415577
874,도담고등학교,세종특별자치시  보듬4로 41,36.51389905,127.26342022674727
875,두루고등학교,세종특별자치시  마음안1로 53,36.518064,127.2295818
876,반곡고등학교,세종특별자치시 반곡동 64-12답 일원,,
877,보람고등학교,세종특별자치시  한누리대로 2176,36.5368659,127.3039203
878,새롬고등학교,세종특별자치시  새롬서로 68,36.4885553,127.247436
879,세종고등학교,세종특별자치시  조치원읍 조치원중고길 10,36.61190755,127.29942388098755
880,세종과학예술영재학교,세종특별자치시  달빛1로 265,36.5165662,127.2455899
881,세종국제고등학교,세종특별자치시  달빛1로 251,36.5165662,127.2455899
882,세종대성고등학교,세종특별자치시  다솜로 22,36.4927572,127.2653799
883,세종여자고등학교,세종특별자치시  조치원읍 봉산로 16,36.6071609,127.28742703412382
884,세종예술고등학교,세종특별자치시 연기면 중앙공원서로 60,36.49043265,127.26922956628995
885,세종장영실고등학교,세종특별자치시  금남면 금남구즉로 196,36.4753624,127.3622039
886,세종하이텍고등학교,세종특별자치시  부강면 문곡달미길  6,36.5246518,127.3866957
887,소담고등학교,세종특별자치시  ,36.4799999,127.289
888,아름고등학교,세종특별자치시  달빛1로 151,36.5165662,127.2455899
889,양지고등학교,세종특별자치시  갈매로 518,36.50952135,127.26888678022993
890,종촌고등학교,세종특별자치시  달빛1로 60,36.5165662,127.2455899
891,한솔고등학교,세종특별자치시  누리로 34,36.47832165,127.25284252090617
892,가온고등학교,경기도 안성시 샛터길 46,36.9890487,127.2759272
893,가운고등학교,경기도 남양주시 가운로2길 115,37.59924985,127.16073283551364
894,가좌고등학교,경기도 고양시 일산서구 가좌1로 43,37.6873297,126.7185176
895,가평고등학교,경기도 가평군 가평읍 호반로 2601,,
896,갈매고등학교,경기도 구리시 갈매순환로 75,37.6266811,127.1180143
897,경기게임마이스터고등학교,경기도 안양시 동안구 학의로 70,37.3988661,126.9491811
898,경기경영고등학교,경기도 부천시 심곡로 100,37.4809911,126.7755873
899,경기과학고등학교,경기도 수원시 장안구 수일로 135,37.3041969,127.0191006
900,경기관광고등학교,경기도 여주시 대신면 여양로 1416,37.37444,127.58681
901,경기국제통상고등학교,경기도 부천시 석천로 141,37.5279485,126.7695277
902,경기대명고등학교,경기도 수원시 권선구 수인로598번길 3-24,37.2978956,126.9428671
903,경기모바일과학고등학교,경기도 안산시 상록구 남산평길 35,37.3178762,126.8872572
904,경기물류고등학교,경기도 평택시 안중읍 안현로 403,36.9597856,126.9175574
905,경기북과학고등학교,경기도 의정부시 체육로135번길 32,,
906,경기세무고등학교,경기도 파주시 적성면 솥뒤로33번길 60,,
907,경기스마트고등학교,경기도 시흥시 정왕천로 404,37.3297956,126.7378194
908,경기영상과학고등학교,경기도 고양시 일산서구 강선로 8,37.665234600000005,126.76189255951704
909,경기예술고등학교,경기도 부천시 석천로209번길 37,37.5062449,126.7624427
910,경기외국어고등학교,경기도 의왕시 고산로105번길 30,37.3481159,126.9599721
911,경기자동차과학고등학교,경기도 시흥시 금오로 103,37.4341441,126.8341167
912,경기창조고등학교,경기도 안성시 공도읍 공도5로 37,37.001801,127.1701273
913,경기체육고등학교,경기도 수원시 장안구 상률로 106,37.306445,126.969732
914,경기폴리텍고등학교,경기도 군포시 고산로 524,37.3494258,126.956789
915,경기항공고등학교,경기도 광명시 새터안로 20,,
916,경민IT고등학교,경기도 의정부시 서부로 545,37.7454709,127.02377125673794
917,경민고등학교,경기도 의정부시 서부로 545,37.7454709,127.02377125673794
918,경민비즈니스고등학교,경기도 의정부시 서부로 545,37.7454709,127.02377125673794
919,경안고등학교,경기도 안산시 단원구 당곡로 93,37.3210102,126.8335905
920,경일관광경영고등학교,경기도 안산시 단원구 석수로 131,,
921,경화여자English Business고등학교,경기도 광주시 수하길11번길 43,,
922,경화여자고등학교,경기도 광주시 수하길11번길 43,,
923,계남고등학교,경기도 부천시 부흥로 261,37.4953213,126.7706419
924,계원예술고등학교,경기도 성남시 분당구 불정로 100,37.35904575,127.11606848068413
925,고림고등학교,경기도 용인시 처인구 고림로165번길,,
926,고색고등학교,경기도 수원시 권선구 서둔로17번길 32,37.2534153,126.9839081
927,고양고등학교,경기도 고양시 덕양구 삼송로 171,37.6547425,126.89221267932169
928,고양국제고등학교,경기도 고양시 일산동구 위시티4로 112,,
929,고양동산고등학교,경기도 고양시 덕양구 동세로 20,37.6446174,126.88752262288914
930,고양예술고등학교,경기도 고양시 일산서구 덕이로172번길 4-39,,
931,고양외국어고등학교,경기도 고양시 덕양구 통일로 820,37.6782231,126.8875474
932,고양일고등학교,경기도 고양시 덕양구 읍내로 13,37.705205,126.8978444
933,고잔고등학교,경기도 안산시 단원구 광덕2로 222,37.3094218,126.8361342
934,고촌고등학교,경기도 김포시 고촌읍 태리로47번길 20,,
935,곡정고등학교,경기도 수원시 권선구 덕영대로 1190번길 130,,
936,곤지암고등학교,경기도 광주시 곤지암읍 곤지암로 82,,
937,과천고등학교,경기도 과천시 꿈보람길 26,37.43054585,126.99742597492957
938,과천여자고등학교,경기도 과천시 희망길 36,37.4318109,126.98861941618546
939,과천외국어고등학교,경기도 과천시 희망길 36,37.4318109,126.98861941618546
940,과천중앙고등학교,경기도 과천시 교육원로 17,37.4227503,126.98672787569174
941,관양고등학교,경기도 안양시 동안구 일동로 115,37.408501799999996,126.96010590846655
942,관인고등학교,경기도 포천시 관인면 관인로 20,,
943,광교고등학교,경기도 수원시 영통구 도청로89번길 11,37.2896381,127.04852570099644
944,광남고등학교,경기도 광주시 회안대로 350-32,37.4540078,127.2522617
945,광덕고등학교,경기도 안산시 상록구 순환로 532,37.3383993,126.8512004
946,광동고등학교,경기도 남양주시 진접읍 장현로광동1길 10,,
947,광명경영회계고등학교,경기도 광명시 기아로13번안길 9-9,37.438056849999995,126.88267821812168
948,광명고등학교,경기도 광명시 오리로876번길 17,37.4776241,126.8673564
949,광명북고등학교,경기도 광명시 시청로 127,37.4848298,126.866276
950,광문고등학교,경기도 광명시 원광명안로 39,,
951,광주고등학교,경기도 광주시 수하길19번길 43,,
952,광주중앙고등학교,경기도 광주시 역동로63번길 1,,
953,광탄고등학교,경기도 파주시 광탄면 혜음로1128번길 16,,
954,광휘고등학교,경기도 광명시 서원로 41,37.42870069999999,126.88193624399497
955,교하고등학교,경기도 파주시 책향기로 180,37.7292511,126.7681819
956,구리고등학교,경기도 구리시 장자대로 89,37.5875355,127.1308702
957,구리여자고등학교,경기도 구리시 벌말로 168,37.5957221,127.1514116
958,구성고등학교,경기도 용인시 기흥구 연원로42번길 47,37.29898455,127.11556135755055
959,군서고등학교,경기도 시흥시 군서마을로 100,37.3450275,126.7481192
960,군자디지털과학고등학교,경기도 시흥시 군자로487번길 54,,
961,군포e비즈니스고등학교,경기도 군포시 수리산로 153,37.362893850000006,126.91872337139546
962,군포고등학교,경기도 군포시 오금로 118,37.3566135,126.9368667
963,군포중앙고등학교,경기도 군포시 송부로 239,37.323712900000004,126.93722020809432
964,권선고등학교,경기도 수원시 권선구 세권로 276,37.2580373,127.0147434
965,근명고등학교,경기도 안양시 만안구 삼덕로 49,37.392113550000005,126.91899978622337
966,금곡고등학교,경기도 남양주시 경춘로992번길 10,37.6336586,127.212264
967,금촌고등학교,경기도 파주시 쇠재1길 18,37.7515996,126.7792353
968,기흥고등학교,경기도 용인시 기흥구 관곡로 20,37.2829985,127.1082449
969,김포고등학교,경기도 김포시 봉화로 37-15,37.6253005,126.7054931
970,김포외국어고등학교,경기도 김포시 월곶면 김포대로 2537,37.7037289,126.5668284
971,김포제일고등학교,경기도 김포시 김포한강11로 242,37.6471193,126.6792365
972,김포제일공업고등학교,경기도 김포시 봉화로 69,37.6253005,126.7054931
973,나루고등학교,경기도 화성시 금반2길 13,,
974,낙생고등학교,경기도 성남시 분당구 대왕판교로 477,37.38686625,127.10107076705674
975,남양고등학교,경기도 화성시 남양읍 시청로45번길 23,,
976,남양주공업고등학교,경기도 남양주시 화도읍 경춘로2192번길 25,,
977,남양주다산고등학교,경기도 남양주시 다산중앙로146번길 50,37.6282959,127.1608427
978,남한고등학교,경기도 하남시 신평로 25,37.5369646,127.2041287
979,늘푸른고등학교,경기도 성남시 분당구 성남대로407번길 26,37.3724186,127.105977
980,능곡고등학교,경기도 고양시 덕양구 지도로 76,,
981,능동고등학교,경기도 화성시 동탄원천로 315-26,37.2409859,127.0369629
982,다산고등학교,경기도 이천시 경충대로 2856,37.1308595,127.6065478
983,단원고등학교,경기도 안산시 단원구 단원로 55,37.3267566,126.8228225
984,대부고등학교,경기도 안산시 단원구 대부중앙로 3,37.2433506,126.58451075536429
985,대신고등학교,경기도 여주시 대신면 여양로 1196,37.37444,127.58681
986,대지고등학교,경기도 용인시 수지구 동백죽전대로 1066,37.330769,127.1180773
987,대평고등학교,경기도 수원시 장안구 천천로22번길 21,37.2947092,126.9890111
988,대화고등학교,경기도 고양시 일산서구 대화로 100,37.6797678,126.7421778
989,덕계고등학교,경기도 양주시 평화로1489번길 34,37.8226205,127.0484633
990,덕산고등학교,경기도 부천시 오정로266번길 69,37.5307895,126.7899573832124
991,덕소고등학교,경기도 남양주시 와부읍 덕소로 194,37.5825625,127.2138613
992,덕영고등학교,경기도 용인시 처인구 고림로74번길 15,37.2402548,127.216959
993,덕이고등학교,경기도 고양시 일산서구 하이파크1로 64,,
994,덕정고등학교,경기도 양주시 화합로 1488,37.836944,127.074762
995,덕현고등학교,경기도 양주시 고읍북로 36,37.7985557,127.083526
996,도농고등학교,경기도 남양주시 다산순환로 1,37.6154635,127.1509759
997,도당고등학교,경기도 부천시 삼작로256번길 53-3,37.5177712,126.7898573
998,도래울고등학교,경기도 고양시 덕양구 도래울1로 67,37.62847325,126.87055325639292
999,돌마고등학교,경기도 성남시 분당구 이매로 105,37.394699,127.1234862
1000,동광고등학교,경기도 성남시 중원구 원터로 84,37.43376045,127.14302819999375
1001,동국대학교사범대학부속영석고등학교,경기도 의정부시 시민로 363,37.7373059,127.0694589
1002,동남고등학교,경기도 포천시 소흘읍 솔모루로3번길 69,,
1003,동두천고등학교,경기도 동두천시 평화로2434번길 8,,
1004,동두천외국어고등학교,경기도 동두천시 지행로 145,37.8923908,127.0593747
1005,동두천중앙고등학교,경기도 동두천시 평화로 2280,37.8734629,127.0589021
1006,동백고등학교,경기도 용인시 기흥구 동백7로 61,37.28297685,127.15856651768311
1007,동안고등학교,경기도 안양시 동안구 부림로 71,37.3900394,126.9660934603765
1008,동우여자고등학교,경기도 수원시 장안구 장안로 426-1,37.3137221,126.9853083
1009,동원고등학교,경기도 수원시 장안구 장안로 426-1,37.3137221,126.9853083
1010,동일공업고등학교,경기도 평택시 중앙로 315,36.99183535,127.11782416558876
1011,동탄고등학교,경기도 화성시 동탄공원로1길 26-7,,
1012,동탄국제고등학교,경기도 화성시 동탄나루로 27,37.1893002,127.0784603
1013,동탄중앙고등학교,경기도 화성시 동탄대로시범길 167,37.2014372,127.1012377
1014,동패고등학교,경기도 파주시 교하로 350,37.7524601,126.7479834
1015,동화고등학교,경기도 남양주시 경춘로 434,37.6072329,127.1599108
1016,두레자연고등학교,경기도 화성시 우정읍 두레길 42,,
1017,두원공업고등학교,경기도 안성시 미양면 미양로 727,36.96853,127.19933
1018,라온고등학교,경기도 평택시 경기대로1376번길 38-6,37.0694387,127.0669465
1019,마석고등학교,경기도 남양주시 화도읍 녹촌로 35,37.6436073,127.2969936
1020,마송고등학교,경기도 김포시 통진읍 마송1로 155,37.687194,126.5997836
1021,마장고등학교,경기도 이천시 마장면 마도로 23,37.26967,127.3528
1022,망포고등학교,경기도 수원시 영통구 동탄지성로 468,37.2421793,127.0465535
1023,매원고등학교,경기도 수원시 영통구 삼성로213번길 120,,
1024,매탄고등학교,경기도 수원시 영통구 매탄로126번길 11,37.2614611,127.0462592
1025,매향여자정보고등학교,경기도 수원시 팔달구 수원천로 350,37.2699226,127.0168058
1026,매홀고등학교,경기도 오산시 내삼미로80번길 9-10,,
1027,명문고등학교,경기도 광명시 광명로812번길 16,37.4686645,126.8507987
1028,모락고등학교,경기도 의왕시 모락로 134,37.37002445,126.96688183234022
1029,목감고등학교,경기도 시흥시 목감둘레로 150,37.3814489,126.8615811
1030,무원고등학교,경기도 고양시 덕양구 화신로 65,37.6239877,126.8404285
1031,문산고등학교,경기도 파주시 문산읍 당동1로 22,37.8625657,126.774506
1032,문산수억고등학교,경기도 파주시 파주읍 우계로 357,37.8503893,126.8097629
1033,문산제일고등학교,경기도 파주시 평화로 190,37.7685511,126.764744
1034,미사강변고등학교,경기도 하남시 미사강변한강로 75,37.5594199,127.2025493
1035,미사고등학교,경기도 하남시 미사강변한강로 210,37.5594199,127.2025493
1036,반송고등학교,경기도 화성시 동탄반석로 21,37.19264845,127.07800382340834
1037,발곡고등학교,경기도 의정부시 동일로454번길 150,37.7286109,127.0642601
1038,발안바이오과학고등학교,경기도 화성시 향남읍 발안로 71,37.1306472,126.9288585
1039,배곧고등학교,경기도 시흥시 배곧4로 94-10,37.3740488,126.73241024832137
1040,백마고등학교,경기도 고양시 일산동구 백석로 155,37.6484614,126.7878779
1041,백석고등학교,경기도 고양시 일산동구 강촌로 115,37.6536597,126.7919533
1042,백송고등학교,경기도 고양시 일산서구 덕이로 172번길 4-39,,
1043,백신고등학교,경기도 고양시 일산동구 백석로 8,37.6484614,126.7878779
1044,백암고등학교,경기도 용인시 처인구 백암면 백원로 519-9,37.1653102,127.3721844
1045,백양고등학교,경기도 고양시 덕양구 화신로 199,37.6239877,126.8404285
1046,백영고등학교,경기도 안양시 동안구 관평로 94,37.386114649999996,126.96495001598825
1047,백운고등학교,경기도 의왕시 내손순환로 136,37.38736085,126.98607797071125
1048,범박고등학교,경기도 부천시 범박로 27-1,37.469466,126.8104675
1049,별가람고등학교,경기도 남양주시 순화궁로 393,,
1050,별내고등학교,경기도 남양주시 별내5로 36,,
1051,병점고등학교,경기도 화성시 병점중앙로 72,37.20562605,127.04365452032008
1052,보라고등학교,경기도 용인시 기흥구 한보라1로43번길 7,,
1053,보영여자고등학교,경기도 동두천시 동광로 124,37.91125,127.061079
1054,보정고등학교,경기도 용인시 기흥구 보정로 22,37.313591450000004,127.10947248181338
1055,보평고등학교,경기도 성남시 분당구 동판교로 124,37.3889586,127.1164627
1056,복정고등학교,경기도 성남시 수정구 복정안골로 35,37.4615365,127.13731714227112
1057,봉담고등학교,경기도 화성시 봉담읍 상봉길 42,,
1058,봉일천고등학교,경기도 파주시 조리읍 소곡로 54,,
1059,부곡고등학교,경기도 안산시 상록구 시낭로 78,37.3343477,126.854344
1060,부명고등학교,경기도 부천시 석천로 127,37.5279485,126.7695277
1061,부용고등학교,경기도 의정부시 오목로 96,37.7328814,127.0860549
1062,부원고등학교,경기도 이천시 장호원읍 서동대로 8857,,
1063,부천고등학교,경기도 부천시 경인로92번길 70,37.4821882,126.7661346
1064,부천공업고등학교,경기도 부천시 경인로120번길 82,37.4815808,126.7684298
1065,부천북고등학교,경기도 부천시 삼작로256번길 40,37.5177712,126.7898573
1066,부천여자고등학교,경기도 부천시 석천로16번길 37,37.4898569,126.7627631
1067,부천정보산업고등학교,경기도 부천시 신상로 94,37.496259699999996,126.74871843762315
1068,부흥고등학교,경기도 안양시 동안구 달안로 15,37.393025449999996,126.94470736387748
1069,분당경영고등학교,경기도 성남시 분당구 금곡로 289,37.3533138,127.116832
1070,분당고등학교,경기도 성남시 분당구 내정로165번길 31,37.3753994,127.1169904
1071,분당대진고등학교,경기도 성남시 분당구 분당로 271,37.3785506,127.1257695
1072,분당영덕여자고등학교,경기도 성남시 분당구 판교로592번길 13,37.40616,127.1375495
1073,분당중앙고등학교,경기도 성남시 분당구 불정로 174,37.3745036,127.1371048
1074,불곡고등학교,경기도 성남시 분당구 금곡로 149,37.3533138,127.116832
1075,비봉고등학교,경기도 화성시 비봉면 양노로109번길 5,,
1076,비전고등학교,경기도 평택시 비전3로 12,37.0067591,127.1097569
1077,사우고등학교,경기도 김포시 김포대로 824,37.6550519,126.6692683
1078,산본고등학교,경기도 군포시 산본로 451-12,37.3705919,126.92578597382581
1079,삼광고등학교,경기도 파주시 적성면 청송로 701,37.9492587,126.9075547
1080,삼괴고등학교,경기도 화성시 우정읍 장안로 35,37.0884608,126.8195329
1081,삼일공업고등학교,경기도 수원시 팔달구 수원천로392번길 44-60,37.2873255,127.0185648
1082,삼일상업고등학교,경기도 수원시 팔달구 수원천로392번길 44-28,37.2873255,127.0185648
1083,상동고등학교,경기도 부천시 상이로 22,37.492978,126.7439516
1084,상록고등학교,경기도 안산시 상록구 반석로4길 34,37.2988519,126.87458587872281
1085,상우고등학교,경기도 의정부시 범골로 79,37.7335803,127.0382066
1086,상원고등학교,경기도 부천시 상동로 10,37.49804995,126.75227860012959
1087,상일고등학교,경기도 부천시 부흥로 13,37.489911,126.7851366
1088,상현고등학교,경기도 용인시 수지구 법조로 222,37.2988558,127.07436007064709
1089,새솔고등학교,경기도 화성시 큰나래3길 25,,
1090,서연고등학교,경기도 수원시 장안구 조원로 18,37.3008352,127.0159127
1091,서울삼육고등학교,경기도 구리시 아차산로487번길 70,,
1092,서원고등학교,경기도 용인시 수지구 상현로42번길 26-7,37.30210615,127.0817470133499
1093,서정고등학교,경기도 고양시 덕양구 서정마을2로 39,,
1094,서천고등학교,경기도 용인시 기흥구 서천서로 126,37.2398075,127.0689654
1095,서해고등학교,경기도 시흥시 정왕신길로 13,37.336766,126.7609069
1096,서현고등학교,경기도 성남시 분당구 분당로 87,37.38171125,127.12389764619302
1097,선부고등학교,경기도 안산시 단원구 지곡로 138,37.3403237,126.7921326
1098,설악고등학교,경기도 가평군 설악면 한양부로 21-1,,
1099,성남고등학교,경기도 성남시 중원구 시민로 61,37.43352539999999,127.14702671574962
1100,성남금융고등학교,경기도 성남시 분당구 장미로 153,37.4133662,127.1329032
1101,성남여자고등학교,경기도 성남시 중원구 원터로94번길 6,37.4356634,127.1438622
1102,성남외국어고등학교,경기도 성남시 분당구 대왕판교로385번길 28,37.3786246,127.1015039
1103,성남테크노과학고등학교,경기도 성남시 중원구 둔촌대로258번길 7,37.4271254,127.1474087
1104,성문고등학교,경기도 안양시 만안구 성결대학로64번길 9,37.37942135,126.92487475931316
1105,성보경영고등학교,경기도 성남시 수정구 논골로 82,37.4580946,127.1586738
1106,성복고등학교,경기도 용인시 수지구 도마치로 92,37.32329335,127.06116987347153
1107,성사고등학교,경기도 고양시 덕양구 호국로 869,37.6057072,126.8175009
1108,성안고등학교,경기도 안산시 상록구 용신로 170,37.2968443,126.8267336
1109,성일고등학교,경기도 성남시 중원구 시민로77번길 10,37.4356368,127.1473105
1110,성일정보고등학교,경기도 성남시 중원구 시민로77번길 10,37.4356368,127.1473105
1111,성지고등학교,경기도 용인시 기흥구 갈곡로12번길 13,,
1112,성포고등학교,경기도 안산시 상록구 충장로 538,37.2879875,126.8568754
1113,성호고등학교,경기도 오산시 동부대로436번길 46,,
1114,세경고등학교,경기도 파주시 파주읍 술이홀로 379,37.8180065,126.8008421
1115,세교고등학교,경기도 오산시 수청로 112,,
1116,세마고등학교,경기도 오산시 수목원로 559-17,37.1350809,127.0541252
1117,세원고등학교,경기도 고양시 일산동구 숲속마을로 202,37.6672278,126.7977188
1118,세종고등학교,경기도 여주시 청심로 221,37.2945427,127.6453584
1119,소래고등학교,경기도 시흥시 수인로3287번길 26,,
1120,소명여자고등학교,경기도 부천시 원미구 부일로 571번길,,
1121,소사고등학교,경기도 부천시 소사로78번길 22,37.4668033,126.801654
1122,소하고등학교,경기도 광명시 소하일로 21,37.4470367,126.88751066901806
1123,솔터고등학교,경기도 김포시 김포한강7로22번길 109,37.6406786,126.6353124
1124,송내고등학교,경기도 부천시 서촌로20번길 13,,
1125,송림고등학교,경기도 성남시 분당구 이매로 100,37.394699,127.1234862
1126,송산고등학교,경기도 화성시 송산면 송산포도로 102-21,37.23078,126.69603
1127,송양고등학교,경기도 의정부시 송양로 6,37.7518304,127.1128584
1128,송우고등학교,경기도 포천시 소흘읍 태봉로 125,,
1129,송탄고등학교,경기도 평택시 정암로 142,37.0565038,127.0679179
1130,송현고등학교,경기도 의정부시 용민로 159,37.7452227,127.0927558
1131,송호고등학교,경기도 안산시 상록구 광덕3로 296,37.3117023,126.8496716
1132,수내고등학교,경기도 성남시 분당구 발이봉북로 15,37.3643628,127.1303072
1133,수리고등학교,경기도 군포시 수리산로 39,37.3618414,126.9196123
1134,수성고등학교,경기도 수원시 장안구 장안로90번길 39,37.2927217,127.0031234
1135,수원고등학교,경기도 수원시 팔달구 정조로 666-10,37.2678969,127.0184879
1136,수원공업고등학교,경기도 수원시 팔달구 세지로 254,37.2596987,127.0181997
1137,수원농생명과학고등학교,경기도 수원시 장안구 광교산로 13,37.3302752,127.01438143737981
1138,수원여자고등학교,경기도 수원시 팔달구 고등로59번길 72,37.2751011,127.0034025
1139,수원외국어고등학교,경기도 수원시 영통구 창룡대로 263,37.2976144,127.056983
1140,수원정보과학고등학교,경기도 수원시 영통구 동수원로551번길 16,37.2761834,127.0497720561647
1141,수원칠보고등학교,경기도 수원시 권선구 금곡로 127,37.2786721,126.9651657
1142,수원하이텍고등학교,경기도 수원시 영통구 청명북로 56(영통동),,
1143,수일고등학교,경기도 수원시 장안구 수일로233번길 59,37.3068118,127.0181719
1144,수주고등학교,경기도 부천시 역곡로 531,37.4869776,126.8110615
1145,수지고등학교,경기도 용인시 수지구 수풍로 73,37.33071915,127.09205357571349
1146,수택고등학교,경기도 구리시 검배로 145,37.6010847,127.1412224
1147,숙지고등학교,경기도 수원시 팔달구 수성로182번길 100,37.2837648,126.9941096
1148,숭신여자고등학교,경기도 성남시 중원구 황송로77번길 34,37.4486241,127.1698976
1149,시온고등학교,경기도 부천시 은성로 172-20,37.471271650000006,126.80564978481146
1150,시흥고등학교,경기도 시흥시 상직길 25,,
1151,시흥능곡고등학교,경기도 시흥시 승지로 107,37.3693272,126.8102719
1152,시흥매화고등학교,경기도 시흥시 매화로 35,37.4164947,126.8102546
1153,신갈고등학교,경기도 용인시 기흥구 백남준로 13,,
1154,신길고등학교,경기도 안산시 단원구 신길로 45,,
1155,신봉고등학교,경기도 용인시 수지구 신봉3로 45,37.3280344,127.0680165
1156,신성고등학교,경기도 안양시 만안구 소곡로 93,37.384577300000004,126.92035088195342
1157,신일비즈니스고등학교,경기도 고양시 일산서구 킨텍스로 452,37.6668893,126.7494138
1158,신장고등학교,경기도 하남시 신장동로 19,37.5414132,127.2232504
1159,신천고등학교,경기도 시흥시 포도원로 50,37.4359558,126.7809196
1160,신한고등학교,경기도 평택시 신한1길 26,36.9921607,127.1053059
1161,신흥고등학교,경기도 동두천시 신천로 159,37.9233055,127.0493686
1162,심석고등학교,경기도 남양주시 화도읍 마석로 62,,
1163,심원고등학교,경기도 부천시 계남로 284,37.5081009,126.7649057
1164,안곡고등학교,경기도 고양시 일산동구 하늘마을로 75,37.6786769,126.7804385
1165,안법고등학교,경기도 안성시 명륜길 66,,
1166,안산강서고등학교,경기도 안산시 단원구 삼일로 367,37.3349637,126.7906311
1167,안산고등학교,경기도 안산시 상록구 청룡4길 8,37.3609135,126.8723476
1168,안산공업고등학교,경기도 안산시 상록구 안산공고로 51,37.3342292,126.8604938
1169,안산국제비즈니스고등학교,경기도 안산시 상록구 수인로 1981,37.3011426,126.8968359
1170,안산동산고등학교,경기도 안산시 상록구 충장로 56,37.286743200000004,126.8578433864875
1171,안산디자인문화고등학교,경기도 안산시 상록구 각골로 87,37.29713085,126.8719067421004
1172,안성고등학교,경기도 안성시 금산길 57,,
1173,안성여자고등학교,경기도 안성시 남파로 73-10,37.006845,127.2782163
1174,안양고등학교,경기도 안양시 만안구 삼봉로 46,37.400618800000004,126.90113835693234
1175,안양공업고등학교,경기도 안양시 만안구 양화로28번길 69,37.3992648,126.91504094438633
1176,안양여자고등학교,경기도 안양시 만안구 안양로 357,37.40370525,126.91688998819342
1177,안양여자상업고등학교,경기도 안양시 만안구 양화로 37,37.4081445,126.9070999
1178,안양예술고등학교,경기도 안양시 만안구 양화로25번길 40,37.395533,126.91147561600027
1179,안양외국어고등학교,경기도 안양시 만안구 양화로37번길 36,37.39582405,126.90881961031305
1180,안중고등학교,경기도 평택시 안중읍 안중믿음길 32,36.9856287,126.9233013
1181,안화고등학교,경기도 화성시 병점3로 132-19,37.20799,127.0357
1182,야탑고등학교,경기도 성남시 분당구 판교로 738,37.390644,127.0855177
1183,양곡고등학교,경기도 김포시 양촌읍 양곡4로 138,37.658,126.6361315
1184,양동고등학교,경기도 양평군 양동면 학둔지윗길 47-7,,
1185,양명고등학교,경기도 안양시 만안구 경수대로1001번길 184,37.40820115,126.92023990899736
1186,양명여자고등학교,경기도 안양시 만안구 경수대로1001번길 150,37.4059025,126.9220642
1187,양서고등학교,경기도 양평군 양서면 상촌길 31-12,,
1188,양영디지털고등학교,경기도 성남시 분당구 불정로386번길 35,37.372939,127.138965
1189,양일고등학교,경기도 양평군 양평읍 관문2길 9,,
1190,양주고등학교,경기도 양주시 삼숭로38번길 78-52,37.7972282,127.102626
1191,양주백석고등학교,경기도 양주시 백석읍 꿈나무로 205,37.79146495,126.986660691641
1192,양지고등학교,경기도 안산시 단원구 화정천동로 50,37.3197828,126.8215477
1193,양평고등학교,경기도 양평군 양평읍 양근로 260,,
1194,양평전자과학고등학교,경기도 양평군 양서면 대심상심길 13,,
1195,여강고등학교,경기도 여주시 북내면 여강로 337-8,37.3402241,127.6882053
1196,여주고등학교,경기도 여주시 세종로 254-58,37.2800498,127.6367325
1197,여주자영농업고등학교,경기도 여주시 능서면 농도원1길 78-1,,
1198,여주제일고등학교,경기도 여주시 가남읍 여주남로 1155-11,,
1199,역곡고등학교,경기도 부천시 안곡로 322,37.4919014,126.8098875
1200,연천고등학교,경기도 연천군 연천읍 연천로336번길 13,38.1069052,127.0756752
1201,영덕고등학교,경기도 수원시 영통구 매영로 334,37.2486578,127.0776006
1202,영복여자고등학교,경기도 수원시 팔달구 장안로7번길 49-1,,
1203,영북고등학교,경기도 포천시 영북면 영북로 136,,
1204,영생고등학교,경기도 수원시 장안구 서부로2198번길 22,37.3051661,126.9743346
1205,영신여자고등학교,경기도 수원시 권선구 삼천병마로1566번길 30,,
1206,예당고등학교,경기도 화성시 삼성1로 47,37.2015207,127.0897079
1207,오남고등학교,경기도 남양주시 오남읍 진건오남로 784-27,,
1208,오산고등학교,경기도 오산시 청학로 43,37.1562974,127.0647327
1209,오산정보고등학교,경기도 오산시 청학로5번길 20,,
1210,옥정고등학교,경기도 양주시 옥정로7길 47,37.8281476,127.0896291
1211,와부고등학교,경기도 남양주시 와부읍 수레로 127-20,37.61229,127.26577
1212,용문고등학교,경기도 양평군 용문면 용문로 437,,
1213,용인고등학교,경기도 용인시 처인구 금학로253번길 20-21,,
1214,용인바이오고등학교,경기도 용인시 처인구 이동면 경기동로687번길 28-14,,
1215,용인백현고등학교,경기도 용인시 기흥구 동백7로 112,37.282445,127.1583908
1216,용인삼계고등학교,경기도 용인시 처인구 포곡읍 백옥대로1898번길 34-42,,
1217,용인한국외국어대학교부설고등학교,경기도 용인시 처인구 모현읍 외대로54번길 50,,
1218,용인홍천고등학교,경기도 용인시 수지구 수지로227번길 22,37.3213045,127.0832286
1219,용호고등학교,경기도 군포시 용호2로 10,37.3456555,126.9442478
1220,우성고등학교,경기도 의왕시 오전로 37,37.3486432,126.97907949720147
1221,운산고등학교,경기도 광명시 한내일로 17,37.453949699999995,126.88358105894457
1222,운암고등학교,경기도 오산시 운천로 12,37.1526369,127.0746057
1223,운양고등학교,경기도 김포시 김포한강11로 58,37.6471193,126.6792365
1224,운정고등학교,경기도 파주시 와석순환로 267,37.723911,126.7640901
1225,운중고등학교,경기도 성남시 분당구 운중로 95,37.39251965,127.0736819059693
1226,운천고등학교,경기도 오산시 운천로 193,37.1526369,127.0746057
1227,원곡고등학교,경기도 안산시 단원구 화랑로 15,37.3211519,126.8307974
1228,원미고등학교,경기도 부천시 옥산로 48,37.5179532,126.7810972
1229,원종고등학교,경기도 부천시 소사로 807번길 68,,
1230,위례고등학교,경기도 하남시 위례순환로 323,37.47665635,127.15069982086916
1231,위례한빛고등학교,경기도 성남시 수정구 위례대로 86,37.46852,127.1450594
1232,유신고등학교,경기도 수원시 팔달구 월드컵로 216,37.28277655,127.04103575646556
1233,율곡고등학교,경기도 파주시 법원읍 사임당로 905,37.8478358,126.8816235
1234,율면고등학교,경기도 이천시 율면 고당로 48,37.09526,127.54648
1235,율천고등학교,경기도 수원시 팔달구 일월로 50,37.2866483,126.978671
1236,은행고등학교,경기도 시흥시 은행고길 85,,
1237,은혜고등학교,경기도 평택시 장안웃길 66,37.0663065,127.0817604
1238,의왕고등학교,경기도 의왕시 덕영대로 115,37.3301081,126.9566797
1239,의정부고등학교,경기도 의정부시 녹양로 29,37.7542264,127.03197865000001
1240,의정부공업고등학교,경기도 의정부시 가능로 57,37.7478296,127.03792581426833
1241,의정부광동고등학교,경기도 의정부시 서부로 691,37.7466275,127.0280108
1242,의정부여자고등학교,경기도 의정부시 신흥로365번길 10,37.7488672,127.0397189
1243,이매고등학교,경기도 성남시 분당구 탄천로 1,37.3968866,127.1235399
1244,이산고등학교,경기도 화성시 동탄기흥로353번길 61,,
1245,이우고등학교,경기도 성남시 분당구 동막로 287,37.3500501,127.1032142
1246,이의고등학교,경기도 수원시 영통구 법조로 145,37.29209675,127.07113975312944
1247,이천고등학교,경기도 이천시 아리역로16번길 1,37.2867233,127.4472128
1248,이천세무고등학교,경기도 이천시 설성면 설성로15번길 26,,
1249,이천양정여자고등학교,경기도 이천시 영창로 119,37.2809968,127.4553663
1250,이천제일고등학교,경기도 이천시 애련정로 26,37.2784468,127.458983932113
1251,이충고등학교,경기도 평택시 이충로35번길 50,37.059188,127.0663527
1252,이포고등학교,경기도 여주시 흥천면 이여로 1075,37.3387813,127.4874042
1253,이현고등학교,경기도 이천시 증신로 88,37.2942738,127.4429184
1254,인덕원고등학교,경기도 안양시 동안구 안양판교로 43,37.399658349999996,126.98125427310521
1255,인창고등학교,경기도 구리시 왕숙천로 339,37.6082204,127.1471005
1256,일동고등학교,경기도 포천시 일동면 화동로1079번길 28,37.9594441,127.3188537
1257,일산고등학교,경기도 고양시 일산서구 원일로 53,37.687183,126.7656605
1258,일산국제컨벤션고등학교,경기도 고양시 일산서구 고봉로 133,37.6662909,126.7675026
1259,일산대진고등학교,경기도 고양시 일산서구 대산로 246,37.6787926,126.7539061
1260,일산동고등학교,경기도 고양시 일산서구 탄현로 100,,
1261,일죽고등학교,경기도 안성시 서동대로 7446,36.9971519,127.1453032
1262,장곡고등학교,경기도 시흥시 장곡로70번길 8,37.380066549999995,126.78237195097232
1263,장기고등학교,경기도 김포시 김포한강2로 131,37.642566,126.6778451
1264,장안고등학교,경기도 수원시 장안구 대평로52번길 12,,
1265,장호원고등학교,경기도 이천시 장호원읍 샘재로 27-37,,
1266,저동고등학교,경기도 고양시 일산동구 무궁화로 165,37.6731084,126.7867103
1267,저현고등학교,경기도 고양시 일산동구 위시티3로 37,,
1268,전곡고등학교,경기도 연천군 전곡읍 전은길 9-89,38.0347051,127.0742825
1269,점동고등학교,경기도 여주시 점동면 청안로 152,,
1270,정명고등학교,경기도 부천시 심곡로 100,37.4809911,126.7755873
1271,정발고등학교,경기도 고양시 일산동구 정발산로 185,37.6565961,126.7717213
1272,정왕고등학교,경기도 시흥시 정왕대로118번길 13,37.350008,126.7271204
1273,정현고등학교,경기도 화성시 동탄산척로 93-10,37.1724192,127.1120476
1274,조원고등학교,경기도 수원시 장안구 수일로233번길 15,37.3068118,127.0181719
1275,조종고등학교,경기도 가평군 조종면 연등윗길 22,,
1276,주엽고등학교,경기도 고양시 일산서구 킨텍스로 341,37.6668893,126.7494138
1277,죽산고등학교,경기도 안성시 죽산면 죽산향교길 54-40,,
1278,죽전고등학교,경기도 용인시 수지구 용구대로2771번길 23,37.3333001,127.1056293
1279,중산고등학교,경기도 고양시 일산동구 중산로 290,37.6902246,126.7803572
1280,중원고등학교,경기도 부천시 도약로 111,37.5119154,126.7568722
1281,중흥고등학교,경기도 부천시 계남로 171,37.5081009,126.7649057
1282,지산고등학교,경기도 파주시 가람로21번길 27-37,,
1283,지평고등학교,경기도 양평군 지평면 지평로 418,,
1284,진건고등학교,경기도 남양주시 진건읍 진건오남로 369-1,37.6709,127.18832
1285,진성고등학교,경기도 광명시 철망산로 84,37.4695926,126.8766147
1286,진위고등학교,경기도 평택시 진위면 진위서로 47,,
1287,진접고등학교,경기도 남양주시 진접읍 해밀예당2로 13,37.7157938,127.19034324965719
1288,창의고등학교,경기도 화성시 동탄신리천로1길 66,37.1796763,127.119509
1289,창현고등학교,경기도 수원시 팔달구 월드컵로 216-2,37.2829137,127.0383507
1290,천천고등학교,경기도 수원시 장안구 정자로42번길 31,37.2986133,126.9824187
1291,청담고등학교,경기도 평택시 팽성읍 팽성송화로 192,,
1292,청덕고등학교,경기도 용인시 기흥구 구성1로 21,37.2927623,127.1465007
1293,청명고등학교,경기도 수원시 영통구 영통로 466,37.2425744,127.0552058
1294,청북고등학교,경기도 평택시 청북읍 안청로4길 55,37.022514,126.91992066373888
1295,청심국제고등학교,경기도 가평군 설악면 미사리로 324-213,,
1296,청운고등학교,경기도 양평군 청운면 청운로 28,,
1297,청평고등학교,경기도 가평군 청평면 강변나루로40번길 23,,
1298,청학고등학교,경기도 남양주시 별내면 청학로68번길 47,,
1299,초당고등학교,경기도 용인시 기흥구 동백중앙로 21,37.2723643,127.151236
1300,초월고등학교,경기도 광주시 초월읍 무들로 3-25,,
1301,초지고등학교,경기도 안산시 단원구 광덕1로 13,37.3076705,126.832499
1302,충현고등학교,경기도 광명시 오리로348번길 62,37.4341951,126.8824487
1303,충훈고등학교,경기도 안양시 만안구 석수로 238,37.410854650000005,126.8927657009375
1304,태광고등학교,경기도 평택시 탄현1로 155,37.0725067,127.0535754
1305,태성고등학교,경기도 용인시 처인구 백옥대로 1059-2,37.1902068,127.2044213
1306,태원고등학교,경기도 성남시 분당구 성남대로 822,37.4033029,127.12943594052419
1307,태장고등학교,경기도 수원시 영통구 영통로 250,37.2425744,127.0552058
1308,태전고등학교,경기도 광주시 태전동로 38,37.3864241,127.2334932
1309,토평고등학교,경기도 구리시 장자대로111번길 41,,
1310,통진고등학교,경기도 김포시 통진읍 김포대로 2165,37.674806,126.6350944
1311,퇴계원고등학교,경기도 남양주시 퇴계원면 퇴계원로 ,,
1312,파주고등학교,경기도 파주시 문산읍 독산로31번길 39,,
1313,파주여자고등학교,경기도 파주시 월롱면 함영골길 10,,
1314,판곡고등학교,경기도 남양주시 늘을1로 127,37.6606249,127.2526354
1315,판교고등학교,경기도 성남시 분당구 동판교로 257,37.3889586,127.1164627
1316,평내고등학교,경기도 남양주시 평내로 57,37.6485806,127.2421336
1317,평촌경영고등학교,경기도 안양시 동안구 학의로 186,37.400818799999996,126.95939202147201
1318,평촌고등학교,경기도 안양시 동안구 동안로 80,37.3861432,126.95471339399631
1319,평촌공업고등학교,경기도 안양시 동안구 갈산로 16,37.377499799999995,126.95978326621236
1320,평택고등학교,경기도 평택시 중앙로 246,36.991047,127.1184959
1321,평택기계공업고등학교,경기도 평택시 중앙1로 61,,
1322,평택여자고등학교,경기도 평택시 영신로 220,37.0192,127.0753
1323,포곡고등학교,경기도 용인시 처인구 포곡읍 포곡로210번길 26,,
1324,포천고등학교,경기도 포천시 원모루로 40,,
1325,포천일고등학교,경기도 포천시 군내면 청군로 3426,,
1326,풍덕고등학교,경기도 용인시 수지구 정평로13번길 5,37.3168659,127.0888396
1327,풍동고등학교,경기도 고양시 일산동구 숲속마을로 119,37.6672278,126.7977188
1328,풍무고등학교,경기도 김포시 풍무로93번길 53,,
1329,풍산고등학교,경기도 하남시 덕풍서로 11,,
1330,풍생고등학교,경기도 성남시 수정구 산성대로 111,37.4552897,127.1617708
1331,하길고등학교,경기도 화성시 향남읍 상신하길로274번길 22,,
1332,하남경영고등학교,경기도 하남시 대청로116번길 11,,
1333,하남고등학교,경기도 하남시 미사강변남로 39,37.5617622,127.1953789
1334,하성고등학교,경기도 김포시 하성면 애기봉로806번길 30,,
1335,한겨레고등학교,경기도 안성시 죽산면 칠장로 107-9,,
1336,한광고등학교,경기도 평택시 중앙1로 115,,
1337,한광여자고등학교,경기도 평택시 중앙1로 115,,
1338,한국관광고등학교,경기도 평택시 고덕면 고덕북로 185,,
1339,한국도예고등학교,경기도 이천시 신둔면 둔터로 61,,
1340,한국디지털미디어고등학교,경기도 안산시 단원구 사세충열로 94,37.3386209,126.8295375
1341,한국문화영상고등학교,경기도 동두천시 평화로2452번길 32,,
1342,한국애니메이션고등학교,경기도 하남시 검단산로 223,37.5418046,127.2374755
1343,한국외식과학고등학교,경기도 양주시 남면 개나리18길 1,37.8966466,126.9799645
1344,한국조리과학고등학교,경기도 시흥시 금오로 640,37.4341441,126.8341167
1345,한민고등학교,경기도 파주시 광탄면 혜음로 765,37.7269224,126.8916272
1346,한백고등학교,경기도 화성시 동탄순환대로26길 21,37.2061467,127.1119472
1347,한봄고등학교,경기도 수원시 권선구 호매실로 46-93,37.2641051,126.9573723
1348,한빛고등학교,경기도 파주시 한빛로 36,37.71324015,126.75488236874536
1349,한솔고등학교,경기도 성남시 분당구 내정로 70,37.36663675,127.11572602965167
1350,함현고등학교,경기도 시흥시 역전로 463,37.3522116,126.7389992
1351,행신고등학교,경기도 고양시 덕양구 소만로 36,,
1352,향남고등학교,경기도 화성시 향남읍 행정동로 49,37.1340451,126.9274169
1353,향일고등학교,경기도 화성시 향남읍 행정중앙2로 28 향일고등학교,,
1354,현암고등학교,경기도 용인시 수지구 디지털벨리로 17,37.3317648,127.1333801
1355,현화고등학교,경기도 평택시 안중읍 안현로서8길 65,,
1356,호매실고등학교,경기도 수원시 권선구 칠보로 142-1,37.2701536,126.9594905
1357,호원고등학교,경기도 의정부시 망월로 56,37.7083302,127.0466666
1358,호평고등학교,경기도 남양주시 호평로 109,37.6564007,127.2492635
1359,홍익디자인고등학교,경기도 화성시 효행로 387,37.2077804,127.0268115
1360,화성고등학교,경기도 화성시 향남읍 장짐길 4,,
1361,화성반월고등학교,경기도 화성시 효행로 1281-66,,
1362,화수고등학교,경기도 고양시 덕양구 화수로 51,37.6443822,126.8339136
1363,화정고등학교,경기도 고양시 덕양구 화정로 17,37.63604225,126.82728404294217
1364,화홍고등학교,경기도 수원시 권선구 세권로 331,37.2580373,127.0147434
1365,효명고등학교,경기도 평택시 송탄로 51,37.0586534,127.0591812
1366,효성고등학교,경기도 성남시 수정구 심곡로 16,37.449871,127.102915
1367,효양고등학교,경기도 이천시 부발읍 대산로545번길 55,,
1368,효원고등학교,경기도 수원시 영통구 동수원로 336,37.2558244,127.0363804
1369,효자고등학교,경기도 의정부시 부용로 165,37.7517798,127.0769411
1370,흥덕고등학교,경기도 용인시 기흥구 흥덕2로 36,37.2717225,127.0736214
1371,흥진고등학교,경기도 군포시 오금로 15-17,37.3520987,126.92939394982815
1372,가곡고등학교,강원도 삼척시 가곡면 가곡천로 1427,37.13414,129.15479
1373,간동고등학교,강원도 화천군 간동면 파로호로 945-21,38.0547539,127.8123844
1374,갑천고등학교,강원도 횡성군 갑천면 갑천로 17,,
1375,강릉고등학교,강원도 강릉시 강릉대로587번길 68,37.7843303,128.9193316
1376,강릉명륜고등학교,강원도 강릉시 율곡로 2920-8,37.7577478,128.8972842
1377,강릉문성고등학교,강원도 강릉시 지변길 158,37.7760534,128.8712343
1378,강릉여자고등학교,강원도 강릉시 용지로 107,37.7626575,128.9006856
1379,강릉정보공업고등학교,강원도 강릉시 주문진읍 학교길 26,,
1380,강릉제일고등학교,강원도 강릉시 화부산로8번길 37,37.758448,128.8892535
1381,강릉중앙고등학교,강원도 강릉시 강변로 422,37.7420309,128.8699604
1382,강원고등학교,강원도 춘천시 동면 장학길 24,,
1383,강원과학고등학교,강원도 원주시 치악로 2242,37.333624,127.9577032
1384,강원대학교사범대학부설고등학교,강원도 춘천시 서부대성로 257,37.8760999,127.7752864
1385,강원생활과학고등학교,강원도 홍천군 남면 새작들길 11,,
1386,강원애니고등학교,강원도 춘천시 서면 박사로 1025,,
1387,강원예술고등학교,강원도 강릉시 구정면 칠봉로 670-34,,
1388,강원외국어고등학교,강원도 양구군 양구읍 금강산로 437-12,,
1389,강원체육고등학교,강원도 춘천시 자라우새길 126,37.857089,127.7003218
1390,강일여자고등학교,강원도 강릉시 화부산로 89,37.7648055,128.8901036
1391,거진정보공업고등학교,강원도 고성군 거진읍 거탄진로 ,38.4489219,128.4586652
1392,경포고등학교,강원도 강릉시 강릉대로547번길 14,37.7806728,128.918446
1393,고성고등학교,강원도 고성군 간성읍 수성로 125,38.3771684,128.4672068
1394,고한고등학교,강원도 정선군 고한읍 고한9길 160,37.2037163,128.8539964
1395,기린고등학교,강원도 인제군 기린면 창암길 20,,
1396,김화고등학교,강원도 철원군 서면 와수1로 90,,
1397,김화공업고등학교,강원도 철원군 서면 와수1로 72,,
1398,내면고등학교,강원도 홍천군 내면 구룡령로 5174,37.76663645,128.38770604208494
1399,대성고등학교,강원도 원주시 북원로 2001,37.4513672,127.9787824
1400,대진고등학교,강원도 고성군 현내면 화진포길 476,38.4827064,128.433012
1401,대화고등학교,강원도 평창군 대화면 대화중앙로 32-8,37.4904353,128.456334
1402,도계고등학교,강원도 삼척시 도계읍 도계느티로 69,,
1403,도계전산정보고등학교,강원도 삼척시 도계읍 도계느티로 24,,
1404,동광산업과학고등학교,강원도 고성군 토성면 백촌길 30-15,38.2935339,128.5436426
1405,동해광희고등학교,강원도 동해시 청운로 112,,
1406,동해삼육고등학교,강원도 동해시 동해대로 5367,37.5416949,129.0962212
1407,동해상업고등학교,강원도 동해시 느릅재길 65,,
1408,둔내고등학교,강원도 횡성군 둔내면 둔내로 22,37.5127627,128.2143179
1409,마차고등학교,강원도 영월군 북면 문학로길 25-8,,
1410,묵호고등학교,강원도 동해시 승지로 37,,
1411,문막고등학교,강원도 원주시 문막읍 문막시장1길 58,37.30749,127.81716
1412,민족사관고등학교,강원도 횡성군 안흥면 봉화로,,
1413,봉의고등학교,강원도 춘천시 후석로250번길 22,37.874039,127.7571658
1414,봉평고등학교,강원도 평창군 봉평면 기풍4길 27-6,,
1415,북원여자고등학교,강원도 원주시 원문로137번길 32,37.3528951,127.9318266
1416,북평고등학교,강원도 동해시 효자남길 51,,
1417,북평여자고등학교,강원도 동해시 동굴로 55,37.5178434,129.1135753
1418,사내고등학교,강원도 화천군 사내면 포화로 1093,38.0605567,127.5092166
1419,사북고등학교,강원도 정선군 사북읍 소금강로 3640,37.2294161,128.8415484
1420,삼일고등학교,강원도 삼척시 사직로 22,37.4338645,129.1681444
1421,삼척고등학교,강원도 삼척시 사대안길 21,37.4454976,129.1663115
1422,삼척마이스터고등학교,강원도 삼척시 근덕면 삼척로 3700,37.3395519,129.2398006
1423,삼척여자고등학교,강원도 삼척시 남산길 6,37.4339159,129.1636055
1424,상동고등학교,강원도 영월군 상동읍 태백산로 3147,37.1274114,128.8278842
1425,상지대관령고등학교,강원도 평창군 대관령면 해당화3길 24,37.672216,128.705662
1426,상지여자고등학교,강원도 원주시 개운4길 25,37.338408,127.9605478
1427,서석고등학교,강원도 홍천군 서석면 구룡령로 2570,37.70562,128.21379
1428,석정여자고등학교,강원도 영월군 영월읍 영월로 1914-11,37.1826731,128.4944403
1429,설악고등학교,강원도 속초시 청대로 219,38.1958844,128.5726115
1430,성수고등학교,강원도 춘천시 중앙로68번길 21,37.881287,127.7247119
1431,성수여자고등학교,강원도 춘천시 학당길 28,37.8801998,127.7237884
1432,소양고등학교,강원도 춘천시 영서로 2872,37.97878,127.65817
1433,속초고등학교,강원도 속초시 사진용촌길 42,38.2247471,128.5808705
1434,속초여자고등학교,강원도 속초시 배움터길 16,38.1987882,128.5703312
1435,신남고등학교,강원도 인제군 남면 신남로 47-35,37.9786153,128.0919255
1436,신철원고등학교,강원도 철원군 갈말읍 명성로149번길 64,,
1437,안흥고등학교,강원도 횡성군 안흥면 서동로 1121,37.42046,128.16642
1438,양구고등학교,강원도 양구군 양구읍 중심로 115,,
1439,양구여자고등학교,강원도 양구군 양구읍 박수근로 327,,
1440,양양고등학교,강원도 양양군 양양읍 복개길 23-12,,
1441,여량고등학교,강원도 정선군 여량면 여량7길 42,,
1442,영서고등학교,강원도 원주시 치악로 1384,37.333624,127.9577032
1443,영월고등학교,강원도 영월군 영월읍 오무개길 51,,
1444,원덕고등학교,강원도 삼척시 원덕읍 삼척로 480,,
1445,원주고등학교,강원도 원주시 치악로 1765,37.333624,127.9577032
1446,원주공업고등학교,강원도 원주시 고문골길 54,,
1447,원주금융회계고등학교,강원도 원주시 부론면 부귀로 35,,
1448,원주삼육고등학교,강원도 원주시 북원로 1996,37.4513672,127.9787824
1449,원주여자고등학교,강원도 원주시 배울로 227,37.3311716,127.9794835
1450,원주의료고등학교,강원도 원주시 문막읍 원문로 1756,37.3163108,127.8276267
1451,원통고등학교,강원도 인제군 북면 원통로 285,,
1452,유봉여자고등학교,강원도 춘천시 봉의산길22번길 28,37.8853859,127.7332279
1453,육민관고등학교,강원도 원주시 흥업면 북원로 1800,,
1454,인제고등학교,강원도 인제군 인제읍 인제로249번길 22,,
1455,임계고등학교,강원도 정선군 임계면 백두대간로 1313,,
1456,장성여자고등학교,강원도 태백시 일광마을길 8-12,37.1256836,129.0034917
1457,전인고등학교,강원도 춘천시 동산면 새술막길 630,,
1458,정선고등학교,강원도 정선군 정선읍 봉양4길 15,37.378076,128.6626293
1459,정선정보공업고등학교,강원도 정선군 정선읍 용담샛길 2,,
1460,주문진고등학교,강원도 강릉시 주문진읍 학교길 28,,
1461,주천고등학교,강원도 영월군 주천면 주천로89번길 41,,
1462,진광고등학교,강원도 원주시 진광길 50,37.3717089,127.9407261
1463,진부고등학교,강원도 평창군 진부면 솔천길 69,,
1464,철암고등학교,강원도 태백시 상철암길 10-32,,
1465,철원고등학교,강원도 철원군 철원읍 금학로251번안길 12,,
1466,철원여자고등학교,강원도 철원군 동송읍 이평로123번길 40,,
1467,춘천고등학교,강원도 춘천시 중앙로68번길 37,37.881287,127.7247119
1468,춘천기계공업고등학교,강원도 춘천시 후석로462번길 53,37.8909553,127.7508594
1469,춘천여자고등학교,강원도 춘천시 동면 만천양지길 95,,
1470,춘천한샘고등학교,강원도 춘천시 신북읍 신샘밭로 363-12,,
1471,치악고등학교,강원도 원주시 치악고교길 16,37.3149634,127.9611126
1472,태백기계공업고등학교,강원도 태백시 평화길 8-24,,
1473,팔렬고등학교,강원도 홍천군 내촌면 동창로 207,,
1474,평창고등학교,강원도 평창군 평창읍 노람들길 141,37.3681045,128.4015832
1475,하장고등학교,강원도 삼척시 하장면 백두대간로 2600,,
1476,한국소방마이스터고등학교,강원도 영월군 영월읍 영모전길 108,,
1477,함백고등학교,강원도 정선군 신동읍 함백로 376,,
1478,현천고등학교,강원도 횡성군 둔내면 경강로 4119,37.51993,128.21422
1479,홍천고등학교,강원도 홍천군 홍천읍 석화로 109-10,,
1480,홍천농업고등학교,강원도 홍천군 홍천읍 홍천로 678-15,37.6920702,127.8655107
1481,홍천여자고등학교,강원도 홍천군 홍천읍 꽃뫼로 71,,
1482,화천고등학교,강원도 화천군 하남면 춘화로 3348-9,,
1483,화천정보산업고등학교,강원도 화천군 화천읍 상승로 69,,
1484,황지고등학교,강원도 태백시 번영로 179,37.154694,128.9870699
1485,황지정보산업고등학교,강원도 태백시 문화로1길 1,37.16774,128.9890225
1486,횡성고등학교,강원도 횡성군 횡성읍 교항로 33,,
1487,횡성여자고등학교,강원도 횡성군 횡성읍 횡성로 252,,
1488,광혜원고등학교,충청북도 진천군 광혜원면 덕성산로 56,,
1489,괴산고등학교,충청북도 괴산군 괴산읍 읍내로 106,,
1490,국원고등학교,충청북도 충주시 탄금대로 88,37.0274101,127.8443196
1491,금천고등학교,충청북도 청주시 상당구 호미로233번길 65,36.6282632,127.5115793
1492,단산고등학교,충청북도 단양군 어상천면 어상천로 904,37.105247,128.3521552
1493,단양고등학교,충청북도 단양군 단양읍 수변로 2,,
1494,대금고등학교,충청북도 음성군 금왕읍 신내로 507,,
1495,대성여자상업고등학교,충청북도 청주시 상당구 대성로 220,36.6290961,127.4940901
1496,매괴고등학교,충북 음성군 감곡면 매괴길 10,,
1497,목도고등학교,충청북도 괴산군 불정면 한불로청덕1길 50-15,,
1498,보은고등학교,충청북도 보은군 보은읍 보은로 17,36.4903714,127.7186948
1499,보은여자고등학교,충청북도 보은군 보은읍 보은로 223,36.4903714,127.7186948
1500,보은정보고등학교,충청북도 보은군 보은읍 성주길 27,,
1501,봉명고등학교,충청북도 청주시 흥덕구 월명로220번길 19,36.6544145,127.4600786
1502,산남고등학교,충청북도 청주시 서원구 두꺼비로 7,36.60881175,127.4699655670107
1503,상당고등학교,충청북도 청주시 상당구 월평로238번길 3-10,36.6064476,127.5079107
1504,서원고등학교,충청북도 청주시 흥덕구 가경로 49,36.6301955,127.4364431
1505,서전고등학교,충청북도 진천군 덕산읍 대하로 47,,
1506,세광고등학교,충청북도 청주시 서원구 2순환로 1572,36.5953219,127.4916316
1507,세명고등학교,충청북도 제천시 세명로 88,37.1803551,128.1997794
1508,양업고등학교,충청북도 청주시 흥덕구 옥산면 환희길 277,,
1509,양청고등학교,충청북도 청주시 청원구 오창읍 양청6길 33,,
1510,영동고등학교,충청북도 영동군 영동읍 계산로 122,,
1511,영동미래고등학교,충청북도 영동군 영동읍 대학로 10,,
1512,영동산업과학고등학교,충청북도 영동군 영동읍 학산영동로 1213,,
1513,오송고등학교,충청북도 청주시 흥덕구 오송읍 오송생명3로 95,36.62945485,127.32631513968413
1514,오창고등학교,충청북도 청주시 청원구 오창읍 괴정1길 10,,
1515,옥천고등학교,충청북도 옥천군 옥천읍 중앙로 115,,
1516,운호고등학교,충청북도 청주시 서원구 무심서로 375,36.6143793,127.4946328
1517,음성고등학교,충청북도 음성군 음성읍 중앙로 109-16,,
1518,음성여자고등학교,충청북도 음성군 음성읍 음성로 5-12,,
1519,일신여자고등학교,충청북도 청주시 상당구 영운로 126,36.6283128,127.4919559
1520,제천고등학교,충청북도 제천시 칠성로 105,37.1450682,128.2092781
1521,제천디지털전자고등학교,충청북도 제천시 봉양읍 팔송로 84,,
1522,제천산업고등학교,충청북도 제천시 단양로10길 160,,
1523,제천상업고등학교,충청북도 제천시 의병대로 243,37.12537,128.2844
1524,제천여자고등학교,충청북도 제천시 내제로6길 13,,
1525,제천제일고등학교,충청북도 제천시 의병대로 177,37.12537,128.2844
1526,주덕고등학교,충청북도 충주시 주덕읍 창전길 223,,
1527,주성고등학교,충청북도 청주시 상당구 호미로 310,36.6237582,127.5179468
1528,증평공업고등학교,충청북도 증평군 증평읍 광장로 180,36.7763932,127.6024663
1529,증평정보고등학교,충청북도 증평군 증평읍 중앙로 132,,
1530,진천고등학교,충청북도 진천군 진천읍 문화12길 48,36.8515414,127.4502097
1531,진천상업고등학교,충청북도 진천군 진천읍 문화3길 25,,
1532,청산고등학교,충청북도 옥천군 청산면 청산로 92,,
1533,청석고등학교,충청북도 청주시 상당구 원봉로 75,36.6140119,127.509045
1534,청원고등학교,충청북도 청주시 청원구 오창읍 구룡5길 9,,
1535,청주IT과학고등학교,충청북도 청주시 서원구 현도면 죽암도원로 34-13,,
1536,청주고등학교,충청북도 청주시 흥덕구 사직대로 79,36.6344453,127.4528202
1537,청주공업고등학교,충청북도 청주시 상당구 교서로 17,36.637445,127.4865373
1538,청주농업고등학교,충청북도 청주시 청원구 내덕로 45,36.6571879,127.4870537
1539,청주대성고등학교,충청북도 청주시 청원구 대성로300번길 18,36.65314685,127.49090599064598
1540,청주신흥고등학교,충청북도 청주시 청원구 율봉로 229,36.665039,127.4771877
1541,청주여자고등학교,충청북도 청주시 청원구 충청대로107번길 82,36.6661916,127.4923855
1542,청주여자상업고등학교,충청북도 청주시 서원구 무심서로 377-1,36.6429159,127.4822444
1543,청주외국어고등학교,충청북도 청주시 흥덕구 장구봉로 107,36.6203869,127.4341692
1544,청주중앙여자고등학교,충청북도 청주시 서원구 천석로 15,36.6389986,127.4654499
1545,청주하이텍고등학교,충청북도 청주시 서원구 1순환로1137번길 59,36.6121211,127.4926701
1546,충북고등학교,충청북도 청주시 서원구 청남로 1969,36.4860781,127.4237326
1547,충북공업고등학교,충청북도 청주시 흥덕구 서부로1205번길 52,36.6121533,127.4305282
1548,충북과학고등학교,충청북도 청주시 상당구 가덕면 교육원로 153-135,,
1549,충북대학교사범대학부설고등학교,충청북도 청주시 흥덕구 장구봉로41번길 12,36.6228595,127.4389138
1550,충북반도체고등학교,충청북도 음성군 금왕읍 무극로 393-1,36.98683,127.57388
1551,충북산업과학고등학교,충청북도 옥천군 옥천읍 중앙로 144,,
1552,충북상업정보고등학교,충청북도 청주시 청원구 율천북로 73,36.6656658,127.4889682
1553,충북생명산업고등학교,충청북도 보은군 보은읍 자영고길 10,,
1554,충북에너지고등학교,충청북도 청주시 상당구 미원면 미원초정로 27,,
1555,충북여자고등학교,충청북도 청주시 서원구 무심서로 377-2,36.6143793,127.4946328
1556,충북예술고등학교,충청북도 청주시 흥덕구 서부로 1185,36.6068592,127.41498
1557,충북체육고등학교,충청북도 진천군 문백면 도하3길 120,,
1558,충원고등학교,충청북도 충주시 엄정면 동막강현길 377,,
1559,충주고등학교,충청북도 충주시 예성로 37,36.9687111,127.9334894
1560,충주공업고등학교,충청북도 충주시 형설로 120,36.9596076,127.9402017
1561,충주대원고등학교,충청북도 충주시 안림로 43,36.971836,127.950975
1562,충주상업고등학교,충청북도 충주시 방아길 20,36.9498003,127.9397262
1563,충주여자고등학교,충청북도 충주시 형설로 77,36.9596076,127.9402017
1564,충주예성여자고등학교,충청북도 충주시 호암대로 42,36.9576251,127.9346256
1565,충주중산고등학교,충청북도 충주시 방아길 20,36.9498003,127.9397262
1566,학산고등학교,충청북도 영동군 학산면 학산양산로 12,36.1009607,127.6797987
1567,한국교원대학교부설고등학교,충청북도 청주시 흥덕구 강내면 태성탑연로,,
1568,한국바이오마이스터고등학교,충청북도 진천군 진천읍 남산4길 13,36.852885,127.4383386
1569,한국호텔관광고등학교,충청북도 단양군 단성면 북상하리길 69,,
1570,한림디자인고등학교,충청북도 충주시 야현1길 21,,
1571,형석고등학교,충청북도 증평군 증평읍 미암로 26,,
1572,황간고등학교,충청북도 영동군 황간면 남성동3길 4-22,,
1573,흥덕고등학교,충청북도 청주시 흥덕구 증안로 9,36.6365443,127.4296461
1574,갈산고등학교,충청남도 홍성군 갈산면 상촌로9번길 39,,
1575,강경고등학교,충청남도 논산시 강경읍 계백로 188,36.1643272,127.0301006
1576,강경상업고등학교,충청남도 논산시 강경읍 계백로 220,36.1643272,127.0301006
1577,건양대학교병설건양고등학교,충청남도 논산시 양촌면 황산벌로 486-21,36.1505266,127.2201795
1578,계룡고등학교,충청남도 계룡시 두마면 서금암로 89,,
1579,공동체비전고등학교,충청남도 서천군 서천읍 서문로 327,,
1580,공주고등학교,충청남도 공주시 공주고담길 2,,
1581,공주금성여자고등학교,충청남도 공주시 무령로 103,36.4566192,127.1237057
1582,공주대학교사범대학부설고등학교,충청남도 공주시 봉황로 75,36.455336,127.1212905
1583,공주마이스터고등학교,충청남도 공주시 유구읍 중앙1길 27-12,36.5503099,126.9509598
1584,공주생명과학고등학교,충청남도 공주시 금벽로 317,36.3929675,127.2530754
1585,공주여자고등학교,충청남도 공주시 공주여고길 14-1,,
1586,공주영명고등학교,충청남도 공주시 영명학당2길 33,,
1587,공주정보고등학교,충청남도 공주시 마근동길 29,,
1588,금산고등학교,충청남도 금산군 금산읍 탑선길 5,,
1589,금산산업고등학교,충청남도 금산군 금산읍 진악로 1003,,
1590,금산여자고등학교,충청남도 금산군 금산읍 인삼로 21,,
1591,금산하이텍고등학교,충청남도 금산군 진산면 대둔산로,36.1465978,127.3738043
1592,논산고등학교,충청남도 논산시 시민로 173-9,36.1942966,127.0907234
1593,논산공업고등학교,충청남도 논산시 시민로 365,36.1942966,127.0907234
1594,논산대건고등학교,충청남도 논산시 논산대로 119,36.1829581,127.07602935761562
1595,논산여자고등학교,충청남도 논산시 중앙로 325,36.1945412,127.0917292
1596,논산여자상업고등학교,충청남도 논산시 시민로 197,36.1942966,127.0907234
1597,당진고등학교,충청남도 당진시 백암로 219-20,36.886606,126.6228691
1598,당진정보고등학교,충청남도 당진시 운학길 5,,
1599,대산고등학교,충청남도 서산시 대산읍 대산1로 36,,
1600,대천고등학교,충청남도 보령시 대고로 58,36.3633739,126.6074655
1601,대천여자고등학교,충청남도 보령시 중앙로 264,36.3459621,126.5990151
1602,대천여자상업고등학교,충청남도 보령시 여상길 60,,
1603,대흥고등학교,충청남도 예산군 대흥면 예당로 845,,
1604,덕산고등학교,충청남도 예산군 삽교읍 예학로 138,,
1605,만리포고등학교,충청남도 태안군 소원면 서해로 631,,
1606,목천고등학교,충청남도 천안시 동남구 목천읍 삼방로 145,,
1607,배방고등학교,충청남도 아산시 배방읍 배방산길359번길 61,,
1608,병천고등학교,충청남도 천안시 동남구 병천면 충절로 1872,,
1609,복자여자고등학교,충청남도 천안시 동남구 복자1길 1,36.8153596,127.151958
1610,부석고등학교,충청남도 서산시 부석면 무학로 1180-9,36.6616669,126.3822343
1611,부여고등학교,충청남도 부여군 부여읍 금성로91번길 3,,
1612,부여여자고등학교,충청남도 부여군 부여읍 부소로 47,,
1613,부여전자고등학교,충청남도 부여군 임천면 충절로 1027,36.1653757,126.8969339
1614,부여정보고등학교,충청남도 부여군 규암면 충절로2316번길 24,36.2774608,126.8810282
1615,북일고등학교,충청남도 천안시 동남구 단대로 69,36.8322417,127.1581716
1616,북일여자고등학교,충청남도 천안시 동남구 단대로 71,36.8316213,127.1600892
1617,삽교고등학교,충청남도 예산군 삽교읍 삽교로 161,36.6864219,126.7327275
1618,서령고등학교,충청남도 서산시 서령로 117-1,36.7916729,126.4604832
1619,서산고등학교,충청남도 서산시 해미면 서문3길 37,,
1620,서산공업고등학교,충청남도 서산시 운산면 운암로 1072-12,36.8122174,126.5746839
1621,서산여자고등학교,충청남도 서산시 정주골6길 27,36.7683236,126.4705348
1622,서산중앙고등학교,충청남도 서산시 벌말1길 23,36.7779796,126.4691557
1623,서야고등학교,충청남도 당진시 합덕읍 덕평로 335,36.7882403,126.8008615
1624,서일고등학교,충청남도 서산시 지곡면 화천3길 56,,
1625,서천고등학교,충청남도 서천군 서천읍 사곡로43번길 13-16,,
1626,서천여자고등학교,충청남도 서천군 서천읍 군청로 84,,
1627,서천여자정보고등학교,충청남도 서천군 서천읍 화금서길 45,,
1628,서해삼육고등학교,충청남도 홍성군 광천읍 홍남로705번길 23,,
1629,설화고등학교,충청남도 아산시 배방읍 용연로 ,36.7913767,127.0903626
1630,성환고등학교,충청남도 천안시 서북구 성환읍 신방로 354,36.9224919,127.1214018
1631,송악고등학교,충청남도 당진시 송악읍 송악로 165,,
1632,신평고등학교,충청남도 당진시 신평면 서해로 7076,36.8848889,126.8249269
1633,쌘뽈여자고등학교,충청남도 논산시 시민로 411,36.1942966,127.0907234
1634,아산고등학교,충청남도 아산시 번영로115번길 21,36.7870254,127.0045851
1635,아산전자기계고등학교,충청남도 아산시 둔포면 둔포중앙로133번길 42,,
1636,안면고등학교,충청남도 태안군 안면읍 조운막터길 73,,
1637,연무고등학교,충청남도 논산시 연무읍 동안로887번길 5,,
1638,연무대기계공업고등학교,충청남도 논산시 연무읍 연무로 268-9,,
1639,예산고등학교,충청남도 예산군 예산읍 예산로 101,36.6780117,126.8404054
1640,예산여자고등학교,충청남도 예산군 예산읍 주교로 36,36.6858118,126.8324694
1641,예산예화여자고등학교,충청남도 예산군 예산읍 예산로 117,36.6780117,126.8404054
1642,예산전자공업고등학교,충청남도 예산군 예산읍 벚꽃로351번길 21,,
1643,온양고등학교,충청남도 아산시 온천대로 1411,36.7782838,127.0596632
1644,온양여자고등학교,충청남도 아산시 온여고길21번길 24,36.7781523,127.0122176
1645,온양용화고등학교,충청남도 아산시 용화고길 10,36.7730626,127.0094494
1646,온양한올고등학교,충청남도 아산시 청운로 158,36.775979,127.004512
1647,용남고등학교,충청남도 계룡시 신도안면 신도안1길 32,,
1648,웅천고등학교,충청남도 보령시 웅천읍 방축길 87,,
1649,장항고등학교,충청남도 서천군 장항읍 성화로193번길 6,,
1650,장항공업고등학교,충청남도 서천군 장항읍 신창서로 77,,
1651,정산고등학교,충청남도 청양군 정산면 칠갑산로 1897,,
1652,주산산업고등학교,충청남도 보령시 주산면 만세운동길 58,36.1973355,126.633304
1653,천안고등학교,충청남도 천안시 동남구 봉명로 53,36.808383750000004,127.13453942149405
1654,천안공업고등학교,충청남도 천안시 동남구 성황5길 17,,
1655,천안두정고등학교,충청남도 천안시 서북구 두정고2길 13,36.8370353,127.1314191
1656,천안불당고등학교,충청남도 천안시 서북구 불당29길 22,36.8086922,127.1033853
1657,천안상업고등학교,충청남도 천안시 서북구 천일고1길 43-9,36.8591789,127.15740834763922
1658,천안신당고등학교,충청남도 천안시 서북구 신당새터2길 36,36.851421849999994,127.15966656110383
1659,천안쌍용고등학교,충청남도 천안시 서북구 월봉7길 10,36.790164,127.1152817
1660,천안업성고등학교,충청남도 천안시 서북구 업성3길 65-11,36.86179105,127.13752869281231
1661,천안여자고등학교,충청남도 천안시 동남구 삼룡3길 30,,
1662,천안여자상업고등학교,충청남도 천안시 동남구 천안여상로 44,36.8035263,127.1339809
1663,천안오성고등학교,충청남도 천안시 서북구 과수원길 27,36.841424450000005,127.14204284135283
1664,천안월봉고등학교,충청남도 천안시 서북구 불당11로 51,36.8034923,127.1128269
1665,천안제일고등학교,충청남도 천안시 동남구 버들로 71,36.80815395,127.15418913816302
1666,천안중앙고등학교,충청남도 천안시 동남구 충절로 91,36.8105429,127.15928365772537
1667,천안청수고등학교,충청남도 천안시 동남구 청수로 82-46,36.7882056,127.1522751
1668,청양고등학교,충청남도 청양군 청양읍 문화예술로 149,36.4412394,126.7966688
1669,충남과학고등학교,충청남도 공주시 반포면 금벽로 1351-15,36.3998473,127.2429562
1670,충남드론항공고등학교,충청남도 홍성군 광천읍 홍남로 695,36.5059483,126.6318492
1671,충남디자인예술고등학교,충청남도 서천군 한산면 한마로 114,,
1672,충남삼성고등학교,충청남도 아산시 탕정면 삼성로 77,36.805166400000005,127.05847120162522
1673,충남예술고등학교,충청남도 천안시 서북구 성거읍 천흥2길 42,,
1674,충남외국어고등학교,충청남도 아산시 탕정면 탕정면로 53-60,36.804177800000005,127.06146967004777
1675,충남인터넷고등학교,충청남도 논산시 연산면 계백로 1958-16,,
1676,충남체육고등학교,충청남도 논산시 체육로 82,36.1900818,127.1008523
1677,충남해양과학고등학교,충청남도 보령시 대천항로 212,36.3222677,126.5087298
1678,태안고등학교,충청남도 태안군 태안읍 백화로 251,36.758103,126.2984639
1679,태안여자고등학교,충청남도 태안군 태안읍 원이로 7-1,,
1680,한국K-POP고등학교,충청남도 홍성군 광천읍 광천로373번길 14,,
1681,한국식품마이스터고등학교,충청남도 부여군 홍산면 홍산로 112-23,36.2177218,126.7651313
1682,한마음고등학교,충청남도 천안시 동남구 동면 장송1길 47-24,,
1683,한일고등학교,충청남도 공주시 정안면 어물길 81,,
1684,합덕고등학교,충청남도 당진시 합덕읍 면천로 1583,36.8118273,126.7596123
1685,합덕제철고등학교,충청남도 당진시 합덕읍 면천로 1601,36.8118273,126.7596123
1686,호서고등학교,충청남도 당진시 밤절로 2-13,36.9003351,126.6371348
1687,홍성고등학교,충청남도 홍성군 홍북읍 홍학로 49,,
1688,홍성공업고등학교,충청남도 홍성군 결성면 구성남로 55,,
1689,홍성여자고등학교,충청남도 홍성군 홍성읍 충서로 1575번길 10,,
1690,홍주고등학교,충청남도 홍성군 홍성읍 문화로 78,,
1691,강호항공고등학교,전라북도 고창군 고창읍 중거리당산로 78-22,35.4284475,126.6978006
1692,고산고등학교,전라북도 완주군 고산면 고산천로 551-23,,
1693,고창고등학교,전라북도 고창군 고창읍 모양성로 50,35.4404945,126.6989648
1694,고창북고등학교,전라북도 고창군 흥덕면 선운대로 3714-32,,
1695,고창여자고등학교,전라북도 고창군 고창읍 모양성로 95,35.4404945,126.6989648
1696,군산고등학교,전라북도 군산시 팔마로 177,35.974862200000004,126.72136742454992
1697,군산기계공업고등학교,전라북도 군산시 군중길 28,35.9776334,126.7036503
1698,군산동고등학교,전라북도 군산시 달여길 50,,
1699,군산상업고등학교,전라북도 군산시 석치1길 17,35.97478,126.7002585
1700,군산여자고등학교,전라북도 군산시 월명1길 16,,
1701,군산여자상업고등학교,전라북도 군산시 신지길 42-8,,
1702,군산영광여자고등학교,전라북도 군산시 둔배미길 21,,
1703,군산제일고등학교,전라북도 군산시 경기장로 142,35.9745116,126.7459057
1704,군산중앙고등학교,전라북도 군산시 성산면 군장대길 13,,
1705,군산중앙여자고등학교,전라북도 군산시 축동2길 27,,
1706,김제고등학교,전라북도 김제시 남북2길 25,35.7916567,126.8976231
1707,김제농생명마이스터고등학교,전라북도 김제시 남북9길 23,,
1708,김제서고등학교,전라북도 김제시 죽산면 해학로 17,,
1709,김제여자고등학교,전라북도 김제시 중앙로 193,35.8040232,126.8876828
1710,남성고등학교,전라북도 익산시 동서로35길 41-4,,
1711,남원고등학교,전라북도 남원시 만인로 43,35.4207518,127.3833827
1712,남원국악예술고등학교,전라북도 남원시 용성로 323,35.4144602,127.3937231
1713,남원서진여자고등학교,전라북도 남원시 낙현길 17-14,,
1714,남원여자고등학교,전라북도 남원시 광천북길 229-11,,
1715,남원용성고등학교,전라북도 남원시 농고길 41,,
1716,남원제일고등학교,전라북도 남원시 노송로 1206,35.32594,127.31623
1717,덕암고등학교,전라북도 김제시 하공로 9,35.9044025,126.909245
1718,덕암정보고등학교,전라북도 김제시 하공로 9,35.9044025,126.909245
1719,동계고등학교,전라북도 순창군 동계면 강동로 74,35.4441181,127.2445254
1720,동국대학교사범대학부속금산고등학교,전라북도 김제시 금산면 모악로 47,,
1721,동암고등학교,전라북도 전주시 완산구 소태정4길 1,,
1722,마령고등학교,전라북도 진안군 마령면 임진로 2076,35.73565,127.36821
1723,만경고등학교,전라북도 김제시 만경읍 능제로 29,35.8537983,126.8170282
1724,만경여자고등학교,전라북도 김제시 만경읍 만경로 823,35.8815487,126.8273754
1725,무주고등학교,전라북도 무주군 무주읍 한수로 32,,
1726,무풍고등학교,전라북도 무주군 무풍면 대덕산로 914,,
1727,배영고등학교,전라북도 정읍시 동학로 243,,
1728,백산고등학교,전라북도 부안군 백산면 백산로 379,,
1729,백화여자고등학교,전라북도 장수군 장계면 백화로 4-31,,
1730,부안고등학교,전라북도 부안군 부안읍 문정로 32,,
1731,부안여자고등학교,전라북도 부안군 부안읍 교동1길 54,,
1732,부안제일고등학교,전라북도 부안군 행안면 춘헌길 1,,
1733,산서고등학교,전라북도 장수군 산서면 보산로 1852-6,,
1734,상산고등학교,전라북도 전주시 완산구 거마평로 130,35.8044845,127.1185959755034
1735,서림고등학교,전라북도 부안군 부안읍 용암로 70-5,,
1736,서영여자고등학교,전북 정읍시 명덕1길 66-10,,
1737,설천고등학교,전라북도 무주군 설천면 하평지길 19,,
1738,성원고등학교,전라북도 남원시 대복사길 41,,
1739,성일고등학교,전라북도 익산시 황등면 화강암로 229,,
1740,세인고등학교,전라북도 완주군 화산면 화산로 1486,36.0348555,127.1962817
1741,순창고등학교,전라북도 순창군 순창읍 옥천로 67-14,35.3784935,127.1413311
1742,순창제일고등학교,전라북도 순창군 순창읍 담순로 1411,35.3804933,127.1411088
1743,신태인고등학교,전라북도 정읍시 신태인읍 서태길 108,,
1744,안성고등학교,전라북도 무주군 안성면 구량천로 147,,
1745,안천고등학교,전라북도 진안군 안천면 진무로 3071-9,35.8961006,127.5491682
1746,양현고등학교,전라북도 전주시 덕진구 틀못2길 9,35.8418532,127.0611595
1747,여산고등학교,전라북도 익산시 여산면 가람로 465,36.0420078,127.08784
1748,영선고등학교,전라북도 고창군 무장면 왕제산로 713,,
1749,오수고등학교,전라북도 임실군 오수면 충효로 2099-23,,
1750,완산고등학교,전라북도 전주시 완산구 능안자구길 55,,
1751,완산여자고등학교,전라북도 전주시 완산구 덕적골1길 60,,
1752,완주고등학교,전라북도 완주군 봉동읍 봉동로 172,35.9548932,127.1456185
1753,왕신여자고등학교,전라북도 정읍시 신태인읍 정신로 1094,35.6940062,126.8758693
1754,우석고등학교,전라북도 전주시 덕진구 쪽구름2길 22,35.87406245,127.07791863921084
1755,원광고등학교,전라북도 익산시 무왕로31길 139,,
1756,원광여자고등학교,전라북도 익산시 선화로13길 72,,
1757,원광정보예술고등학교,전라북도 익산시 선화로13길 72,,
1758,위도고등학교,전라북도 부안군 위도면 위도로 245,,
1759,유일여자고등학교,전라북도 전주시 덕진구 안덕원로 301,35.8364472,127.1528588
1760,이리고등학교,전라북도 익산시 익산대로36길 35,,
1761,이리공업고등학교,전라북도 익산시 동서로14길 30-2,,
1762,이리남성여자고등학교,전라북도 익산시 동서로35길 41,,
1763,이리여자고등학교,전라북도 익산시 익산대로24길 8-5,35.9446365,126.9513725
1764,이일여자고등학교,전라북도 익산시 평동로7길 30,35.934545,126.9481678
1765,익산고등학교,전라북도 익산시 금마면 고도길 85,,
1766,인상고등학교,전라북도 정읍시 신태인읍 벽골제로 34,,
1767,인월고등학교,전라북도 남원시 인월면 인월장터로 48,,
1768,임실고등학교,전라북도 임실군 임실읍 봉황로 257,,
1769,장수고등학교,전라북도 장수군 장수읍 장천로 254-16,,
1770,전라고등학교,전라북도 전주시 덕진구 솔내7길 25,35.8597311,127.1238211
1771,전북과학고등학교,전라북도 익산시 금마면 용순신기길 48-69,,
1772,전북기계공업고등학교,전라북도 익산시 인북로32길 41,,
1773,전북대학교사범대학부설고등학교,전라북도 전주시 덕진구 백제대로 567,35.8436596,127.128588
1774,전북여자고등학교,전라북도 전주시 덕진구 여산로 232,35.8639035,127.0783082
1775,전북외국어고등학교,전라북도 군산시 해망로 525,35.9848813,126.6897524
1776,전북유니텍고등학교,전라북도 장수군 장계면 장계7길 3,,
1777,전북제일고등학교,전라북도 익산시 학곤로 19,35.934923100000006,126.94067861163177
1778,전북체육고등학교,전라북도 완주군 소양면 원암로 46,35.8643575,127.2488635
1779,전북하이텍고등학교,전라북도 완주군 삼례읍 삼례역로 41-1,,
1780,전일고등학교,전라북도 전주시 완산구 우전로 249,35.8136966,127.101853
1781,전주고등학교,전라북도 전주시 완산구 권삼득로 2,35.8260972,127.1486542
1782,전주공업고등학교,전라북도 전주시 덕진구 여산로 101,35.8639035,127.0783082
1783,전주근영여자고등학교,전라북도 전주시 완산구 영경1길 11,35.8179641,127.1246811
1784,전주기전여자고등학교,전라북도 전주시 완산구 유연로 133,35.8251094,127.0983825
1785,전주대학교사범대학부설고등학교,전라북도 전주시 완산구 천잠로 313,35.815672,127.0946318
1786,전주상업정보고등학교,전라북도 전주시 완산구 따박골2길 21,35.8115046,127.1246532
1787,전주생명과학고등학교,전라북도 전주시 덕진구 안덕원로 195,35.8364472,127.1528588
1788,전주성심여자고등학교,전라북도 전주시 완산구 경기전길 130,35.8121125,127.1515075
1789,전주솔내고등학교,전라북도 전주시 덕진구 송천중앙로 170,35.85809,127.1209873
1790,전주신흥고등학교,전라북도 전주시 완산구 서원로 399,35.8136874,127.1030443
1791,전주여자고등학교,전라북도 전주시 덕진구 모래내6길 14,35.8369291,127.1453474
1792,전주영생고등학교,전라북도 전주시 완산구 천잠로 333,35.815672,127.0946318
1793,전주예술고등학교,전라북도 완주군 구이면 신전길 120,,
1794,전주제일고등학교,전라북도 전주시 완산구 관선5길 15,35.8226486,127.1567847
1795,전주중앙여자고등학교,전라북도 전주시 덕진구 석소로 25,35.8282507,127.1698603
1796,전주한일고등학교,전라북도 전주시 완산구 백제대로 442,35.8338046,127.1227917
1797,전주해성고등학교,전라북도 전주시 완산구 계룡산길 88,35.7871003,127.1047329
1798,정읍고등학교,전라북도 정읍시 정읍사로 594,35.5149242,126.8473526
1799,정읍여자고등학교,전라북도 정읍시 충정로 56-11,35.5644502,126.8654791
1800,정읍제일고등학교,전라북도 정읍시 충정로 252,35.5644502,126.8654791
1801,정주고등학교,전라북도 정읍시 정주1길 42,,
1802,줄포자동차공업고등학교,전라북도 부안군 줄포면 우포로 10,,
1803,지평선고등학교,전라북도 김제시 성덕면 성동길 183-4,,
1804,진경여자고등학교,전라북도 익산시 황등서로 40-92,36.0011855,126.9360844
1805,진안공업고등학교,전라북도 진안군 진안읍 상역로 96,,
1806,진안제일고등학교,전라북도 진안군 진안읍 대광3길 25-5,,
1807,칠보고등학교,전라북도 정읍시 칠보면 건흥길 26-5,,
1808,태인고등학교,전라북도 정읍시 태인면 석지로 1469,,
1809,푸른꿈고등학교,전라북도 무주군 안성면 진성로 2312-9,,
1810,학산고등학교,전라북도 정읍시 학산로 89,35.5618609,126.8708686
1811,한국게임과학고등학교,전라북도 완주군 운주면 대둔산로 1336,,
1812,한국경마축산고등학교,전라북도 남원시 운봉읍 황산로 952,35.43694,127.52712
1813,한국마사고등학교,전라북도 장수군 장계면 명덕길 14,,
1814,한국전통문화고등학교,전라북도 전주시 완산구 중인1길 68-13,35.7696271,127.098563
1815,한국치즈과학고등학교,전라북도 임실군 강진면 갈담3길 48,,
1816,한국한방고등학교,전라북도 진안군 진안읍 임진로 2765,,
1817,한들고등학교,전라북도 군산시 대야면 만자로 60,,
1818,한별고등학교,전라북도 완주군 삼례읍 충혼안길 20,,
1819,함열고등학교,전라북도 익산시 함열읍 와리3길 19-3,,
1820,함열여자고등학교,전라북도 익산시 익산대로 1852,36.1254286,126.9801354
1821,해리고등학교,전라북도 고창군 해리면 해리중앙로 146,,
1822,호남고등학교,전라북도 정읍시 정읍남로 1364-13,35.4974627,126.7909234
1823,호남제일고등학교,전라북도 전주시 완산구 서원로 53,35.8136874,127.1030443
1824,강진고등학교,전라남도 강진군 강진읍 고성길 15-7,34.6377222,126.7620988
1825,고금고등학교,전라남도 완도군 고금면 고금로684번길 15,,
1826,고흥고등학교,전라남도 고흥군 고흥읍 학교길 23,,
1827,고흥도화고등학교,전라남도 고흥군 도화면 도화로 476,,
1828,고흥산업과학고등학교,전라남도 고흥군 고흥읍 고흥로 1637-13,34.5984203,127.2766394
1829,고흥영주고등학교,전라남도 고흥군 과역면 송학큰길 83,,
1830,곡성고등학교,전라남도 곡성군 곡성읍 학교로 119,,
1831,광남고등학교,전라남도 나주시 남평읍 남평향교길 19,,
1832,광양고등학교,전라남도 광양시 봉강면 매천로 667,,
1833,광양백운고등학교,전라남도 광양시 중마로 250,34.9467335,127.6894799
1834,광양여자고등학교,전라남도 광양시 광양읍 인덕로 1039,34.9631936,127.5791013
1835,광양제철고등학교,전라남도 광양시 마로니에길 61,34.947074549999996,127.7281706934997
1836,광양하이텍고등학교,전라남도 광양시 광양읍 신재로 106,,
1837,광영고등학교,전라남도 광양시 가야로 322,34.9639626,127.7134858
1838,구례고등학교,전라남도 구례군 구례읍 봉성로 15-18,35.2025433,127.4642538
1839,구림공업고등학교,전라남도 영암군 군서면 왕인로 453,,
1840,금성고등학교,전라남도 나주시 건재로 41,35.0395306,126.7168396
1841,나주고등학교,전라남도 나주시 나주천2길 26,35.0309341,126.7181433
1842,나주공업고등학교,전라남도 나주시 건재로 43,35.0395306,126.7168396
1843,나주상업고등학교,전라남도 나주시 함박산길 23-4,35.0393971,126.7219181
1844,남악고등학교,전라남도 무안군 삼향읍 남악4로60번 24,,
1845,노화고등학교,전라남도 완도군 노화읍 노화로 763-36,,
1846,녹동고등학교,전라남도 고흥군 도양읍 비봉뚝길 108,,
1847,능주고등학교,전라남도 화순군 능주면 죽수길 31-2,,
1848,다향고등학교,전라남도 보성군 보성읍 녹차로 1364,34.7618799,127.09296
1849,담양고등학교,전라남도 담양군 담양읍 천변7길 11,35.3144425,126.9823862
1850,담양공업고등학교,전라남도 담양군 담양읍 죽향대로 1072,35.3139484,126.9836876
1851,도초고등학교,전라남도 신안군 도초면 서남문로 1493,,
1852,매성고등학교,전라남도 나주시 교육길 18,,
1853,목상고등학교,전라남도 목포시 소영길 13,,
1854,목포고등학교,전라남도 목포시 산정로224번길 11,,
1855,목포공업고등학교,전라남도 목포시 용당로 100,34.8243166,126.3964176
1856,목포덕인고등학교,전라남도 목포시 죽선로 39-2,34.7998479,126.3753429
1857,목포마리아회고등학교,전라남도 목포시 양을로 229,34.811448,126.3934583
1858,목포성신고등학교,전라남도 목포시 상동로 87-1,,
1859,목포여자고등학교,전라남도 목포시 청호로 34,34.8070181,126.3725037
1860,목포여자상업고등학교,전라남도 목포시 영산로 413-3,34.8120518,126.4181413
1861,목포정명여자고등학교,전라남도 목포시 삼일로 45,34.795855,126.3846733
1862,목포제일여자고등학교,전라남도 목포시 삼향천로 85,,
1863,목포중앙고등학교,전라남도 목포시 지적로 36,,
1864,목포혜인여자고등학교,전라남도 목포시 죽선로 39-2,34.7998479,126.3753429
1865,목포홍일고등학교,전라남도 목포시 북항로 88,34.7976181,126.3804605
1866,무안고등학교,전라남도 무안군 무안읍 성남1길 61-1,34.9870748,126.4766502
1867,문태고등학교,전라남도 목포시 용당로 138,34.8243166,126.3964176
1868,문향고등학교,전라남도 장성군 장성읍 문화로 94,,
1869,백제고등학교,전라남도 무안군 무안읍 무안로 422,34.9870281,126.4772407
1870,벌교고등학교,전라남도 보성군 벌교읍 채동선로 115,34.8366033,127.3425515
1871,벌교상업고등학교,전라남도 보성군 벌교읍 홍암로 61,,
1872,벌교여자고등학교,전라남도 보성군 벌교읍 채동선로 133,34.8366033,127.3425515
1873,법성고등학교,전라남도 영광군 법성면 용덕로 66,35.3598966,126.45776025359078
1874,병영상업고등학교,전라남도 강진군 병영면 하멜로 372,34.7141583,126.8133175
1875,보성고등학교,전라남도 보성군 보성읍 용문길 48,,
1876,봉황고등학교,전라남도 나주시 월정5길 22,35.0076939,126.7893889
1877,부영여자고등학교,전라남도 여수시 안산1길 172-9,34.7523653,127.6519013
1878,삼계고등학교,전라남도 장성군 삼계면 사창로 47,,
1879,삼호고등학교,전라남도 영암군 삼호읍 방아제로 84,34.7480879,126.4722162
1880,성전고등학교,전라남도 강진군 성전면 별뫼로 367-9,34.6901451,126.7032861
1881,송지고등학교,전라남도 해남군 송지면 미야길 158-16,,
1882,순천강남여자고등학교,전라남도 순천시 조례1길 43,,
1883,순천고등학교,전라남도 순천시 우석로 191,34.9455421,127.4880109
1884,순천공업고등학교,전라남도 순천시 유동길 50,34.9607614,127.5163495
1885,순천금당고등학교,전라남도 순천시 기적의도서관1길 34,34.9492816,127.5261803
1886,순천매산고등학교,전라남도 순천시 영동길 58,34.9538983,127.4825971
1887,순천매산여자고등학교,전라남도 순천시 매산길 43,,
1888,순천복성고등학교,전라남도 순천시 해룡면 복성길 17,,
1889,순천여자고등학교,전라남도 순천시 저전길 54,34.9480555,127.4837509
1890,순천전자고등학교,전라남도 순천시 서면 순천로 86,35.1305245,127.4509529
1891,순천제일고등학교,전라남도 순천시 중앙로 491-8,34.9492807,127.4855871
1892,순천청암고등학교,전라남도 순천시 녹색로 1641,34.83826,127.41654
1893,순천팔마고등학교,전라남도 순천시 삼산로 140,34.9762314,127.4973175
1894,순천효산고등학교,전라남도 순천시 삼산로 104,34.9762314,127.4973175
1895,순천효천고등학교,전라남도 순천시 녹색로 1360,34.90379365,127.48539971956902
1896,신안해양과학고등학교,전라남도 신안군 압해읍 구항길 41,,
1897,안좌고등학교,전라남도 신안군 안좌면 중부로 790-7,,
1898,약산고등학교,전라남도 완도군 약산면 약산로 366,34.3944735,126.8873994
1899,여남고등학교,전라남도 여수시 남면 우실해안길 5,,
1900,여수고등학교,전라남도 여수시 공화남3길 10,34.7468357,127.7444438
1901,여수공업고등학교,전라남도 여수시 군자길 75,34.7431796,127.7344154
1902,여수석유화학고등학교,전라남도 여수시 대통1길 45,34.7767792,127.6425985
1903,여수여자고등학교,전라남도 여수시 관문1길 41,34.7410917,127.7463991
1904,여수정보과학고등학교,전라남도 여수시 여문2로 148,34.754599,127.6951585
1905,여수중앙여자고등학교,전라남도 여수시 덕충6길 79,,
1906,여수충무고등학교,전라남도 여수시 미평7길 16,34.7710364,127.7101542
1907,여수해양과학고등학교,전라남도 여수시 돌산읍 돌산로 1201-18,34.6103644,127.7448715
1908,여수화양고등학교,전라남도 여수시 화양면 화동로 203,,
1909,여양고등학교,전라남도 여수시 소라면 덕양로 345,,
1910,여천고등학교,전라남도 여수시 가곡길 63,34.7694861,127.6604622
1911,영광고등학교,전라남도 영광군 영광읍 옥당로 13-22,35.2650312,126.5094915
1912,영광공업고등학교,전라남도 영광군 영광읍 월현로 34,,
1913,영광전자고등학교,전라남도 영광군 염산면 칠산로 98-27,35.22244395,126.37016608361273
1914,영산고등학교,전라남도 나주시 영강길 32,,
1915,영산성지고등학교,전라남도 영광군 백수읍 성지로 1218-6,,
1916,영암고등학교,전라남도 영암군 영암읍 영암초중고길 40,,
1917,영암낭주고등학교,전라남도 영암군 학산면 영산로 76-35,,
1918,영암여자고등학교,전라남도 영암군 영암읍 여중고길 12,,
1919,영암전자과학고등학교,전라남도 영암군 신북면 황금동로 16-13,,
1920,영흥고등학교,전라남도 목포시 삼각로43번길 9,,
1921,예당고등학교,전라남도 보성군 득량면 예당길 155-12,,
1922,옥과고등학교,전라남도 곡성군 옥과면 대학로 99,,
1923,완도고등학교,전라남도 완도군 완도읍 개포로135번길 55,,
1924,완도금일고등학교,전라남도 완도군 금일읍 금일로 420,,
1925,완도수산고등학교,전라남도 완도군 완도읍 장보고대로 141,,
1926,임자고등학교,전라남도 신안군 임자면 임자로 230-9,35.0847431,126.080322
1927,장성고등학교,전라남도 장성군 장성읍 영천월산길 63,,
1928,장성하이텍고등학교,전라남도 장성군 장성읍 단풍로 72,35.3417758,126.8159039
1929,장흥고등학교,전라남도 장흥군 장흥읍 학사길 13,,
1930,장흥관산고등학교,전라남도 장흥군 관산읍 당월길 9,,
1931,전남과학고등학교,전라남도 나주시 금천면 오강길 33,35.032531,126.7545887
1932,전남기술과학고등학교,전라남도 화순군 화순읍 실고길 44,,
1933,전남미용고등학교,전라남도 나주시 영산포로 182-9,34.9868756,126.7046787
1934,전남보건고등학교,전라남도 함평군 월야면 문화로 685-18,35.1861178,126.6268431
1935,전남생명과학고등학교,전라남도 강진군 강진읍 교촌길 23,,
1936,전남예술고등학교,전라남도 무안군 삼향읍 삼향중앙로 31,,
1937,전남외국어고등학교,전라남도 나주시 영나로 2434,34.9649352,126.7313002
1938,전남자연과학고등학교,전라남도 구례군 구례읍 구례로 409,35.2024792,127.4646098
1939,전남조리과학고등학교,전라남도 곡성군 곡성읍 학교로 71,,
1940,전남체육고등학교,전라남도 무안군 일로읍 일로로 126,,
1941,정남진산업고등학교,전라남도 장흥군 장흥읍 행원강변길,34.6924696,126.8939969
1942,조도고등학교,전라남도 진도군 조도면 명지길 64,,
1943,중마고등학교,전라남도 광양시 등논4길 40,34.9525716,127.6968279
1944,지명고등학교,전라남도 신안군 지도읍 해제지도로 1362,,
1945,진도고등학교,전라남도 진도군 진도읍 동외4길 117-5,,
1946,진도국악고등학교,전라남도 진도군 임회면 석교길 20-4,,
1947,진도실업고등학교,전라남도 진도군 진도읍 교동3길 10,,
1948,진성여자고등학교,전라남도 여수시 봉강서4길 3,,
1949,창평고등학교,전라남도 담양군 창평면 창평로 582,,
1950,하의고등학교,전라남도 신안군 하의면 곰실길 11-8,34.60591605,126.03714356209386
1951,한국말산업고등학교,전라남도 장흥군 대덕읍 도청신월로 155,34.4905218,126.8851194
1952,한국바둑고등학교,전라남도 순천시 주암면 조달진로 27,,
1953,한국창의예술고등학교,전라남도 광양시 중마로 404,34.9467335,127.6894799
1954,한국항만물류고등학교,전라남도 광양시 진상면 신시길 177,,
1955,한빛고등학교,전라남도 담양군 대전면 추성1로 501-21,35.2776355,126.8897272
1956,한영고등학교,전라남도 여수시 장군산길 18-43,34.7564452,127.7145339
1957,한울고등학교,전라남도 곡성군 목사동면 주목로 713,35.1098557,127.2986374
1958,함평고등학교,전라남도 함평군 함평읍 함영로 1584-28,,
1959,함평골프고등학교,전라남도 함평군 학교면 학교길 77,,
1960,함평학다리고등학교,전라남도 함평군 함평읍 영수길 55,,
1961,해남고등학교,전라남도 해남군 해남읍 명문길 7,,
1962,해남공업고등학교,전라남도 해남군 해남읍 남외2길 7,,
1963,해룡고등학교,전라남도 영광군 영광읍 중앙로 120,35.2688993,126.51261319775303
1964,호남원예고등학교,전라남도 나주시 금천면 영산로 5691,35.0353603,126.7565508
1965,화순고등학교,전라남도 화순군 화순읍 진각로 31-9,,
1966,화순이양고등학교,전라남도 화순군 이양면 이양로 100-35,,
1967,화원고등학교,전라남도 해남군 화원면 신평리길 25-19,,
1968,가은고등학교,경상북도 문경시 가은읍 가은로 205,,
1969,강구정보고등학교,경상북도 영덕군 강구면 신강구1길 45-5,,
1970,경구고등학교,경상북도 구미시 봉곡로9길 25,36.1463128,128.3096003
1971,경북간호고등학교,경상북도 포항시 북구 죽장면 일광길 2,,
1972,경북과학고등학교,경상북도 포항시 북구 우미길 93,,
1973,경북과학기술고등학교,경상북도 김천시 아포읍 아포대로 1053,36.159111249999995,128.2437454222752
1974,경북기계금속고등학교,경상북도 경산시 자인면 일연로 93,35.8208168,128.8198909067521
1975,경북기계명장고등학교,경상북도 칠곡군 지천면 신동로 99,35.9568773,128.4866174
1976,경북드론고등학교,경상북도 청도군 풍각면 헐티로 185,35.640866349999996,128.6205334174639
1977,경북생활과학고등학교,경상북도 구미시 해평면 강동로 1654,,
1978,경북세무고등학교,경상북도 포항시 북구 기계면 기계로 218,36.077192100000005,129.19592460466055
1979,경북식품과학마이스터고등학교,경상북도 영천시 신녕면 찰방길 8,36.0432416,128.78095275868654
1980,경북외국어고등학교,경상북도 구미시 금오산로 198-10,36.1311418,128.3402778
1981,경북일고등학교,경상북도 예천군 호명면 행복로 193,,
1982,경북조리과학고등학교,경상북도 문경시 문경읍 향교길 20,,
1983,경북체육고등학교,경상북도 경산시 경안로 43,35.8209687,128.7378937
1984,경북하이텍고등학교,경상북도 안동시 경동로 404,36.5493995,128.7853685
1985,경북항공고등학교,경상북도 영주시 풍기읍 금계로 90,,
1986,경산고등학교,경상북도 경산시 원효로 89,35.814774,128.8227486
1987,경산과학고등학교,경상북도 경산시 화랑로 66,35.8284102,128.7644938
1988,경산여자고등학교,경상북도 경산시 경산로 91,35.8241812,128.7266887
1989,경산여자상업고등학교,경상북도 경산시 자인면 원효로 851-16,35.8149729,128.8189081
1990,경안고등학교,경상북도 안동시 제비원로 182,36.5583612,128.7209195
1991,경안여자고등학교,경상북도 안동시 경동로 205-34,36.5493995,128.7853685
1992,경일고등학교,경상북도 안동시 치이골길 46,,
1993,경주고등학교,경상북도 경주시 원효로 231,35.84285185,129.22584585721097
1994,경주공업고등학교,경상북도 경주시 금성로 209,35.83596405,129.20600945744465
1995,경주디자인고등학교,경상북도 경주시 현곡면 용담로 694,35.9000222,129.16294947989007
1996,경주여자고등학교,경상북도 경주시 금성로 437,35.8577814,129.2057155531637
1997,경주여자정보고등학교,경상북도 경주시 시동로 90,35.772961800000004,129.29048180620873
1998,경주정보고등학교,경상북도 경주시 충효7길 19,,
1999,경주화랑고등학교,경상북도 경주시 양북면 장항재동길 41,,
2000,계림고등학교,경상북도 경주시 용담로 122,35.8659888,129.20858472432133
2001,고령고등학교,경상북도 고령군 고령읍 우륵로 63,,
2002,구미고등학교,경상북도 구미시 문장로 42,36.1440457,128.3313772
2003,구미산동고등학교,경상북도 구미시 산동면 신당인덕2로 11,,
2004,구미여자고등학교,경상북도 구미시 문장로 114,36.1440457,128.3313772
2005,구미여자상업고등학교,경상북도 구미시 형곡로38길 9-14,36.1078163,128.3414085
2006,구미전자공업고등학교,경상북도 구미시 임수로 48,36.11096,128.40313
2007,구미정보고등학교,경상북도 구미시 검성로 143,36.1173673,128.4256191
2008,군위고등학교,경상북도 군위군 군위읍 군청로 254-6,36.230825,128.5695805
2009,근화여자고등학교,경상북도 경주시 승삼2길 55,35.8714782,129.22680493948718
2010,금성고등학교,경상북도 의성군 금성면 금성현서로 41-66,36.24203,128.79334
2011,금오고등학교,경상북도 구미시 박정희로25길 15,36.109057,128.3545213
2012,금오공업고등학교,경상북도 구미시 구미대로30길 59,36.1173617,128.3656666
2013,금오여자고등학교,경상북도 구미시 선산대로 129,36.2633861,128.3156289
2014,금천고등학교,경상북도 청도군 금천면 선암로 574-11,35.6883622,128.8945872
2015,금호공업고등학교,경상북도 영천시 금호읍 교대길 8-18,35.9323178,128.87346322183282
2016,길원여자고등학교,경상북도 안동시 퇴계로 250,36.5590321,128.7265193
2017,김천고등학교,경상북도 김천시 송설로 90,36.1239447,128.0944889
2018,김천생명과학고등학교,경상북도 김천시 부거리길 310,36.1335245,128.1064907
2019,김천여자고등학교,경상북도 김천시 모암사랑10길 9,36.1260936,128.1237215
2020,김천예술고등학교,경상북도 김천시 한일길 11-30,36.135012,128.0969458
2021,김천중앙고등학교,경상북도 김천시 남김천대로 3363,36.0941553,128.1171923
2022,대가야고등학교,경상북도 고령군 대가야읍 가야금길 36,,
2023,대구가톨릭대학교사범대학부속무학고등학교,경상북도 경산시 하양읍 금송로 71-11,35.9443602,128.8354779
2024,대동고등학교,경상북도 포항시 북구 우창서길 34,36.05836725,129.35749196254432
2025,대영고등학교,경상북도 영주시 구성로150번길 45,,
2026,대창고등학교,경상북도 예천군 예천읍 대창학교길 33,,
2027,도개고등학교,경상북도 구미시 도개면 도안로 120,,
2028,동명고등학교,경상북도 칠곡군 동명면 백송로 797,,
2029,동지고등학교,경상북도 포항시 북구 용흥로 123,36.037453549999995,129.3445965319758
2030,동지여자고등학교,경상북도 포항시 북구 용흥로 123,36.037453549999995,129.3445965319758
2031,두호고등학교,경상북도 포항시 북구 학전로111번길 21,36.0626799,129.3733831437683
2032,명인고등학교,경상북도 성주군 선남면 도성2길 4,,
2033,모계고등학교,경상북도 청도군 화양읍 청화로 67,35.6492826,128.73562836484524
2034,무산고등학교,경상북도 경주시 건천읍 천포방내길 18,35.84490565,129.0977405965864
2035,문경공업고등학교,경상북도 문경시 영신로 65,36.5945205,128.200781
2036,문경여자고등학교,경상북도 문경시 여고길 40,36.5928318,128.193271
2037,문명고등학교,경상북도 경산시 경청로230길 30,,
2038,문창고등학교,경상북도 문경시 돈달로 145,36.5997438,128.1974744
2039,문화고등학교,경상북도 경주시 충현로 98,35.8533377,129.16836159105418
2040,봉양정보고등학교,경상북도 의성군 봉양면 봉호로 14,,
2041,봉화고등학교,경상북도 봉화군 봉화읍 내성로 138,,
2042,북삼고등학교,경상북도 칠곡군 북삼읍 북삼로2길 130,,
2043,사곡고등학교,경상북도 구미시 박정희로 195,36.1209617,128.3496538
2044,사동고등학교,경상북도 경산시 삼성현로91길 36,,
2045,삼성생활예술고등학교,경상북도 경주시 내남면 이조중앙길 27,,
2046,상모고등학교,경상북도 구미시 박정희로 60-22,36.1209617,128.3496538
2047,상산전자고등학교,경상북도 상주시 상산로 430,36.4163786,128.159251
2048,상주고등학교,경상북도 상주시 상산로 117,36.4163786,128.159251
2049,상주공업고등학교,경상북도 상주시 낙양1길 29,,
2050,상주여자고등학교,경상북도 상주시 삼백로 315,36.4189029,128.1669416
2051,상지여자상업고등학교,경상북도 상주시 함창읍 함창중앙로 176,,
2052,석적고등학교,경상북도 칠곡군 석적읍 동중리 1길 65-20,,
2053,선덕여자고등학교,경상북도 경주시 양정로 20-11,35.838323700000004,129.22375154799198
2054,선산고등학교,경상북도 구미시 선산읍 단계서4길 18,,
2055,선영여자고등학교,경상북도 영주시 영봉로 28,36.80582,128.67093
2056,선주고등학교,경상북도 구미시 야은로13길 13,36.1412647,128.3124115
2057,선화여자고등학교,경상북도 영천시 상아탑길 36,,
2058,성의고등학교,경상북도 김천시 성의길 38,,
2059,성의여자고등학교,경상북도 김천시 평화순환길 250-11,,
2060,성주고등학교,경상북도 성주군 성주읍 성주고교길 79,,
2061,성주여자고등학교,경상북도 성주군 성주읍 성주여중고길 19,,
2062,성창여자고등학교,경상북도 안동시 석수길 53,36.57932,128.71434
2063,성희여자고등학교,경상북도 안동시 강남로 246,36.552943,128.7284147
2064,세명고등학교,경상북도 포항시 남구 새천년대로474번길 13,,
2065,세화고등학교,경상북도 포항시 북구 아치로 94,36.05379245,129.35224162840473
2066,수비고등학교,경상북도 영양군 수비면 낙동정맥로 2417,36.78807,129.22654
2067,순심고등학교,경상북도 칠곡군 왜관읍 평장2길 6,,
2068,순심여자고등학교,경상북도 칠곡군 왜관읍 남부1길 22,,
2069,신라고등학교,경상북도 경주시 태종로 526,35.8400501,129.18780311775532
2070,신라공업고등학교,경상북도 경주시 천북면 천북로 41-21,35.892926,129.2424666674874
2071,안강여자고등학교,경상북도 경주시 안강읍 화전길 62-8,,
2072,안강전자고등학교,경상북도 경주시 안강읍 안강중앙로 269,35.99195305,129.23007928761538
2073,안계고등학교,경상북도 의성군 안계면 용기9길 9,,
2074,안동고등학교,경상북도 안동시 강남로 550,36.543788899999996,128.75923653808945
2075,안동여자고등학교,경상북도 안동시 법상윗3길 32,,
2076,안동중앙고등학교,경상북도 안동시 서악길 45,36.5604891,128.70887081366837
2077,약목고등학교,경상북도 칠곡군 약목면 무림1길 6-26,,
2078,영광고등학교,경상북도 영주시 의상로 62,36.90351,128.6525
2079,영광여자고등학교,경상북도 영주시 숫골길23번길 39,,
2080,영남삼육고등학교,경상북도 경산시 남산면 서원길 58-31,35.788382,128.82886
2081,영덕고등학교,경상북도 영덕군 영덕읍 군청1길 13,,
2082,영덕여자고등학교,경상북도 영덕군 영덕읍 영덕로 206,36.4131963,129.3755919
2083,영동고등학교,경상북도 영천시 안야사길 13,,
2084,영문고등학교,경상북도 안동시 뒨지게길 85,,
2085,영양고등학교,경상북도 영양군 영양읍 중앙로 81,,
2086,영양여자고등학교,경상북도 영양군 영양읍 영양창수로 141,36.6487001,129.1586963
2087,영일고등학교,경상북도 포항시 남구 연일읍 동문로 56,35.995529149999996,129.35335899361888
2088,영주고등학교,경상북도 영주시 이산로 31,36.8485561,128.7207328
2089,영주동산고등학교,경상북도 영주시 영봉로 49,36.80582,128.67093
2090,영주여자고등학교,경상북도 영주시 명륜길 58,36.8300175,128.6294834337653
2091,영주제일고등학교,경상북도 영주시 신재로 36,36.83016,128.60607
2092,영천고등학교,경상북도 영천시 영천고2길 12,,
2093,영천성남여자고등학교,경상북도 영천시 남촌길 17,,
2094,영천여자고등학교,경상북도 영천시 최무선로 180,35.9629868,128.9209424
2095,영천전자고등학교,경상북도 영천시 화남면 천문로 1709,36.07561,128.90665
2096,영해고등학교,경상북도 영덕군 영해면 예주길 135,36.5424177,129.4135868
2097,예천여자고등학교,경상북도 예천군 예천읍 효자로 205,,
2098,오상고등학교,경상북도 구미시 장천면 강동로 164,,
2099,오천고등학교,경상북도 포항시 남구 오천읍 해병로 293,35.96906605,129.41313923437667
2100,용운고등학교,경상북도 상주시 공성면 문화마을길 23,,
2101,우석여자고등학교,경상북도 상주시 북천로 117,,
2102,울릉고등학교,경상북도 울릉군 울릉읍 울릉순환로 236,37.4957567,130.9095065
2103,울진고등학교,경상북도 울진군 울진읍 연지길 7,,
2104,유성여자고등학교,경상북도 포항시 북구 우창로 43,36.05731195,129.36053736711375
2105,율곡고등학교,경상북도 김천시 용전4로3길 15,36.1241782,128.1922871
2106,의성고등학교,경상북도 의성군 의성읍 군청길 57,,
2107,의성공업고등학교,경상북도 의성군 의성읍 문소1길 164,,
2108,의성여자고등학교,경상북도 의성군 의성읍 북원3길 35,,
2109,이서고등학교,경상북도 청도군 이서면 학산1길 22,,
2110,인동고등학교,경상북도 구미시 인동36길 45,36.0925685,128.432058
2111,점촌고등학교,경상북도 문경시 점고길 50,36.5946564,128.185994
2112,죽변고등학교,경상북도 울진군 죽변면 죽변4길 19,,
2113,중모고등학교,경상북도 상주시 모동면 덕곡1길 13,,
2114,진량고등학교,경상북도 경산시 진량읍 대학로 1051,35.87656,128.81028973689172
2115,진보고등학교,경상북도 청송군 진보면 진성로 25,36.53279105,129.04151391210343
2116,청도고등학교,경상북도 청도군 청도읍 청화로 219-21,35.6408537,128.7481372956677
2117,청송고등학교,경상북도 청송군 청송읍 금곡1길 13,36.429613450000005,129.05790951984747
2118,청송여자고등학교,경상북도 청송군 청송읍 군청로 69,36.43594065,129.0589512593508
2119,청송자동차고등학교,경상북도 청송군 부남면 대전로 66,36.341369400000005,129.05992678893827
2120,평해정보고등학교,경상북도 울진군 평해읍 평해7길 61-3,36.72904165,129.4436519502076
2121,포은고등학교,경상북도 영천시 금호읍 성천앞길 112-53,,
2122,포항고등학교,경상북도 포항시 북구 아호로 50,36.056263799999996,129.37145286843554
2123,포항과학기술고등학교,경상북도 포항시 남구 구룡포읍 호미로 341,35.99144465,129.5661678934757
2124,포항동성고등학교,경상북도 포항시 남구 동해면 일월로41번길 26,,
2125,포항여자고등학교,경상북도 포항시 북구 장미길 10,36.05041335,129.36483676114193
2126,포항여자전자고등학교,경상북도 포항시 북구 용흥로291번길 19,36.0498841,129.34920094175854
2127,포항영신고등학교,경상북도 포항시 북구 소티재로 107,36.06148935,129.3506315574162
2128,포항예술고등학교,경상북도 포항시 북구 흥해읍 연화길 56,36.05184735,129.3149976147198
2129,포항이동고등학교,경상북도 포항시 남구 희망대로 412,36.029609199999996,129.33403669132917
2130,포항장성고등학교,경상북도 포항시 북구 법원로 117,36.0859611,129.38494164423815
2131,포항제철고등학교,경상북도 포항시 남구 지곡로212번길 40,36.028891200000004,129.32761520047268
2132,포항제철공업고등학교,경상북도 포항시 남구 지곡로 150,36.0220367,129.32687409554603
2133,포항중앙고등학교,경상북도 포항시 북구 소티재로151번길 11,,
2134,포항중앙여자고등학교,경상북도 포항시 북구 소티재로151번길 7,,
2135,포항해양과학고등학교,경상북도 포항시 북구 여남포길21번길 18,,
2136,포항흥해공업고등학교,경상북도 포항시 북구 흥해읍 동해대로1475번길 42,,
2137,풍산고등학교,경상북도 안동시 풍산읍 풍산중앙길 39,,
2138,하양여자고등학교,경상북도 경산시 하양읍 지식산업로8길 21,,
2139,한국국제통상마이스터고등학교,경상북도 경주시 감포읍 감포로12길 20,,
2140,한국산림과학고등학교,경상북도 봉화군 춘양면 서원촌길 8-14,,
2141,한국생명과학고등학교,경상북도 안동시 하이마로 385,36.5577396,128.6850098
2142,한국원자력마이스터고등학교,경상북도 울진군 평해읍 월송정로 422,36.7213881,129.442263
2143,한국펫고등학교,경상북도 봉화군 봉화읍 내성천1길 18,,
2144,한일여자고등학교,경상북도 김천시 한일길 11-30,36.135012,128.0969458
2145,함창고등학교,경상북도 상주시 함창읍 함창중앙로 85,,
2146,현서고등학교,경상북도 청송군 현서면 구덕길 74,36.2805362,128.8981279
2147,현일고등학교,경상북도 구미시 고아읍 선산대로 656,,
2148,형곡고등학교,경상북도 구미시 형곡동로2길 12-13,36.1031963,128.3368049
2149,화령고등학교,경상북도 상주시 화서면 중화로 2187,,
2150,효령고등학교,경상북도 군위군 효령면 중리길 6-25,,
2151,효청보건고등학교,경상북도 경주시 외동읍 모화남1길 26-132,,
2152,후포고등학교,경상북도 울진군 후포면 후포로 41,36.67979065,129.4460084563537
2153,간디고등학교,경상남도 산청군 신안면 둔철산로 210,,
2154,거제고등학교,경상남도 거제시 아주로3길 61,34.861784549999996,128.68862628778606
2155,거제공업고등학교,경상남도 거제시 계룡로11길 63,34.882184300000006,128.61462783914334
2156,거제상문고등학교,경상남도 거제시 수양로 29,34.894444050000004,128.64280935767385
2157,거제여자상업고등학교,경상남도 거제시 거제면 동상3길 21,34.8520252,128.5954353962196
2158,거제옥포고등학교,경상남도 거제시 연초면 국산로 27,34.905333299999995,128.6867242064443
2159,거제제일고등학교,경상남도 거제시 거제면 읍내로13길 22-5,34.852175700000004,128.5872007
2160,거제중앙고등학교,경상남도 거제시 중곡로2길 61,34.8931738,128.63642004766248
2161,거창고등학교,경상남도 거창군 거창읍 죽전4길 36,35.6923993,127.9114829205458
2162,거창공업고등학교,경상남도 거창군 가조면 마상3길 33-20,,
2163,거창대성고등학교,경상남도 거창군 거창읍 거열로 81,35.68999975,127.90322794637471
2164,거창여자고등학교,경상남도 거창군 거창읍 죽전1길 72,35.6918898,127.9087367
2165,거창중앙고등학교,경상남도 거창군 거창읍 성산길 36,35.6913932,127.8969435
2166,경남간호고등학교,경상남도 산청군 생비량면 지리산대로4763번길 89-15,,
2167,경남과학고등학교,경상남도 진주시 진성면 진의로 178-22,,
2168,경남관광고등학교,경상남도 창원시 의창구 사림로29번길 12,35.2474682,128.673956
2169,경남로봇고등학교,경상남도 함안군 대산면 대산중앙로 102-2,35.3427932,128.4462993
2170,경남산업고등학교,경상남도 거제시 하청면 서리1길 17,,
2171,경남예술고등학교,경상남도 진주시 진산로322번길 11-7,35.2155977,128.1067397
2172,경남외국어고등학교,경상남도 양산시 어실로 388,35.4139053,128.992733
2173,경남자동차고등학교,경상남도 진주시 진산로 378,35.202626,128.1027724
2174,경남자영고등학교,경상남도 사천시 정동면 옥산로 143,,
2175,경남정보고등학교,경상남도 진주시 가호방아길 32,,
2176,경남체육고등학교,경상남도 진주시 진성면 진의로 178-27,,
2177,경남항공고등학교,경상남도 고성군 고성읍 송학고분로 127,,
2178,경남해양과학고등학교,경상남도 남해군 삼동면 동부대로 1810,,
2179,경상고등학교,경상남도 창원시 의창구 금강로379번길 46,,
2180,경상대학교사범대학부설고등학교,경상남도 진주시 가좌길29번길,,
2181,경진고등학교,경상남도 진주시 의병로71번길 3-21,,
2182,경해여자고등학교,경상남도 진주시 남강로 39,35.1744706,128.0700428
2183,고성고등학교,경상남도 고성군 회화면 배둔서길 42-5,,
2184,고성중앙고등학교,경상남도 고성군 고성읍 남포로 45,,
2185,곤양고등학교,경상남도 사천시 곤양면 솥골길 120,,
2186,공군항공과학고등학교,경상남도 진주시 금산면 송백로 46,,
2187,구산고등학교,경상남도 김해시 가야로 311,35.2488847,128.8755561
2188,군북고등학교,경상남도 함안군 군북면 사군로 1558,35.2595865,128.34349995468315
2189,금남고등학교,경상남도 하동군 금남면 섬진강대로 656-8,34.98368,127.84009
2190,김해가야고등학교,경상남도 김해시 경원로 98,35.237107,128.8661612
2191,김해건설공업고등학교,경상남도 김해시 구지로 109,35.242347,128.8647521
2192,김해경원고등학교,경상남도 김해시 우암로 18,35.2389238,128.8630346
2193,김해고등학교,경상남도 김해시 활천로24번길 29,,
2194,김해대청고등학교,경상남도 김해시 번화1로 7,35.1958146,128.7988363
2195,김해분성고등학교,경상남도 김해시 가야로147번길 29,35.2646248,128.8735752
2196,김해분성여자고등학교,경상남도 김해시 삼계로 171,35.2621673,128.8758973
2197,김해삼문고등학교,경상남도 김해시 번화1로 127,35.1958146,128.7988363
2198,김해삼방고등학교,경상남도 김해시 신어산길 17,35.2591289,128.9065867
2199,김해생명과학고등학교,경상남도 김해시 금관대로 1239,35.2431764,128.8656356
2200,김해수남고등학교,경상남도 김해시 율하로 381,35.170614,128.8081818
2201,김해여자고등학교,경상남도 김해시 가락로 150,35.2348946,128.8812928
2202,김해영운고등학교,경상남도 김해시 인제로284번길 33,35.2536558,128.906288
2203,김해외국어고등학교,경상남도 김해시 율하로 266,35.170614,128.8081818
2204,김해율하고등학교,경상남도 김해시 율하1로 21,35.174634,128.8130604
2205,김해임호고등학교,경상남도 김해시 분성로3번길 77,35.2402066,128.8554112
2206,김해제일고등학교,경상남도 김해시 분성로3번길 105,35.2402066,128.8554112
2207,김해중앙여자고등학교,경상남도 김해시 분성로376번길 21-22,,
2208,김해한일여자고등학교,경상남도 김해시 삼안로112번길 1,,
2209,남지고등학교,경상남도 창녕군 남지읍 남고길 11,,
2210,남해고등학교,경상남도 남해군 이동면 무림로 46-2,,
2211,남해정보산업고등학교,경상남도 남해군 고현면 탑동로 46,34.8931377,127.8762277
2212,남해제일고등학교,경상남도 남해군 남해읍 남해대로 2800-11,,
2213,남해해성고등학교,경상남도 남해군 남면 남면로1835번길 8-4,,
2214,단성고등학교,경상남도 산청군 단성면 강누방목로 2,,
2215,대곡고등학교,경상남도 진주시 대곡면 남강로2438번길 39,,
2216,대성일고등학교,경상남도 거창군 거창읍 거열로7길 57,35.6895558,127.9021878
2217,대아고등학교,경상남도 진주시 서장대로185번길 14,,
2218,덕산고등학교,경상남도 산청군 시천면 남명로159번길 1,,
2219,동원고등학교,경상남도 통영시 광도면 용호로 12-29,,
2220,마산가포고등학교,경상남도 창원시 마산합포구 가포로 262,,
2221,마산고등학교,경상남도 창원시 마산합포구 심온길 33,,
2222,마산공업고등학교,경상남도 창원시 마산회원구 학교단지로 53,,
2223,마산구암고등학교,경상남도 창원시 마산회원구 팔용로 220,35.2459481,128.5937779
2224,마산내서여자고등학교,경상남도 창원시 마산회원구 내서읍 삼풍로 133,,
2225,마산무학여자고등학교,경상남도 창원시 마산회원구 회원동33길 17,,
2226,마산삼진고등학교,경상남도 창원시 마산합포구 진동면 삼진의거대로 661-13,,
2227,마산여자고등학교,경상남도 창원시 마산합포구 고운로 157,,
2228,마산용마고등학교,경상남도 창원시 마산합포구 허당로 51,,
2229,마산제일고등학교,경상남도 창원시 마산회원구 내서읍 함마대로 2610,35.2523292,128.5119734
2230,마산제일여자고등학교,경상남도 창원시 마산합포구 고운로 65,,
2231,마산중앙고등학교,경상남도 창원시 마산합포구 고운로 103,,
2232,명덕고등학교,경상남도 함안군 가야읍 고분길 107,,
2233,명신고등학교,경상남도 진주시 대신로 614,35.1985441,128.1164429
2234,물금고등학교,경상남도 양산시 물금읍 신주1길 20,,
2235,밀성고등학교,경상남도 밀양시 석정로 127,,
2236,밀성제일고등학교,경상남도 밀양시 밀양대로 2078,35.3980506,128.7506317
2237,밀양고등학교,경상남도 밀양시 약산로 15,35.4916291,128.748302
2238,밀양동명고등학교,경상남도 밀양시 하남읍 동명길 14,,
2239,밀양여자고등학교,경상남도 밀양시 내일중앙길 10,35.4949202,128.7537909
2240,범어고등학교,경상남도 양산시 물금읍 신주로 88,,
2241,보광고등학교,경상남도 양산시 하북면 신평로 46,,
2242,사천고등학교,경상남도 사천시 사천읍 동문로 95,,
2243,사천여자고등학교,경상남도 사천시 사천읍 옥산로 47,,
2244,산청고등학교,경상남도 산청군 산청읍 웅석봉로86번길 9-12,,
2245,삼가고등학교,경상남도 합천군 삼가면 봉두길 5,,
2246,삼랑진고등학교,경상남도 밀양시 삼랑진읍 만어로 16,35.427278,128.8434196
2247,삼천포고등학교,경상남도 사천시 벌리6길 77,34.942371449999996,128.08479519017055
2248,삼천포공업고등학교,경상남도 사천시 신항로 63,34.9339262,128.08441364748754
2249,삼천포여자고등학교,경상남도 사천시 삼상로 19,34.93461915,128.0781749667483
2250,삼천포중앙고등학교,경상남도 사천시 삼상로 145,34.9397261,128.08977607580573
2251,삼현여자고등학교,경상남도 진주시 돗골로 95,35.177588,128.1124131
2252,서상고등학교,경상남도 함양군 서상면 서상로 232-1,35.6935253,127.686414
2253,서창고등학교,경상남도 양산시 삼호동부로 125,35.4138834,129.1739906894112
2254,선명여자고등학교,경상남도 진주시 남강로 51-25,35.1744706,128.0700428
2255,성지여자고등학교,경상남도 창원시 마산합포구 완월남로 20,,
2256,세종고등학교,경상남도 밀양시 가곡8길 28,,
2257,신등고등학교,경상남도 산청군 신등면 신등가회로 125,,
2258,신반정보고등학교,경상남도 의령군 부림면 한지28길 8,,
2259,아림고등학교,경상남도 거창군 거창읍 정장길 19,35.67720785,127.91304451660983
2260,안의고등학교,경상남도 함양군 안의면 안의배움길 30,,
2261,야로고등학교,경상남도 합천군 야로면 역산길 13,,
2262,양산고등학교,경상남도 양산시 호국학도병길 2,35.348109,129.043565
2263,양산남부고등학교,경상남도 양산시 양주로 7,35.3337902,129.0316936
2264,양산여자고등학교,경상남도 양산시 교동1길 21,,
2265,양산제일고등학교,경상남도 양산시 회현1길 36,,
2266,연초고등학교,경상남도 거제시 연초면 연사1길 40,34.91359585,128.6473329095681
2267,영산고등학교,경상남도 창녕군 영산면 영산새싹길 13,,
2268,옥종고등학교,경상남도 하동군 옥종면 옥수로 4-9,,
2269,용남고등학교,경상남도 사천시 용현면 선진길 24,,
2270,웅상고등학교,경상남도 양산시 배움터길 36,,
2271,웅천고등학교,경상남도 창원시 진해구 웅천중로 71,35.1105732,128.7510079
2272,원경고등학교,경상남도 합천군 적중면 황정1길 37,,
2273,의령고등학교,경상남도 의령군 의령읍 백산로3길 4,,
2274,의령여자고등학교,경상남도 의령군 가례면 의병로 67,,
2275,장유고등학교,경상남도 김해시 월산로 77,35.2004316,128.8091525
2276,지리산고등학교,경상남도 산청군 단성면 덕천로 772,,
2277,진교고등학교,경상남도 하동군 진교면 민다리길 179,,
2278,진서고등학교,경상남도 진주시 수곡면 옥수로 625,,
2279,진양고등학교,경상남도 진주시 충의로100번길 12,,
2280,진영고등학교,경상남도 김해시 진영읍 여래로20번길 35,,
2281,진영제일고등학교,경상남도 김해시 진영읍 진영로265번길 9-4,,
2282,진주고등학교,경상남도 진주시 의곡길 29,,
2283,진주기계공업고등학교,경상남도 진주시 공단로43번길 25,35.1772138,128.1045438
2284,진주동명고등학교,경상남도 진주시 대신로 454-25,35.1985441,128.1164429
2285,진주여자고등학교,경상남도 진주시 창렬로 185,35.1988348,128.0732595
2286,진주외국어고등학교,경상남도 진주시 일반성면 동부로 2014-6,35.18179,128.2602
2287,진주제일여자고등학교,경상남도 진주시 하대로34번길 11-9,,
2288,진주중앙고등학교,경상남도 진주시 하대로 59,35.1931953,128.1219229
2289,진해고등학교,경상남도 창원시 진해구 여좌로 100,35.1615405,128.6629282
2290,진해세화여자고등학교,경상남도 창원시 진해구 병암북로4번길 41,35.1606657,128.6919326
2291,진해여자고등학교,경상남도 창원시 진해구 여좌남로 23,35.1543197,128.6591492
2292,진해용원고등학교,경상남도 창원시 진해구 용재로77번길 8,35.1007844,128.81815
2293,진해중앙고등학교,경상남도 창원시 진해구 병암북로 9,35.1603312,128.6906975
2294,창녕고등학교,경상남도 창녕군 대지면 우포2로 1180-20,,
2295,창녕공업고등학교,경상남도 창녕군 고암면 창밀로 286,35.57412,128.51083
2296,창녕대성고등학교,경상남도 창녕군 대합면 신안길 17,,
2297,창녕슈퍼텍고등학교,경상남도 창녕군 창녕읍 남창녕로 36,,
2298,창녕여자고등학교,경상남도 창녕군 창녕읍 신당길 30,,
2299,창녕옥야고등학교,경상남도 창녕군 이방면 이방로 943-15,,
2300,창선고등학교,경상남도 남해군 창선면 창선로 97-12,,
2301,창신고등학교,경상남도 창원시 마산회원구 봉덕2길 106,,
2302,창원경일고등학교,경상남도 창원시 성산구 두대로 165,35.2242241,128.6670755
2303,창원경일여자고등학교,경상남도 창원시 성산구 두대로 163,35.2242241,128.6670755
2304,창원고등학교,경상남도 창원시 의창구 태복산로 45,35.2523939,128.6391409
2305,창원공업고등학교,경상남도 창원시 의창구 사화로 410,,
2306,창원과학고등학교,경상남도 창원시 의창구 평산로159번길 30,,
2307,창원기계공업고등학교,경상남도 창원시 성산구 두대로 219,35.2242241,128.6670755
2308,창원남고등학교,경상남도 창원시 성산구 창원대로 813,35.18863,128.7324151
2309,창원남산고등학교,경상남도 창원시 성산구 가음로92번길 34,35.2047106,128.7005147
2310,창원대산고등학교,경상남도 창원시 의창구 대산면 진산대로 378,35.3419169,128.709218
2311,창원대암고등학교,경상남도 창원시 성산구 대암로 203,35.2100942,128.7107842
2312,창원명곡고등학교,경상남도 창원시 의창구 서곡길25번길 16,35.2542671,128.6487209
2313,창원명지여자고등학교,경상남도 창원시 의창구 명지로109번길 54,35.2505729,128.6495417
2314,창원문성고등학교,경상남도 창원시 의창구 원이대로 406,35.2503025,128.6401121
2315,창원봉림고등학교,경상남도 창원시 의창구 창이대로333번길 39,35.2478988,128.6773048
2316,창원사파고등학교,경상남도 창원시 성산구 창이대로719번길 26,,
2317,창원성민여자고등학교,경상남도 창원시 의창구 팔용로 481,35.2519219,128.6100135
2318,창원신월고등학교,경상남도 창원시 의창구 신월로 66,35.2286598,128.6920224
2319,창원여자고등학교,경상남도 창원시 성산구 두대로 153,35.2242241,128.6670755
2320,창원용호고등학교,경상남도 창원시 의창구 용호로 29,35.2347676,128.6800552
2321,창원중앙고등학교,경상남도 창원시 의창구 용호로 16,35.2347676,128.6800552
2322,창원중앙여자고등학교,경상남도 창원시 성산구 단정로 121,35.2168587,128.6882745
2323,창원토월고등학교,경상남도 창원시 성산구 비음로91번길 8,,
2324,철성고등학교,경상남도 고성군 고성읍 대가로 12,,
2325,초계고등학교,경상남도 합천군 초계면 초계중앙로 101,,
2326,충렬여자고등학교,경상남도 통영시 용남면 견내량로 70,,
2327,충무고등학교,경상남도 통영시 여황로 375,34.854026899999994,128.42435371167312
2328,칠원고등학교,경상남도 함안군 칠서면 삼칠로 281,35.34846,128.49272
2329,태봉고등학교,경상남도 창원시 마산합포구 진동면 태봉1길 85-32,,
2330,통영고등학교,경상남도 통영시 도남로 116,34.82994515,128.41739929560464
2331,통영여자고등학교,경상남도 통영시 도리1길 19,34.8400473,128.41082573628012
2332,하동고등학교,경상남도 하동군 하동읍 경서대로 84,,
2333,하동여자고등학교,경상남도 하동군 하동읍 송림1길 30,,
2334,한국나노마이스터고등학교,경상남도 밀양시 무안면 신법길 29,,
2335,한일여자고등학교,경상남도 창원시 마산회원구 양덕서8길 50,,
2336,함안고등학교,경상남도 함안군 가야읍 함안대로 630,35.2880382,128.4011616
2337,함양고등학교,경상남도 함양군 함양읍 함양로 1063,35.5159389,127.7246014
2338,함양제일고등학교,경상남도 함양군 함양읍 함양배움길 27,,
2339,합천고등학교,경상남도 합천군 합천읍 교동3길 12,,
2340,합천여자고등학교,경상남도 합천군 합천읍 남정길 25-7,,
2341,합포고등학교,경상남도 창원시 마산합포구 무학로 458,35.1856306,128.5520757
2342,해성고등학교,경상남도 거제시 두모길 4,34.870375100000004,128.72423112621283
2343,효암고등학교,경상남도 양산시 서창로 144,35.4124326,129.1683522
2344,남녕고등학교,제주특별자치도 제주시 도령로 55,33.489754,126.4858073
2345,남주고등학교,제주특별자치도 서귀포시 동홍로303번길 14,,
2346,대기고등학교,제주특별자치도 제주시 번영로 453-6,33.5058867,126.5594726
2347,대정고등학교,제주특별자치도 서귀포시 대정읍 일주서로2498번길 21,33.232014649999996,126.26076519726891
2348,대정여자고등학교,제주특별자치도 서귀포시 대정읍 대한로88번길 82-22,33.22950395,126.2527719876898
2349,삼성여자고등학교,제주특별자치도 서귀포시 검은여로 151,33.2427834,126.5913927
2350,서귀포고등학교,제주특별자치도 서귀포시 중앙로 140,33.2592404,126.5595724
2351,서귀포산업과학고등학교,제주특별자치도 서귀포시 516로 501,33.2903697,126.5943163
2352,서귀포여자고등학교,제주특별자치도 서귀포시 태평로 80,33.2453715,126.5658474
2353,성산고등학교,제주특별자치도 서귀포시 성산읍 한도로 79-17,,
2354,세화고등학교,제주특별자치도 제주시 구좌읍 세종로 26,,
2355,신성여자고등학교,제주특별자치도 제주시 아봉로 174-1,33.47705345,126.56454501399224
2356,애월고등학교,제주특별자치도 제주시 애월읍 일주서로 6372-20,,
2357,영주고등학교,제주특별자치도 제주시 첨단동길 92,,
2358,오현고등학교,제주특별자치도 제주시 일주동로 101,33.5490179,126.7990264
2359,제주고등학교,제주특별자치도 제주시 1100로 3213,33.418223,126.4900011
2360,제주과학고등학교,제주특별자치도 제주시 산록북로 421-1,33.4318374,126.5574708
2361,제주대학교사범대학부설고등학교,제주특별자치도 제주시 용담로 65,33.51366805,126.50932702382946
2362,제주여자고등학교,제주특별자치도 제주시 구산로 50,33.4843228,126.5403313
2363,제주여자상업고등학교,제주특별자치도 제주시 동문로 89-1,33.513058,126.5273281
2364,제주외국어고등학교,제주특별자치도 제주시 애월읍 고성남길 34,,
2365,제주제일고등학교,제주특별자치도 제주시 진군길 22,33.4812452,126.4795729
2366,제주중앙고등학교,제주특별자치도 제주시 아봉로 323,33.4742994,126.5721775344636
2367,제주중앙여자고등학교,제주특별자치도 제주시 구남동5길 11,33.4904845,126.5408325
2368,중문고등학교,제주특별자치도 서귀포시 일주서로570번길 19,,
2369,표선고등학교,제주특별자치도 서귀포시 표선면 표선중앙로 22-15,,
2370,한국뷰티고등학교,제주특별자치도 제주시 한경면 용고로 70,,
2371,한림고등학교,제주특별자치도 제주시 한림읍 월계로 74,,
2372,한림공업고등학교,제주특별자치도 제주시 한림읍 한림중앙로 87,,
2373,함덕고등학교,제주특별자치도 제주시 조천읍 신흥로 9,,
